{
"type": "FeatureCollection",
"name": "กลุ่ม_กลุ่ม_45",
"crs": { "type": "name", "properties": { "name": "urn:ogc:def:crs:EPSG::32647" } },
"xy_coordinate_resolution": 1e-15,
"features": [
{"type":"Feature","properties":{"รหัสกลุ่มคิว":"45/001","รหัสรับเหมา":"738889","ชื่อ-สกุล รับเหมา":"รถตัดโรงงานเบอร์ 14","นักเกษตร":"4502","ศูนย์":"K2-45","โควตา":"784993","ชาวไร่":"นาย สังวาลย์ นามขันธ์","ประเภทอ้อย":"ตอ2","พื้นที่":5.56,"ตันรวม":44.48,"รหัสแปลง":"321203051515","กลุ่ม":"กลุ่ม_45"},"geometry":{"type":"MultiPolygon","coordinates":[[[[1036287.519000000320375,1680798.814200000837445],[1036286.7396,1680794.541799999773502],[1036289.348799999803305,1680787.47550000064075],[1036291.131799999624491,1680781.075400000438094],[1036292.2171,1680773.581299999728799],[1036292.557400000281632,1680769.912900000810623],[1036293.1212,1680765.57120000012219],[1036293.6826,1680761.761299999430776],[1036293.207399999722838,1680757.912200000137091],[1036290.624699999578297,1680758.946900000795722],[1036282.468000000342727,1680763.366399999707937],[1036277.6135,1680765.7983],[1036273.613800000399351,1680767.349199999123812],[1036270.590900000184774,1680768.7237],[1036267.197800000198185,1680769.635600000619888],[1036262.915699999779463,1680771.6086],[1036258.645100000314415,1680773.972799999639392],[1036253.9265,1680776.212300000712276],[1036250.9205,1680777.412900000810623],[1036245.028400000184774,1680780.989099999889731],[1036236.617999999783933,1680784.805500000715256],[1036225.256299999542534,1680789.029799999669194],[1036210.6184,1680795.710899999365211],[1036202.483,1680799.057199999690056],[1036182.483,1680806.550899999216199],[1036170.325000000186265,1680810.747099999338388],[1036160.94539999961853,1680814.74129999987781],[1036151.576899999752641,1680819.387399999424815],[1036143.633399999700487,1680823.96169999986887],[1036132.442599999718368,1680828.407600000500679],[1036122.816800000146031,1680831.612299999222159],[1036118.0011,1680833.144600000232458],[1036114.720300000160933,1680834.478800000622869],[1036112.415500000119209,1680835.29450000077486],[1036109.937,1680836.059599999338388],[1036106.891099999658763,1680836.6963],[1036105.045699999667704,1680837.318199999630451],[1036103.0016,1680838.191999999806285],[1036101.886,1680838.402000000700355],[1036098.695899999700487,1680839.208599999547005],[1036095.659099999815226,1680839.963199999183416],[1036092.6031,1680840.566400000825524],[1036088.719700000248849,1680841.230699999257922],[1036084.678399999625981,1680843.943099999800324],[1036078.961400000378489,1680845.893500000238419],[1036071.8037,1680846.847300000488758],[1036064.699300000444055,1680847.21169999986887],[1036061.05530000012368,1680848.774000000208616],[1036067.777099999599159,1680870.16469999961555],[1036075.006,1680895.375199999660254],[1036082.440000000409782,1680892.5168999992311],[1036116.747000000439584,1680874.349700000137091],[1036135.534400000236928,1680867.299100000411272],[1036158.029699999839067,1680857.397399999201298],[1036172.2226,1680851.074799999594688],[1036186.748200000263751,1680843.68610000051558],[1036201.501000000163913,1680834.941400000825524],[1036213.599600000306964,1680830.606200000271201],[1036225.882000000216067,1680825.163799999281764],[1036241.46030000038445,1680818.575300000607967],[1036252.247100000269711,1680812.932199999690056],[1036261.326299999840558,1680809.9605],[1036272.670400000177324,1680806.361999999731779],[1036287.519000000320375,1680798.814200000837445]]]]}},
{"type":"Feature","properties":{"รหัสกลุ่มคิว":"45/001","รหัสรับเหมา":"738889","ชื่อ-สกุล รับเหมา":"รถตัดโรงงานเบอร์ 14","นักเกษตร":"4502","ศูนย์":"K2-45","โควตา":"784993","ชาวไร่":"นาย สังวาลย์ นามขันธ์","ประเภทอ้อย":"ตอ2","พื้นที่":10.52,"ตันรวม":84.16,"รหัสแปลง":"321203071506","กลุ่ม":"กลุ่ม_45"},"geometry":{"type":"MultiPolygon","coordinates":[[[[1035993.471400000154972,1680798.973200000822544],[1036292.221400000154972,1680697.899900000542402],[1036294.2983,1680681.875800000503659],[1036305.288200000301003,1680638.567700000479817],[1035980.276200000196695,1680750.109999999403954],[1035993.471400000154972,1680798.973200000822544]]]]}},
{"type":"Feature","properties":{"รหัสกลุ่มคิว":"45/001","รหัสรับเหมา":"738889","ชื่อ-สกุล รับเหมา":"รถตัดโรงงานเบอร์ 14","นักเกษตร":"4502","ศูนย์":"K2-45","โควตา":"784536","ชาวไร่":"นาย สมบัติ จันทร์หอม","ประเภทอ้อย":"ปลายฝน","พื้นที่":4.95,"ตันรวม":64.35,"รหัสแปลง":"321204021504","กลุ่ม":"กลุ่ม_45"},"geometry":{"type":"MultiPolygon","coordinates":[[[[1027455.482800000347197,1677324.187300000339746],[1027458.1206,1677348.335200000554323],[1027455.893400000408292,1677365.337600000202656],[1027462.438799999654293,1677436.114800000563264],[1027468.981200000271201,1677465.07880000025034],[1027514.285699999891222,1677458.092499999329448],[1027513.382000000216067,1677402.254300000146031],[1027515.3679,1677378.532999999821186],[1027514.743700000457466,1677333.3915],[1027509.666799999773502,1677310.339299999177456],[1027455.482800000347197,1677324.187300000339746]]]]}},
{"type":"Feature","properties":{"รหัสกลุ่มคิว":"45/001","รหัสรับเหมา":"738889","ชื่อ-สกุล รับเหมา":"รถตัดโรงงานเบอร์ 14","นักเกษตร":"4502","ศูนย์":"K2-45","โควตา":"785083","ชาวไร่":"นาย อรุณรัตน์ วงจันทร์","ประเภทอ้อย":"ปลายฝน","พื้นที่":4.98,"ตันรวม":64.74,"รหัสแปลง":"321702090001","กลุ่ม":"กลุ่ม_45"},"geometry":{"type":"MultiPolygon","coordinates":[[[[1033359.285400000400841,1682616.9134],[1033331.6606,1682543.380400000140071],[1033312.372600000351667,1682553.859999999403954],[1033308.667600000277162,1682550.815199999138713],[1033300.79009999986738,1682541.569499999284744],[1033288.4145,1682524.634999999776483],[1033275.269999999552965,1682509.9035],[1033258.7939,1682515.265799999237061],[1033241.807500000111759,1682527.277899999171495],[1033246.3426,1682541.258899999782443],[1033256.390599999576807,1682565.727099999785423],[1033261.9287,1682575.104800000786781],[1033267.66330000013113,1682583.746799999848008],[1033272.2823,1682594.028899999335408],[1033274.7089,1682597.969799999147654],[1033277.477900000289083,1682602.658700000494719],[1033280.826999999582767,1682613.467000000178814],[1033282.3344,1682618.312300000339746],[1033281.678000000305474,1682623.478499999269843],[1033281.124800000339746,1682639.934499999508262],[1033359.285400000400841,1682616.9134]]]]}},
{"type":"Feature","properties":{"รหัสกลุ่มคิว":"45/001","รหัสรับเหมา":"738889","ชื่อ-สกุล รับเหมา":"รถตัดโรงงานเบอร์ 14","นักเกษตร":"4502","ศูนย์":"K2-45","โควตา":"783067","ชาวไร่":"นาย ยศ สืบสอน","ประเภทอ้อย":"ปลายฝน","พื้นที่":2.95,"ตันรวม":38.35,"รหัสแปลง":"332102050010","กลุ่ม":"กลุ่ม_45"},"geometry":{"type":"MultiPolygon","coordinates":[[[[1043577.5777000002563,1690180.920700000599027],[1043583.322700000368059,1690196.599999999627471],[1043607.1491,1690191.971899999305606],[1043595.718100000172853,1690134.890100000426173],[1043584.42879999987781,1690071.704299999400973],[1043571.073599999770522,1690012.356899999082088],[1043546.352300000376999,1690024.55210000090301],[1043561.818699999712408,1690093.572100000455976],[1043568.0877,1690125.364499999210238],[1043577.5777000002563,1690180.920700000599027]]]]}},
{"type":"Feature","properties":{"รหัสกลุ่มคิว":"45/001","รหัสรับเหมา":"738889","ชื่อ-สกุล รับเหมา":"รถตัดโรงงานเบอร์ 14","นักเกษตร":"4502","ศูนย์":"K2-45","โควตา":"783067","ชาวไร่":"นาย ยศ สืบสอน","ประเภทอ้อย":"ตอ1","พื้นที่":4.69,"ตันรวม":42.21,"รหัสแปลง":"332102051514","กลุ่ม":"กลุ่ม_45"},"geometry":{"type":"MultiPolygon","coordinates":[[[[1043658.927699999883771,1690221.676200000569224],[1043657.765100000426173,1690217.577600000426173],[1043655.563699999824166,1690211.789300000295043],[1043653.059100000187755,1690203.58809999935329],[1043651.755599999800324,1690197.820599999278784],[1043650.041400000452995,1690194.264499999582767],[1043649.519799999892712,1690193.5121],[1043647.75829999987036,1690191.990599999204278],[1043641.048899999819696,1690194.610600000247359],[1043633.629800000227988,1690196.844100000336766],[1043626.031000000424683,1690199.073300000280142],[1043618.821600000374019,1690200.016100000590086],[1043610.70990000013262,1690201.123099999502301],[1043604.5608,1690202.830800000578165],[1043594.469200000166893,1690204.0768],[1043589.081500000320375,1690203.951500000432134],[1043583.698099999688566,1690203.64130000025034],[1043581.53870000038296,1690203.776200000196695],[1043578.489900000393391,1690203.520300000905991],[1043572.033200000412762,1690203.000099999830127],[1043567.539099999703467,1690203.080700000748038],[1043557.811099999584258,1690204.150000000372529],[1043551.884600000455976,1690204.012299999594688],[1043549.909099999815226,1690203.966399999335408],[1043545.0472,1690204.408600000664592],[1043541.113400000147521,1690203.576899999752641],[1043538.607699999585748,1690203.148499999195337],[1043531.052000000141561,1690203.528100000694394],[1043522.0466,1690204.429199999198318],[1043513.417700000107288,1690204.598799999803305],[1043502.462600000202656,1690204.344200000166893],[1043498.1266,1690205.353800000622869],[1043493.610999999567866,1690206.359300000593066],[1043494.611200000159442,1690209.7138],[1043495.217799999751151,1690214.539599999785423],[1043496.581399999558926,1690217.717499999329448],[1043498.663499999791384,1690220.912000000476837],[1043501.258500000461936,1690225.228900000452995],[1043503.323300000280142,1690229.1634],[1043506.426900000311434,1690234.787599999457598],[1043508.307900000363588,1690238.902799999341369],[1043511.244800000451505,1690243.9679000005126],[1043515.058299999684095,1690249.978700000792742],[1043516.9693,1690252.799200000241399],[1043519.551400000229478,1690257.671],[1043520.923600000329316,1690260.478900000452995],[1043522.4539,1690264.215800000354648],[1043527.143799999728799,1690271.172399999573827],[1043530.0345,1690270.499299999326468],[1043540.579699999652803,1690265.192299999296665],[1043542.764899999834597,1690263.947599999606609],[1043543.483300000429153,1690263.964299999177456],[1043544.71030000038445,1690265.28830000013113],[1043548.925900000147521,1690269.457800000905991],[1043551.648900000378489,1690275.998500000685453],[1043554.226700000464916,1690281.055299999192357],[1043560.512299999594688,1690281.201400000602007],[1043565.549499999731779,1690280.948400000110269],[1043569.517699999734759,1690280.300300000235438],[1043573.836400000378489,1690280.030600000172853],[1043577.441200000233948,1690279.5592],[1043574.722500000149012,1690272.833499999716878],[1043572.8416,1690268.718299999833107],[1043568.993800000287592,1690264.18720000050962],[1043567.074199999682605,1690261.736700000241399],[1043564.1458,1690256.301599999889731],[1043564.3426,1690255.565899999812245],[1043658.927699999883771,1690221.676200000569224]]]]}},
{"type":"Feature","properties":{"รหัสกลุ่มคิว":"45/001","รหัสรับเหมา":"738889","ชื่อ-สกุล รับเหมา":"รถตัดโรงงานเบอร์ 14","นักเกษตร":"4502","ศูนย์":"K2-45","โควตา":"783456","ชาวไร่":"นาย ชัชวาล นนธิจันทร์","ประเภทอ้อย":"ปลายฝน","พื้นที่":5.18,"ตันรวม":67.34,"รหัสแปลง":"321705091508","กลุ่ม":"กลุ่ม_45"},"geometry":{"type":"MultiPolygon","coordinates":[[[[1031645.201999999582767,1681264.310000000521541],[1031643.0005,1681266.2956000007689],[1031641.605100000277162,1681272.370200000703335],[1031640.573099999688566,1681278.26799999922514],[1031640.777599999681115,1681285.119000000879169],[1031641.082399999722838,1681295.487800000235438],[1031641.140700000338256,1681300.855200000107288],[1031641.691999999806285,1681308.269099999219179],[1031641.9551,1681312.530799999833107],[1031641.608199999667704,1681319.9244],[1031658.668999999761581,1681320.495200000703335],[1031672.705299999564886,1681319.70240000076592],[1031678.2906,1681319.088500000536442],[1031684.928600000217557,1681319.60869999974966],[1031689.95409999974072,1681319.907400000840425],[1031699.466199999675155,1681320.492599999532104],[1031703.94440000038594,1681321.148900000378489],[1031709.7051,1681320.724099999293685],[1031717.989099999889731,1681319.986300000920892],[1031725.521099999547005,1681320.71169999986887],[1031733.796699999831617,1681320.343699999153614],[1031739.561599999666214,1681319.733999999240041],[1031743.166799999773502,1681319.26039999909699],[1031749.457999999634922,1681319.217599999159575],[1031756.6475,1681319.1952],[1031765.098500000312924,1681319.01630000025034],[1031771.932900000363588,1681318.800699999555945],[1031779.490000000223517,1681318.416600000113249],[1031784.908200000412762,1681317.24379999935627],[1031791.036600000225008,1681316.457299999892712],[1031799.145100000314415,1681315.5304000005126],[1031803.857300000265241,1681313.786699999123812],[1031800.0312,1681300.192500000819564],[1031796.960900000296533,1681292.906700000166893],[1031795.941700000315905,1681290.293099999427795],[1031794.396099999547005,1681287.112500000745058],[1031792.704400000162423,1681282.448400000110269],[1031791.526399999856949,1681278.906099999323487],[1031789.830500000156462,1681274.426799999549985],[1031788.9951,1681271.632400000467896],[1031786.751899999566376,1681267.510900000110269],[1031645.201999999582767,1681264.310000000521541]]]]}},
{"type":"Feature","properties":{"รหัสกลุ่มคิว":"45/001","รหัสรับเหมา":"738889","ชื่อ-สกุล รับเหมา":"รถตัดโรงงานเบอร์ 14","นักเกษตร":"4502","ศูนย์":"K2-45","โควตา":"783532","ชาวไร่":"นาง อุไรวรรณ์ ถิระศุภศรี","ประเภทอ้อย":"ตอ4","พื้นที่":7.27,"ตันรวม":50.89,"รหัสแปลง":"332102050006","กลุ่ม":"กลุ่ม_45"},"geometry":{"type":"MultiPolygon","coordinates":[[[[1042499.886400000192225,1690139.5143],[1042449.860100000165403,1690173.503499999642372],[1042484.162700000219047,1690267.444299999624491],[1042546.8597,1690242.933599999174476],[1042614.760200000368059,1690227.831900000572205],[1042620.055100000463426,1690214.318600000813603],[1042499.886400000192225,1690139.5143]]]]}},
{"type":"Feature","properties":{"รหัสกลุ่มคิว":"45/001","รหัสรับเหมา":"738889","ชื่อ-สกุล รับเหมา":"รถตัดโรงงานเบอร์ 14","นักเกษตร":"4502","ศูนย์":"K2-45","โควตา":"950372","ชาวไร่":"นางสาว สุภาพร บัวพันธ์","ประเภทอ้อย":"ตอ1","พื้นที่":3.18,"ตันรวม":28.62,"รหัสแปลง":"332101100002","กลุ่ม":"กลุ่ม_45"},"geometry":{"type":"MultiPolygon","coordinates":[[[[1043691.30599999986589,1685994.350600000470877],[1043630.69469999987632,1685942.0515],[1043612.206299999728799,1685941.067600000649691],[1043582.3277000002563,1685958.511600000783801],[1043629.333200000226498,1686031.777899999171495],[1043691.30599999986589,1685994.350600000470877]]]]}},
{"type":"Feature","properties":{"รหัสกลุ่มคิว":"45/001","รหัสรับเหมา":"738889","ชื่อ-สกุล รับเหมา":"รถตัดโรงงานเบอร์ 14","นักเกษตร":"4502","ศูนย์":"K2-45","โควตา":"784207","ชาวไร่":"นาย ธีรพงษ์ บุญยืน","ประเภทอ้อย":"ตอ1","พื้นที่":3.24,"ตันรวม":29.16,"รหัสแปลง":"332101101501","กลุ่ม":"กลุ่ม_45"},"geometry":{"type":"MultiPolygon","coordinates":[[[[1043528.484400000423193,1686009.637599999085069],[1043545.8755,1686050.200400000438094],[1043574.1798,1686038.642100000753999],[1043594.661600000225008,1686031.159099999815226],[1043605.0916,1686046.3914],[1043627.883399999700487,1686032.299499999731779],[1043587.592000000178814,1685964.000600000843406],[1043528.9046,1685991.510700000450015],[1043526.996899999678135,1685996.278200000524521],[1043528.484400000423193,1686009.637599999085069]]]]}},
{"type":"Feature","properties":{"รหัสกลุ่มคิว":"45/001","รหัสรับเหมา":"738889","ชื่อ-สกุล รับเหมา":"รถตัดโรงงานเบอร์ 14","นักเกษตร":"4502","ศูนย์":"K2-45","โควตา":"950288","ชาวไร่":"นาง ศิรินันท์ อุตะพันธ์","ประเภทอ้อย":"ตอ1","พื้นที่":2.32,"ตันรวม":20.88,"รหัสแปลง":"332102021501","กลุ่ม":"กลุ่ม_45"},"geometry":{"type":"MultiPolygon","coordinates":[[[[1041364.261099999770522,1695107.230399999767542],[1041316.69649999961257,1694997.123400000855327],[1041310.198400000110269,1694998.453099999576807],[1041290.289099999703467,1695004.838199999183416],[1041331.329900000244379,1695117.384500000625849],[1041364.261099999770522,1695107.230399999767542]]]]}},
{"type":"Feature","properties":{"รหัสกลุ่มคิว":"45/001","รหัสรับเหมา":"738889","ชื่อ-สกุล รับเหมา":"รถตัดโรงงานเบอร์ 14","นักเกษตร":"4502","ศูนย์":"K2-45","โควตา":"784990","ชาวไร่":"นาย กิตติศักดิ์ บุญประคม","ประเภทอ้อย":"ปลายฝน","พื้นที่":11.8,"ตันรวม":153.4,"รหัสแปลง":"321703030002","กลุ่ม":"กลุ่ม_45"},"geometry":{"type":"MultiPolygon","coordinates":[[[[1021984.573300000280142,1682503.118699999526143],[1021984.137500000186265,1682508.091600000858307],[1021985.5619,1682516.380899999290705],[1021988.892199999652803,1682522.675000000745058],[1021992.38399999961257,1682532.270999999716878],[1021994.496399999596179,1682538.472799999639392],[1021996.6683,1682545.248199999332428],[1021999.438900000415742,1682551.9206000007689],[1022000.86739999987185,1682558.395700000226498],[1022001.291500000283122,1682560.051999999210238],[1022004.858300000429153,1682571.966499999165535],[1022008.164200000464916,1682583.833399999886751],[1022010.7835,1682593.652000000700355],[1022015.640700000338256,1682604.432099999859929],[1022024.402099999599159,1682626.580700000748038],[1022029.3267,1682638.395199999213219],[1022035.074199999682605,1682655.466299999505281],[1022042.783900000154972,1682670.450400000438094],[1022051.88219999987632,1682685.572300000116229],[1022058.66399999987334,1682695.13910000026226],[1022068.376299999654293,1682707.841600000858307],[1022079.92989999987185,1682723.892699999734759],[1022084.359299999661744,1682728.30379999987781],[1022091.736600000411272,1682730.593800000846386],[1022105.85080000013113,1682723.324400000274181],[1022113.647699999623001,1682719.743300000205636],[1022126.890999999828637,1682715.0691],[1022135.833399999886751,1682711.587899999693036],[1022134.762900000438094,1682695.109099999070168],[1022120.3092,1682650.563699999824166],[1022099.042999999597669,1682588.476800000295043],[1022078.715800000354648,1682534.552300000563264],[1022065.155799999833107,1682490.850199999287724],[1021984.573300000280142,1682503.118699999526143]]]]}},
{"type":"Feature","properties":{"รหัสกลุ่มคิว":"45/001","รหัสรับเหมา":"738889","ชื่อ-สกุล รับเหมา":"รถตัดโรงงานเบอร์ 14","นักเกษตร":"4502","ศูนย์":"K2-45","โควตา":"785096","ชาวไร่":"นาย แมน มะเดื่อ","ประเภทอ้อย":"ตอ1","พื้นที่":3.24,"ตันรวม":29.16,"รหัสแปลง":"321705010021","กลุ่ม":"กลุ่ม_45"},"geometry":{"type":"MultiPolygon","coordinates":[[[[1023155.603000000119209,1682303.5483],[1023208.541199999861419,1682315.76799999922514],[1023195.990899999625981,1682209.412200000137091],[1023140.803600000217557,1682217.23509999923408],[1023155.603000000119209,1682303.5483]]]]}},
{"type":"Feature","properties":{"รหัสกลุ่มคิว":"45/001","รหัสรับเหมา":"738889","ชื่อ-สกุล รับเหมา":"รถตัดโรงงานเบอร์ 14","นักเกษตร":"4502","ศูนย์":"K2-45","โควตา":"784400","ชาวไร่":"นาย ประเสริฐ พงษ์ภา","ประเภทอ้อย":"ปลายฝน","พื้นที่":3.8,"ตันรวม":49.4,"รหัสแปลง":"332104031508","กลุ่ม":"กลุ่ม_45"},"geometry":{"type":"MultiPolygon","coordinates":[[[[1048621.9583,1687465.120200000703335],[1048716.138500000350177,1687454.155600000172853],[1048701.4704,1687390.870500000193715],[1048603.947100000455976,1687406.026799999177456],[1048621.9583,1687465.120200000703335]]]]}},
{"type":"Feature","properties":{"รหัสกลุ่มคิว":"45/001","รหัสรับเหมา":"738889","ชื่อ-สกุล รับเหมา":"รถตัดโรงงานเบอร์ 14","นักเกษตร":"4502","ศูนย์":"K2-45","โควตา":"950277","ชาวไร่":"นาย สอน ไชยสาร","ประเภทอ้อย":"ตอ1","พื้นที่":11.16,"ตันรวม":100.44,"รหัสแปลง":"331005090001","กลุ่ม":"กลุ่ม_45"},"geometry":{"type":"MultiPolygon","coordinates":[[[[1052759.738099999725819,1685277.7818],[1052732.154199999757111,1685166.816800000146031],[1052684.318799999542534,1685167.7259],[1052635.546900000423193,1685177.867599999532104],[1052591.2818,1685172.197599999606609],[1052614.474100000225008,1685271.212899999693036],[1052623.446600000374019,1685294.745799999684095],[1052630.303399999625981,1685324.151900000870228],[1052690.294300000183284,1685295.580299999564886],[1052714.055200000293553,1685286.5153],[1052727.809000000357628,1685282.5822],[1052759.738099999725819,1685277.7818]]]]}},
{"type":"Feature","properties":{"รหัสกลุ่มคิว":"45/001","รหัสรับเหมา":"738889","ชื่อ-สกุล รับเหมา":"รถตัดโรงงานเบอร์ 14","นักเกษตร":"4502","ศูนย์":"K2-45","โควตา":"950263","ชาวไร่":"นาย สมบัติ นาโนน","ประเภทอ้อย":"ตอ1","พื้นที่":7.01,"ตันรวม":63.09,"รหัสแปลง":"331801031508","กลุ่ม":"กลุ่ม_45"},"geometry":{"type":"MultiPolygon","coordinates":[[[[1045914.480100000277162,1680921.822499999776483],[1045916.757500000298023,1680920.498400000855327],[1045901.779900000430644,1680847.4070999994874],[1045825.2412,1680890.477],[1045855.708100000396371,1681014.945599999278784],[1045932.740299999713898,1680992.423800000920892],[1045914.480100000277162,1680921.822499999776483]]]]}},
{"type":"Feature","properties":{"รหัสกลุ่มคิว":"45/001","รหัสรับเหมา":"738889","ชื่อ-สกุล รับเหมา":"รถตัดโรงงานเบอร์ 14","นักเกษตร":"4502","ศูนย์":"K2-45","โควตา":"784776","ชาวไร่":"นาย ไกรษร พานอุ่น","ประเภทอ้อย":"ตอ2","พื้นที่":5.84,"ตันรวม":46.72,"รหัสแปลง":"321702091551","กลุ่ม":"กลุ่ม_45"},"geometry":{"type":"MultiPolygon","coordinates":[[[[1034954.047500000335276,1688021.707299999892712],[1035018.290699999779463,1688019.776499999687076],[1035009.353900000452995,1687878.902799999341369],[1034933.676599999889731,1687900.208799999207258],[1034954.047500000335276,1688021.707299999892712]]]]}},
{"type":"Feature","properties":{"รหัสกลุ่มคิว":"45/001","รหัสรับเหมา":"738889","ชื่อ-สกุล รับเหมา":"รถตัดโรงงานเบอร์ 14","นักเกษตร":"4502","ศูนย์":"K2-45","โควตา":"784979","ชาวไร่":"นาง ลอย นามนุ","ประเภทอ้อย":"ตอ2","พื้นที่":5.59,"ตันรวม":44.72,"รหัสแปลง":"321209021545","กลุ่ม":"กลุ่ม_45"},"geometry":{"type":"MultiPolygon","coordinates":[[[[1032820.8207,1675725.227900000289083],[1032881.011599999852479,1675787.403200000524521],[1032894.937599999830127,1675782.289799999445677],[1032926.817900000140071,1675773.31870000064373],[1032963.656499999575317,1675763.874500000849366],[1032968.7166,1675763.002900000661612],[1032997.713399999774992,1675758.106799999251962],[1032996.1963,1675738.746799999848008],[1032992.932799999602139,1675710.939600000157952],[1032990.055100000463426,1675709.363600000739098],[1032981.327100000344217,1675708.783399999141693],[1032956.458999999798834,1675709.6261],[1032933.134200000204146,1675713.245999999344349],[1032918.1902,1675714.003200000151992],[1032908.043499999679625,1675715.064099999144673],[1032876.713399999774992,1675715.955199999734759],[1032864.706000000238419,1675718.499600000679493],[1032849.980600000359118,1675719.177300000563264],[1032834.268299999646842,1675721.620300000533462],[1032820.8207,1675725.227900000289083]]]]}},
{"type":"Feature","properties":{"รหัสกลุ่มคิว":"45/001","รหัสรับเหมา":"738889","ชื่อ-สกุล รับเหมา":"รถตัดโรงงานเบอร์ 14","นักเกษตร":"4502","ศูนย์":"K2-45","โควตา":"784400","ชาวไร่":"นาย ประเสริฐ พงษ์ภา","ประเภทอ้อย":"ตอ2","พื้นที่":7.0,"ตันรวม":56.0,"รหัสแปลง":"332104031524","กลุ่ม":"กลุ่ม_45"},"geometry":{"type":"MultiPolygon","coordinates":[[[[1048798.5625,1687445.187999999150634],[1048740.261900000274181,1687456.697300000116229],[1048790.5093,1687631.381100000813603],[1048853.630199999548495,1687616.9978],[1048798.5625,1687445.187999999150634]]]]}},
{"type":"Feature","properties":{"รหัสกลุ่มคิว":"45/001","รหัสรับเหมา":"738889","ชื่อ-สกุล รับเหมา":"รถตัดโรงงานเบอร์ 14","นักเกษตร":"4502","ศูนย์":"K2-45","โควตา":"784776","ชาวไร่":"นาย ไกรษร พานอุ่น","ประเภทอ้อย":"ตอ2","พื้นที่":4.64,"ตันรวม":37.12,"รหัสแปลง":"321702101552","กลุ่ม":"กลุ่ม_45"},"geometry":{"type":"MultiPolygon","coordinates":[[[[1034803.509399999864399,1688002.758099999278784],[1034940.481100000441074,1687971.062000000849366],[1034929.049499999731779,1687919.931500000879169],[1034828.436300000175834,1687945.48450000025332],[1034779.1744,1687963.78690000064671],[1034803.509399999864399,1688002.758099999278784]]]]}},
{"type":"Feature","properties":{"รหัสกลุ่มคิว":"45/001","รหัสรับเหมา":"738889","ชื่อ-สกุล รับเหมา":"รถตัดโรงงานเบอร์ 14","นักเกษตร":"4502","ศูนย์":"K2-45","โควตา":"950243","ชาวไร่":"นาง นิตยาภรณ์ เกษโสภา","ประเภทอ้อย":"ตอ1","พื้นที่":7.46,"ตันรวม":67.14,"รหัสแปลง":"332101041508","กลุ่ม":"กลุ่ม_45"},"geometry":{"type":"MultiPolygon","coordinates":[[[[1047651.458700000308454,1688464.873500000685453],[1047631.8827,1688490.084300000220537],[1047676.104799999855459,1688571.442800000309944],[1047749.689000000245869,1688518.968699999153614],[1047789.306400000117719,1688505.819199999794364],[1047779.58559999987483,1688440.519999999552965],[1047651.458700000308454,1688464.873500000685453]]]]}},
{"type":"Feature","properties":{"รหัสกลุ่มคิว":"45/001","รหัสรับเหมา":"738889","ชื่อ-สกุล รับเหมา":"รถตัดโรงงานเบอร์ 14","นักเกษตร":"4502","ศูนย์":"K2-45","โควตา":"784776","ชาวไร่":"นาย ไกรษร พานอุ่น","ประเภทอ้อย":"ตอ2","พื้นที่":5.74,"ตันรวม":45.92,"รหัสแปลง":"321702051546","กลุ่ม":"กลุ่ม_45"},"geometry":{"type":"MultiPolygon","coordinates":[[[[1034933.232599999755621,1687920.728700000792742],[1034934.371299999766052,1687889.474999999627471],[1034925.697599999606609,1687872.316400000825524],[1034911.3465,1687873.897099999710917],[1034748.312400000169873,1687915.140699999406934],[1034779.003100000321865,1687963.82630000077188],[1034933.232599999755621,1687920.728700000792742]]]]}},
{"type":"Feature","properties":{"รหัสกลุ่มคิว":"45/001","รหัสรับเหมา":"738889","ชื่อ-สกุล รับเหมา":"รถตัดโรงงานเบอร์ 14","นักเกษตร":"4502","ศูนย์":"K2-45","โควตา":"950277","ชาวไร่":"นาย สอน ไชยสาร","ประเภทอ้อย":"ปลายฝน","พื้นที่":17.13,"ตันรวม":222.69,"รหัสแปลง":"331002050010","กลุ่ม":"กลุ่ม_45"},"geometry":{"type":"MultiPolygon","coordinates":[[[[1053177.057400000281632,1684586.669700000435114],[1053184.265599999576807,1684585.914100000634789],[1053183.471699999645352,1684505.194700000807643],[1053291.410000000149012,1684455.912699999287724],[1053230.574,1684291.411399999633431],[1053092.3569,1684382.181500000879169],[1053177.057400000281632,1684586.669700000435114]]]]}},
{"type":"Feature","properties":{"รหัสกลุ่มคิว":"45/001","รหัสรับเหมา":"738889","ชื่อ-สกุล รับเหมา":"รถตัดโรงงานเบอร์ 14","นักเกษตร":"4502","ศูนย์":"K2-45","โควตา":"784207","ชาวไร่":"นาย ธีรพงษ์ บุญยืน","ประเภทอ้อย":"ตอ1","พื้นที่":5.25,"ตันรวม":47.25,"รหัสแปลง":"332101051504","กลุ่ม":"กลุ่ม_45"},"geometry":{"type":"MultiPolygon","coordinates":[[[[1043435.646200000308454,1689569.162200000137091],[1043502.659199999645352,1689538.524800000712276],[1043456.269799999892712,1689437.268200000748038],[1043389.0784,1689450.652599999681115],[1043435.646200000308454,1689569.162200000137091]]]]}},
{"type":"Feature","properties":{"รหัสกลุ่มคิว":"45/001","รหัสรับเหมา":"738889","ชื่อ-สกุล รับเหมา":"รถตัดโรงงานเบอร์ 14","นักเกษตร":"4502","ศูนย์":"K2-45","โควตา":"950243","ชาวไร่":"นาง นิตยาภรณ์ เกษโสภา","ประเภทอ้อย":"ปลายฝน","พื้นที่":7.01,"ตันรวม":91.13,"รหัสแปลง":"331005010004","กลุ่ม":"กลุ่ม_45"},"geometry":{"type":"MultiPolygon","coordinates":[[[[1054069.464499999769032,1681066.069700000807643],[1054036.248100000433624,1680969.639399999752641],[1053990.965400000102818,1680980.129499999806285],[1053950.034699999727309,1681081.844200000166893],[1053948.9561,1681091.548499999567866],[1053980.531999999657273,1681127.059699999168515],[1054069.464499999769032,1681066.069700000807643]]]]}},
{"type":"Feature","properties":{"รหัสกลุ่มคิว":"45/001","รหัสรับเหมา":"738889","ชื่อ-สกุล รับเหมา":"รถตัดโรงงานเบอร์ 14","นักเกษตร":"4502","ศูนย์":"K2-45","โควตา":"950311","ชาวไร่":"นาย วงเดือน ชราศรี","ประเภทอ้อย":"ตอ5","พื้นที่":3.46,"ตันรวม":24.22,"รหัสแปลง":"331007013010","กลุ่ม":"กลุ่ม_45"},"geometry":{"type":"MultiPolygon","coordinates":[[[[1048125.883399999700487,1680988.480399999767542],[1048226.324199999682605,1680925.732799999415874],[1048218.595700000412762,1680890.328199999406934],[1048100.720099999569356,1680941.994400000199676],[1048121.352699999697506,1680990.040500000119209],[1048125.883399999700487,1680988.480399999767542]]]]}},
{"type":"Feature","properties":{"รหัสกลุ่มคิว":"45/001","รหัสรับเหมา":"738889","ชื่อ-สกุล รับเหมา":"รถตัดโรงงานเบอร์ 14","นักเกษตร":"4502","ศูนย์":"K2-45","โควตา":"784207","ชาวไร่":"นาย ธีรพงษ์ บุญยืน","ประเภทอ้อย":"ตอ1","พื้นที่":6.2,"ตันรวม":55.8,"รหัสแปลง":"332101051505","กลุ่ม":"กลุ่ม_45"},"geometry":{"type":"MultiPolygon","coordinates":[[[[1043557.1869,1689645.6338],[1043503.928999999538064,1689536.543299999088049],[1043434.779500000178814,1689565.1634],[1043489.266200000420213,1689688.894099999219179],[1043557.1869,1689645.6338]]]]}},
{"type":"Feature","properties":{"รหัสกลุ่มคิว":"45/001","รหัสรับเหมา":"738889","ชื่อ-สกุล รับเหมา":"รถตัดโรงงานเบอร์ 14","นักเกษตร":"4502","ศูนย์":"K2-45","โควตา":"784993","ชาวไร่":"นาย สังวาลย์ นามขันธ์","ประเภทอ้อย":"ตอ1","พื้นที่":9.2,"ตันรวม":82.8,"รหัสแปลง":"321203051531","กลุ่ม":"กลุ่ม_45"},"geometry":{"type":"MultiPolygon","coordinates":[[[[1034986.74199999962002,1680962.425899999216199],[1034989.978500000201166,1680970.271299999207258],[1034992.692900000140071,1680977.364800000563264],[1034994.50069999974221,1680984.807700000703335],[1034995.769500000402331,1680992.238299999386072],[1035001.173100000247359,1681007.534800000488758],[1035003.448200000450015,1681018.134099999442697],[1035006.92200000025332,1681031.351299999281764],[1035009.752899999730289,1681041.222999999299645],[1035012.592199999839067,1681050.724899999797344],[1035014.729799999855459,1681059.470599999651313],[1035017.585900000296533,1681068.232599999755621],[1035021.059600000269711,1681081.449799999594688],[1035025.0554,1681095.418999999761581],[1035026.182500000111759,1681101.181099999696016],[1035028.286399999633431,1681111.406400000676513],[1035031.092000000178814,1681122.387800000607967],[1035034.161399999633431,1681129.6744],[1035035.468100000172853,1681135.440500000491738],[1035037.138299999758601,1681141.029799999669194],[1035038.6162,1681147.1699],[1035045.271300000138581,1681146.951199999079108],[1035051.074500000104308,1681144.677699999883771],[1035057.596300000324845,1681142.420499999076128],[1035065.204300000332296,1681139.817900000140071],[1035076.9567,1681136.754499999806285],[1035080.762799999676645,1681135.3608],[1035081.673600000329316,1681134.826400000602007],[1035082.221,1681134.468800000846386],[1035084.594200000166893,1681132.8574],[1035086.574400000274181,1681132.717399999499321],[1035087.652300000190735,1681132.741900000721216],[1035095.051199999637902,1681131.42989999987185],[1035101.3849,1681129.538499999791384],[1035106.440100000239909,1681128.543299999088049],[1035110.78940000012517,1681126.97690000012517],[1035112.790699999779463,1681125.912100000306964],[1035115.6902,1681124.867799999192357],[1035116.810100000351667,1681123.042899999767542],[1035117.19469999987632,1681121.941400000825524],[1035115.37430000025779,1681115.053300000727177],[1035113.879599999636412,1681109.653000000864267],[1035112.7484,1681104.075899999588728],[1035112.105600000359118,1681100.730499999597669],[1035111.487999999895692,1681096.275399999693036],[1035109.85149999987334,1681089.206399999558926],[1035108.669800000265241,1681085.8487],[1035106.786299999803305,1681081.734899999573827],[1035106.285199999809265,1681080.0581],[1035104.376500000245869,1681077.053999999538064],[1035102.046699999831617,1681068.858999999240041],[1035101.617200000211596,1681064.038100000470877],[1035100.335799999535084,1681057.162200000137091],[1035099.559600000269711,1681051.778300000354648],[1035097.58490000013262,1681043.776499999687076],[1035095.079599999822676,1681035.392400000244379],[1035094.0115,1681027.04109999909997],[1035092.5757,1681019.051599999889731],[1035091.0767,1681013.836200000718236],[1035089.590400000102818,1681008.065999999642372],[1035088.095599999651313,1681002.665699999779463],[1035086.755300000309944,1680998.379200000315905],[1035085.941200000233948,1680994.659800000488758],[1035084.668200000189245,1680987.414100000634789],[1035081.799499999731779,1680979.206900000572205],[1035079.778400000184774,1680973.239499999210238],[1035077.8065,1680973.009600000455976],[1035076.553299999795854,1680972.796],[1035075.483799999579787,1680972.401599999517202],[1035074.406000000424683,1680972.377100000157952],[1035070.0777000002563,1680973.018799999728799],[1035065.937599999830127,1680973.294700000435114],[1035059.624800000339746,1680974.261299999430776],[1035055.11699999962002,1680974.898900000378489],[1035048.428100000135601,1680976.597200000658631],[1035041.041799999773502,1680977.354399999603629],[1035038.285299999639392,1680972.110400000587106],[1035037.283200000412762,1680968.756799999624491],[1035034.63190000038594,1680958.8892],[1034986.74199999962002,1680962.425899999216199]]]]}},
{"type":"Feature","properties":{"รหัสกลุ่มคิว":"45/001","รหัสรับเหมา":"738889","ชื่อ-สกุล รับเหมา":"รถตัดโรงงานเบอร์ 14","นักเกษตร":"4502","ศูนย์":"K2-45","โควตา":"784747","ชาวไร่":"นาย สมบูรณ์ นามอนุ","ประเภทอ้อย":"ตอ4","พื้นที่":2.34,"ตันรวม":16.38,"รหัสแปลง":"321209021562","กลุ่ม":"กลุ่ม_45"},"geometry":{"type":"MultiPolygon","coordinates":[[[[1032871.721,1676244.449799999594688],[1032871.452100000344217,1676202.643699999898672],[1032870.197700000368059,1676188.079199999570847],[1032867.29590000025928,1676167.9485],[1032860.596099999733269,1676099.604900000616908],[1032832.856599999591708,1676103.146099999547005],[1032832.599100000225008,1676110.823100000619888],[1032838.3536,1676135.97749999910593],[1032841.340599999763072,1676157.735500000417233],[1032845.110600000247359,1676204.655500000342727],[1032848.864900000393391,1676247.207499999552965],[1032871.721,1676244.449799999594688]]]]}},
{"type":"Feature","properties":{"รหัสกลุ่มคิว":"45/001","รหัสรับเหมา":"738889","ชื่อ-สกุล รับเหมา":"รถตัดโรงงานเบอร์ 14","นักเกษตร":"4502","ศูนย์":"K2-45","โควตา":"783067","ชาวไร่":"นาย ยศ สืบสอน","ประเภทอ้อย":"ปลายฝน","พื้นที่":3.65,"ตันรวม":47.45,"รหัสแปลง":"321702011529","กลุ่ม":"กลุ่ม_45"},"geometry":{"type":"MultiPolygon","coordinates":[[[[1043647.312800000421703,1690187.485600000247359],[1043609.422500000335276,1690069.553999999538064],[1043596.494900000281632,1690024.961300000548363],[1043592.88289999961853,1690013.282500000670552],[1043587.9397,1690005.023800000548363],[1043570.795199999585748,1690014.343699999153614],[1043606.706199999898672,1690197.221599999815226],[1043620.441499999724329,1690193.8399],[1043647.312800000421703,1690187.485600000247359]]]]}},
{"type":"Feature","properties":{"รหัสกลุ่มคิว":"45/001","รหัสรับเหมา":"738889","ชื่อ-สกุล รับเหมา":"รถตัดโรงงานเบอร์ 14","นักเกษตร":"4502","ศูนย์":"K2-45","โควตา":"950277","ชาวไร่":"นาย สอน ไชยสาร","ประเภทอ้อย":"ตอ1","พื้นที่":4.8,"ตันรวม":43.2,"รหัสแปลง":"331010100001","กลุ่ม":"กลุ่ม_45"},"geometry":{"type":"MultiPolygon","coordinates":[[[[1055784.057400000281632,1682748.514799999073148],[1055828.45409999974072,1682930.661399999633431],[1055888.362099999561906,1682918.7949],[1055890.207000000402331,1682899.28969999961555],[1055859.609000000171363,1682904.351299999281764],[1055822.0313,1682737.8048],[1055784.057400000281632,1682748.514799999073148]]]]}},
{"type":"Feature","properties":{"รหัสกลุ่มคิว":"45/001","รหัสรับเหมา":"738889","ชื่อ-สกุล รับเหมา":"รถตัดโรงงานเบอร์ 14","นักเกษตร":"4502","ศูนย์":"K2-45","โควตา":"950243","ชาวไร่":"นาง นิตยาภรณ์ เกษโสภา","ประเภทอ้อย":"ปลายฝน","พื้นที่":13.72,"ตันรวม":178.36,"รหัสแปลง":"331005080001","กลุ่ม":"กลุ่ม_45"},"geometry":{"type":"MultiPolygon","coordinates":[[[[1053849.352400000207126,1681242.920099999755621],[1053922.160299999639392,1681179.767400000244379],[1053822.532599999569356,1681014.929199999198318],[1053791.6952,1680976.358799999579787],[1053726.759399999864399,1681016.6119],[1053849.352400000207126,1681242.920099999755621]]]]}},
{"type":"Feature","properties":{"รหัสกลุ่มคิว":"45/001","รหัสรับเหมา":"738889","ชื่อ-สกุล รับเหมา":"รถตัดโรงงานเบอร์ 14","นักเกษตร":"4502","ศูนย์":"K2-45","โควตา":"785125","ชาวไร่":"น.ส. ปนัดดา ยอดอาจ","ประเภทอ้อย":"ปลายฝน","พื้นที่":4.87,"ตันรวม":63.31,"รหัสแปลง":"321702091571","กลุ่ม":"กลุ่ม_45"},"geometry":{"type":"MultiPolygon","coordinates":[[[[1033418.730600000359118,1682658.4419],[1033288.440700000151992,1682666.1546],[1033290.354799999855459,1682699.8783],[1033290.185100000351667,1682705.975199999287724],[1033293.928299999795854,1682725.479399999603629],[1033339.975700000301003,1682724.026699999347329],[1033363.794700000435114,1682723.819199999794364],[1033410.44510000012815,1682727.676100000739098],[1033418.761,1682658.431500000879169],[1033418.730600000359118,1682658.4419]]]]}},
{"type":"Feature","properties":{"รหัสกลุ่มคิว":"45/001","รหัสรับเหมา":"738889","ชื่อ-สกุล รับเหมา":"รถตัดโรงงานเบอร์ 14","นักเกษตร":"4502","ศูนย์":"K2-45","โควตา":"950243","ชาวไร่":"นาง นิตยาภรณ์ เกษโสภา","ประเภทอ้อย":"ตอ3","พื้นที่":4.96,"ตันรวม":34.72,"รหัสแปลง":"331005040001","กลุ่ม":"กลุ่ม_45"},"geometry":{"type":"MultiPolygon","coordinates":[[[[1054236.28110000025481,1681481.555800000205636],[1054217.13190000038594,1681420.518699999898672],[1054096.649299999698997,1681478.977299999445677],[1054131.803999999538064,1681532.651200000196695],[1054236.28110000025481,1681481.555800000205636]]]]}},
{"type":"Feature","properties":{"รหัสกลุ่มคิว":"45/001","รหัสรับเหมา":"738889","ชื่อ-สกุล รับเหมา":"รถตัดโรงงานเบอร์ 14","นักเกษตร":"4502","ศูนย์":"K2-45","โควตา":"950243","ชาวไร่":"นาง นิตยาภรณ์ เกษโสภา","ประเภทอ้อย":"ตอ3","พื้นที่":4.29,"ตันรวม":30.03,"รหัสแปลง":"331005120001","กลุ่ม":"กลุ่ม_45"},"geometry":{"type":"MultiPolygon","coordinates":[[[[1054253.724299999885261,1681562.794600000604987],[1054183.720200000330806,1681602.107599999755621],[1054248.9868,1681695.113500000908971],[1054284.860999999567866,1681677.965399999171495],[1054253.724299999885261,1681562.794600000604987]]]]}},
{"type":"Feature","properties":{"รหัสกลุ่มคิว":"45/001","รหัสรับเหมา":"738889","ชื่อ-สกุล รับเหมา":"รถตัดโรงงานเบอร์ 14","นักเกษตร":"4502","ศูนย์":"K2-45","โควตา":"950243","ชาวไร่":"นาง นิตยาภรณ์ เกษโสภา","ประเภทอ้อย":"ตอ3","พื้นที่":5.0,"ตันรวม":35.0,"รหัสแปลง":"331005120002","กลุ่ม":"กลุ่ม_45"},"geometry":{"type":"MultiPolygon","coordinates":[[[[1054233.7385,1681480.48589999973774],[1054133.439799999818206,1681533.8301],[1054184.8997,1681600.780999999493361],[1054254.631099999882281,1681563.067299999296665],[1054233.7385,1681480.48589999973774]]]]}},
{"type":"Feature","properties":{"รหัสกลุ่มคิว":"45/001","รหัสรับเหมา":"738889","ชื่อ-สกุล รับเหมา":"รถตัดโรงงานเบอร์ 14","นักเกษตร":"4502","ศูนย์":"K2-45","โควตา":"950311","ชาวไร่":"นาย วงเดือน ชราศรี","ประเภทอ้อย":"ตอ2","พื้นที่":6.18,"ตันรวม":49.44,"รหัสแปลง":"331007013016","กลุ่ม":"กลุ่ม_45"},"geometry":{"type":"MultiPolygon","coordinates":[[[[1046760.036899999715388,1680150.943900000303984],[1046648.536399999633431,1680184.299799999222159],[1046655.253899999894202,1680205.705299999564886],[1046679.413200000301003,1680230.927200000733137],[1046717.207600000314415,1680259.207100000232458],[1046798.85010000038892,1680237.32289999909699],[1046760.036899999715388,1680150.943900000303984]]]]}},
{"type":"Feature","properties":{"รหัสกลุ่มคิว":"45/001","รหัสรับเหมา":"738889","ชื่อ-สกุล รับเหมา":"รถตัดโรงงานเบอร์ 14","นักเกษตร":"4502","ศูนย์":"K2-45","โควตา":"950311","ชาวไร่":"นาย วงเดือน ชราศรี","ประเภทอ้อย":"ตอ2","พื้นที่":6.67,"ตันรวม":53.36,"รหัสแปลง":"331007013017","กลุ่ม":"กลุ่ม_45"},"geometry":{"type":"MultiPolygon","coordinates":[[[[1047907.029900000430644,1682095.654100000858307],[1047807.475700000301003,1682120.5033],[1047853.609299999661744,1682227.153000000864267],[1047936.136900000274181,1682200.115399999544024],[1047923.505400000140071,1682149.4002],[1047907.029900000430644,1682095.654100000858307]]]]}},
{"type":"Feature","properties":{"รหัสกลุ่มคิว":"45/001","รหัสรับเหมา":"738889","ชื่อ-สกุล รับเหมา":"รถตัดโรงงานเบอร์ 14","นักเกษตร":"4502","ศูนย์":"K2-45","โควตา":"784990","ชาวไร่":"นาย กิตติศักดิ์ บุญประคม","ประเภทอ้อย":"ตอ2","พื้นที่":7.44,"ตันรวม":59.52,"รหัสแปลง":"321705081597","กลุ่ม":"กลุ่ม_45"},"geometry":{"type":"MultiPolygon","coordinates":[[[[1023841.748599999584258,1678418.115299999713898],[1023867.7489,1678417.470000000670552],[1023876.2166,1678414.2807],[1023863.416600000113249,1678375.33049999922514],[1023858.5115,1678356.100299999117851],[1023850.791400000452995,1678328.921900000423193],[1023845.589100000448525,1678305.172399999573827],[1023834.772599999792874,1678267.657400000840425],[1023829.776700000278652,1678243.563500000163913],[1023830.0296,1678237.474600000306964],[1023829.14049999974668,1678237.217599999159575],[1023803.553600000217557,1678232.68019999936223],[1023793.980700000189245,1678231.504300000146031],[1023780.954800000414252,1678229.935200000181794],[1023767.813,1678231.9506],[1023770.4786,1678249.060599999502301],[1023772.784799999557436,1678266.8838],[1023775.860100000165403,1678282.234999999403954],[1023777.909599999897182,1678292.092399999499321],[1023779.112200000323355,1678302.233200000599027],[1023782.979799999855459,1678314.471100000664592],[1023791.99199999962002,1678342.078400000929832],[1023792.478400000371039,1678348.2489],[1023795.759399999864399,1678360.85050000064075],[1023799.317800000309944,1678378.8597],[1023801.723399999551475,1678388.962200000882149],[1023805.0088,1678400.144999999552965],[1023809.204300000332296,1678412.264599999412894],[1023812.963200000114739,1678425.3235],[1023841.748599999584258,1678418.115299999713898]]]]}},
{"type":"Feature","properties":{"รหัสกลุ่มคิว":"45/001","รหัสรับเหมา":"738889","ชื่อ-สกุล รับเหมา":"รถตัดโรงงานเบอร์ 14","นักเกษตร":"4502","ศูนย์":"K2-45","โควตา":"950277","ชาวไร่":"นาย สอน ไชยสาร","ประเภทอ้อย":"ตอ2","พื้นที่":12.12,"ตันรวม":96.96,"รหัสแปลง":"331005090014","กลุ่ม":"กลุ่ม_45"},"geometry":{"type":"MultiPolygon","coordinates":[[[[1054535.395100000314415,1683053.54590000025928],[1054378.326399999670684,1683100.977399999275804],[1054430.088899999856949,1683223.440999999642372],[1054531.830500000156462,1683177.334599999710917],[1054525.415500000119209,1683161.074300000444055],[1054579.170800000429153,1683140.118699999526143],[1054579.608900000341237,1683103.945699999108911],[1054561.13260000012815,1683113.199400000274181],[1054555.2895,1683094.181500000879169],[1054545.3246,1683097.46309999935329],[1054535.395100000314415,1683053.54590000025928]]]]}},
{"type":"Feature","properties":{"รหัสกลุ่มคิว":"45/001","รหัสรับเหมา":"738889","ชื่อ-สกุล รับเหมา":"รถตัดโรงงานเบอร์ 14","นักเกษตร":"4502","ศูนย์":"K2-45","โควตา":"950243","ชาวไร่":"นาง นิตยาภรณ์ เกษโสภา","ประเภทอ้อย":"ตอ1","พื้นที่":17.39,"ตันรวม":156.51,"รหัสแปลง":"331005010005","กลุ่ม":"กลุ่ม_45"},"geometry":{"type":"MultiPolygon","coordinates":[[[[1053489.747100000269711,1678939.431199999526143],[1053607.7072,1678877.791200000792742],[1053595.794700000435114,1678833.829199999570847],[1053546.715300000272691,1678703.480599999427795],[1053525.088499999605119,1678675.023399999365211],[1053502.954199999570847,1678629.8958],[1053412.7807,1678664.425599999725819],[1053520.7818,1678842.986700000241399],[1053453.5384,1678888.790300000458956],[1053489.747100000269711,1678939.431199999526143]]]]}},
{"type":"Feature","properties":{"รหัสกลุ่มคิว":"45/001","รหัสรับเหมา":"738889","ชื่อ-สกุล รับเหมา":"รถตัดโรงงานเบอร์ 14","นักเกษตร":"4502","ศูนย์":"K2-45","โควตา":"784776","ชาวไร่":"นาย ไกรษร พานอุ่น","ประเภทอ้อย":"ตอ1","พื้นที่":4.14,"ตันรวม":37.26,"รหัสแปลง":"321702011530","กลุ่ม":"กลุ่ม_45"},"geometry":{"type":"MultiPolygon","coordinates":[[[[1034715.950199999846518,1688261.99860000051558],[1034659.8015,1688281.626299999654293],[1034675.533599999733269,1688332.317800000309944],[1034686.143899999558926,1688339.776900000870228],[1034713.937199999578297,1688326.533299999311566],[1034735.651999999769032,1688304.083699999377131],[1034798.639700000174344,1688260.371500000357628],[1034795.895100000314415,1688231.071599999442697],[1034715.950199999846518,1688261.99860000051558]]]]}},
{"type":"Feature","properties":{"รหัสกลุ่มคิว":"45/001","รหัสรับเหมา":"738889","ชื่อ-สกุล รับเหมา":"รถตัดโรงงานเบอร์ 14","นักเกษตร":"4502","ศูนย์":"K2-45","โควตา":"785058","ชาวไร่":"นาง ชนิษฐา อมรสินธนพงษ์","ประเภทอ้อย":"ตอ2","พื้นที่":5.68,"ตันรวม":45.44,"รหัสแปลง":"321705061508","กลุ่ม":"กลุ่ม_45"},"geometry":{"type":"MultiPolygon","coordinates":[[[[1026791.2643,1680265.0987],[1026908.042700000107288,1680212.055500000715256],[1026909.8706,1680211.151900000870228],[1026915.627500000409782,1680209.159299999475479],[1026919.388399999588728,1680207.498800000175834],[1026925.970499999821186,1680205.785199999809265],[1026929.660699999891222,1680205.672499999403954],[1026933.622899999842048,1680205.114499999210238],[1026936.7379,1680204.45380000025034],[1026939.6886,1680203.859200000762939],[1026943.536100000143051,1680203.582499999552965],[1026945.470300000160933,1680203.988700000569224],[1026949.778199999593198,1680202.521999999880791],[1026954.323099999688566,1680202.181800000369549],[1026962.045400000177324,1680201.214800000190735],[1026965.7571,1680201.753900000825524],[1026966.307300000451505,1680197.364900000393391],[1026967.400899999774992,1680193.332399999722838],[1026965.948900000192225,1680187.135299999266863],[1026965.156600000336766,1680182.562699999660254],[1026964.727900000289083,1680179.910499999299645],[1026964.238099999725819,1680175.144600000232458],[1026963.752399999648333,1680168.987700000405312],[1026961.606200000271201,1680164.329],[1026959.802799999713898,1680158.89159999974072],[1026958.578099999576807,1680155.458599999547005],[1026956.30420000012964,1680150.852800000458956],[1026944.717199999839067,1680152.058800000697374],[1026932.154299999587238,1680153.252299999818206],[1026929.886099999770522,1680152.829299999400973],[1026924.617499999701977,1680151.990199999883771],[1026918.559899999760091,1680151.268300000578165],[1026915.086799999698997,1680151.776799999177456],[1026907.037399999797344,1680152.415400000289083],[1026900.329,1680152.502399999648333],[1026894.596,1680153.029999999329448],[1026884.5932,1680152.103499999269843],[1026871.1502,1680151.430299999192357],[1026868.956399999558926,1680151.320699999108911],[1026866.0318,1680150.7434],[1026865.63190000038594,1680150.441299999132752],[1026863.246399999596179,1680149.201500000432134],[1026791.2643,1680265.0987]]]]}},
{"type":"Feature","properties":{"รหัสกลุ่มคิว":"45/001","รหัสรับเหมา":"738889","ชื่อ-สกุล รับเหมา":"รถตัดโรงงานเบอร์ 14","นักเกษตร":"4502","ศูนย์":"K2-45","โควตา":"950382","ชาวไร่":"นาง สุจิตดี สุขเหลือง","ประเภทอ้อย":"ตอ2","พื้นที่":4.7,"ตันรวม":37.6,"รหัสแปลง":"332101051510","กลุ่ม":"กลุ่ม_45"},"geometry":{"type":"MultiPolygon","coordinates":[[[[1043285.740299999713898,1689688.889699999243021],[1043353.4446,1689668.292099999263883],[1043331.936300000175834,1689615.387599999085069],[1043312.455400000326335,1689556.508400000631809],[1043300.997000000439584,1689562.3246],[1043296.5883,1689550.592700000852346],[1043266.678899999707937,1689558.242200000211596],[1043269.7281,1689616.064899999648333],[1043278.972900000400841,1689659.260900000110269],[1043285.740299999713898,1689688.889699999243021]]]]}},
{"type":"Feature","properties":{"รหัสกลุ่มคิว":"45/001","รหัสรับเหมา":"738889","ชื่อ-สกุล รับเหมา":"รถตัดโรงงานเบอร์ 14","นักเกษตร":"4502","ศูนย์":"K2-45","โควตา":"784990","ชาวไร่":"นาย กิตติศักดิ์ บุญประคม","ประเภทอ้อย":"ปลายฝน","พื้นที่":10.47,"ตันรวม":136.11,"รหัสแปลง":"320805050017","กลุ่ม":"กลุ่ม_45"},"geometry":{"type":"MultiPolygon","coordinates":[[[[1021985.155799999833107,1682503.341],[1022063.999699999578297,1682491.229299999773502],[1022060.988099999725819,1682456.363600000739098],[1022049.141699999570847,1682391.252900000661612],[1022026.951000000350177,1682320.720499999821186],[1021936.550099999643862,1682322.9923],[1021937.9699,1682340.8465],[1021938.333800000138581,1682351.722200000658631],[1021944.282200000248849,1682389.458200000226498],[1021954.9666,1682414.547800000756979],[1021957.135099999606609,1682423.509600000455976],[1021985.155799999833107,1682503.341]]]]}},
{"type":"Feature","properties":{"รหัสกลุ่มคิว":"45/001","รหัสรับเหมา":"738889","ชื่อ-สกุล รับเหมา":"รถตัดโรงงานเบอร์ 14","นักเกษตร":"4502","ศูนย์":"K2-45","โควตา":"784400","ชาวไร่":"นาย ประเสริฐ พงษ์ภา","ประเภทอ้อย":"ตอ2","พื้นที่":3.55,"ตันรวม":28.4,"รหัสแปลง":"332104031535","กลุ่ม":"กลุ่ม_45"},"geometry":{"type":"MultiPolygon","coordinates":[[[[1048872.567499999888241,1687369.569700000807643],[1048736.111100000329316,1687385.4221],[1048741.296900000423193,1687399.798800000920892],[1048758.993200000375509,1687426.122300000861287],[1048893.486100000329316,1687402.814999999478459],[1048884.1404,1687370.580900000408292],[1048872.567499999888241,1687369.569700000807643]]]]}},
{"type":"Feature","properties":{"รหัสกลุ่มคิว":"45/001","รหัสรับเหมา":"738889","ชื่อ-สกุล รับเหมา":"รถตัดโรงงานเบอร์ 14","นักเกษตร":"4502","ศูนย์":"K2-45","โควตา":"784776","ชาวไร่":"นาย ไกรษร พานอุ่น","ประเภทอ้อย":"ตอ1","พื้นที่":14.09,"ตันรวม":126.81,"รหัสแปลง":"321702061512","กลุ่ม":"กลุ่ม_45"},"geometry":{"type":"MultiPolygon","coordinates":[[[[1031355.925099999643862,1686508.70299999974668],[1031628.6086,1686456.600299999117851],[1031624.793399999849498,1686434.679500000551343],[1031622.5483,1686414.829700000584126],[1031615.24349999986589,1686372.475700000301003],[1031584.4863,1686381.769999999552965],[1031566.284599999897182,1686384.132799999788404],[1031549.373599999584258,1686385.04450000077486],[1031530.937699999660254,1686389.807499999180436],[1031513.057500000111759,1686393.842800000682473],[1031500.953499999828637,1686396.713999999687076],[1031493.184899999760091,1686398.573200000450015],[1031427.6157,1686413.739700000733137],[1031422.373999999836087,1686415.101099999621511],[1031416.238599999807775,1686416.25730000063777],[1031409.735500000417233,1686417.7752],[1031403.783800000324845,1686418.750399999320507],[1031398.546299999579787,1686419.926899999380112],[1031390.932199999690056,1686422.899900000542402],[1031384.792600000277162,1686424.24100000038743],[1031379.717899999581277,1686426.161399999633431],[1031375.386699999682605,1686426.988299999386072],[1031371.218399999663234,1686428.5592],[1031367.430200000293553,1686429.213400000706315],[1031361.808400000445545,1686431.491399999707937],[1031356.929999999701977,1686432.676100000739098],[1031353.4885,1686433.893300000578165],[1031349.687699999660254,1686435.102399999275804],[1031343.5313,1686437.183299999684095],[1031342.090400000102818,1686437.33559999987483],[1031347.230000000447035,1686456.325799999758601],[1031348.361399999819696,1686461.902499999850988],[1031348.949799999594688,1686467.652000000700355],[1031350.4068,1686474.716399999335408],[1031350.781999999657273,1686481.941299999132752],[1031351.879800000227988,1686488.997500000521541],[1031352.777099999599159,1686496.97440000064671],[1031355.925099999643862,1686508.70299999974668]]]]}},
{"type":"Feature","properties":{"รหัสกลุ่มคิว":"45/001","รหัสรับเหมา":"738889","ชื่อ-สกุล รับเหมา":"รถตัดโรงงานเบอร์ 14","นักเกษตร":"4502","ศูนย์":"K2-45","โควตา":"950311","ชาวไร่":"นาย วงเดือน ชราศรี","ประเภทอ้อย":"ตอ1","พื้นที่":2.76,"ตันรวม":24.84,"รหัสแปลง":"331007013018","กลุ่ม":"กลุ่ม_45"},"geometry":{"type":"MultiPolygon","coordinates":[[[[1048087.3405,1680906.7028],[1048102.449199999682605,1680937.222699999809265],[1048218.630199999548495,1680888.848300000652671],[1048206.816100000403821,1680855.813999999314547],[1048087.3405,1680906.7028]]]]}},
{"type":"Feature","properties":{"รหัสกลุ่มคิว":"45/001","รหัสรับเหมา":"738889","ชื่อ-สกุล รับเหมา":"รถตัดโรงงานเบอร์ 14","นักเกษตร":"4502","ศูนย์":"K2-45","โควตา":"950243","ชาวไร่":"นาง นิตยาภรณ์ เกษโสภา","ประเภทอ้อย":"ตอ1","พื้นที่":5.41,"ตันรวม":48.69,"รหัสแปลง":"331005010007","กลุ่ม":"กลุ่ม_45"},"geometry":{"type":"MultiPolygon","coordinates":[[[[1053577.653300000354648,1678901.887299999594688],[1053526.856999999843538,1678936.416400000452995],[1053585.358300000429153,1679040.703299999237061],[1053665.598299999721348,1679000.3882],[1053640.370699999853969,1678956.853499999269843],[1053608.1634,1678973.125],[1053577.653300000354648,1678901.887299999594688]]]]}},
{"type":"Feature","properties":{"รหัสกลุ่มคิว":"45/001","รหัสรับเหมา":"738889","ชื่อ-สกุล รับเหมา":"รถตัดโรงงานเบอร์ 14","นักเกษตร":"4502","ศูนย์":"K2-45","โควตา":"950422","ชาวไร่":"นาง เปรมฤดี สัมโย","ประเภทอ้อย":"ปลายฝน","พื้นที่":9.64,"ตันรวม":125.32,"รหัสแปลง":"331801051503","กลุ่ม":"กลุ่ม_45"},"geometry":{"type":"MultiPolygon","coordinates":[[[[1042679.9051,1681847.4847],[1042696.615899999625981,1681925.597699999809265],[1042874.0778,1681892.312300000339746],[1042846.878700000233948,1681801.372400000691414],[1042679.9051,1681847.4847]]]]}},
{"type":"Feature","properties":{"รหัสกลุ่มคิว":"45/001","รหัสรับเหมา":"738889","ชื่อ-สกุล รับเหมา":"รถตัดโรงงานเบอร์ 14","นักเกษตร":"4502","ศูนย์":"K2-45","โควตา":"950288","ชาวไร่":"นาง ศิรินันท์ อุตะพันธ์","ประเภทอ้อย":"ตอ1","พื้นที่":3.96,"ตันรวม":35.64,"รหัสแปลง":"332102031511","กลุ่ม":"กลุ่ม_45"},"geometry":{"type":"MultiPolygon","coordinates":[[[[1041328.8892,1695114.181800000369549],[1041286.97649999987334,1695000.504899999126792],[1041243.122000000439584,1695016.882799999788404],[1041269.329199999570847,1695126.123500000685453],[1041285.501400000415742,1695125.943800000473857],[1041328.8892,1695114.181800000369549]]]]}},
{"type":"Feature","properties":{"รหัสกลุ่มคิว":"45/001","รหัสรับเหมา":"738889","ชื่อ-สกุล รับเหมา":"รถตัดโรงงานเบอร์ 14","นักเกษตร":"4502","ศูนย์":"K2-45","โควตา":"784776","ชาวไร่":"นาย ไกรษร พานอุ่น","ประเภทอ้อย":"ตอ1","พื้นที่":6.68,"ตันรวม":60.12,"รหัสแปลง":"321702101568","กลุ่ม":"กลุ่ม_45"},"geometry":{"type":"MultiPolygon","coordinates":[[[[1034866.25829999987036,1687022.4831000007689],[1034927.73450000025332,1687005.7522],[1034927.810499999672174,1687002.423100000247359],[1034926.103199999779463,1686998.498099999502301],[1034925.678399999625981,1686993.492200000211596],[1034924.564799999818206,1686987.175300000235438],[1034924.135800000280142,1686982.354299999773502],[1034923.53139999974519,1686977.3443],[1034921.703599999658763,1686970.825999999418855],[1034921.278900000266731,1686965.820000000298023],[1034920.670300000347197,1686960.994999999180436],[1034917.995199999772012,1686952.2368],[1034916.5055,1686946.651399999856949],[1034915.4912,1686943.852600000798702],[1034913.817699999548495,1686938.448100000619888],[1034913.037999999709427,1686933.248999999836087],[1034911.748999999836087,1686926.743000000715256],[1034909.887400000356138,1686921.704299999400973],[1034906.669300000183284,1686913.118699999526143],[1034905.517699999734759,1686908.466299999505281],[1034904.332299999892712,1686905.293500000610948],[1034904.454699999652803,1686899.929999999701977],[1034903.2736,1686896.572200000286102],[1034902.206399999558926,1686888.220799999311566],[1034896.989299999549985,1686872.742900000885129],[1034893.247399999760091,1686871.362199999392033],[1034881.573599999770522,1686871.09569999948144],[1034874.16370000038296,1686872.962099999189377],[1034812.7253,1686888.028699999675155],[1034813.443699999712408,1686888.045099999755621],[1034830.073200000450015,1686930.984999999403954],[1034834.0477,1686937.922399999573827],[1034837.003700000233948,1686942.245899999514222],[1034840.538800000213087,1686952.689200000837445],[1034844.120299999602139,1686961.097899999469519],[1034850.419200000353158,1686976.415400000289083],[1034853.1979,1686988.506799999624491],[1034855.33420000039041,1686997.252699999138713],[1034859.4123,1687007.523199999704957],[1034866.25829999987036,1687022.4831000007689]]]]}},
{"type":"Feature","properties":{"รหัสกลุ่มคิว":"45/001","รหัสรับเหมา":"738889","ชื่อ-สกุล รับเหมา":"รถตัดโรงงานเบอร์ 14","นักเกษตร":"4502","ศูนย์":"K2-45","โควตา":"950413","ชาวไร่":"นาง ยุพดี บุญเนตร","ประเภทอ้อย":"ปลายฝน","พื้นที่":5.31,"ตันรวม":69.03,"รหัสแปลง":"331005170003","กลุ่ม":"กลุ่ม_45"},"geometry":{"type":"MultiPolygon","coordinates":[[[[1053301.394000000320375,1684207.752399999648333],[1053257.594700000248849,1684121.206900000572205],[1053181.1541,1684145.8739],[1053232.457600000314415,1684249.624600000679493],[1053301.394000000320375,1684207.752399999648333]]]]}},
{"type":"Feature","properties":{"รหัสกลุ่มคิว":"45/001","รหัสรับเหมา":"738889","ชื่อ-สกุล รับเหมา":"รถตัดโรงงานเบอร์ 14","นักเกษตร":"4502","ศูนย์":"K2-45","โควตา":"950243","ชาวไร่":"นาง นิตยาภรณ์ เกษโสภา","ประเภทอ้อย":"ปลายฝน","พื้นที่":4.58,"ตันรวม":59.54,"รหัสแปลง":"331022080002","กลุ่ม":"กลุ่ม_45"},"geometry":{"type":"MultiPolygon","coordinates":[[[[1050526.31290000025183,1674541.958100000396371],[1050610.599600000306964,1674505.610600000247359],[1050582.627899999730289,1674471.27309999987483],[1050422.493300000205636,1674544.535399999469519],[1050448.437699999660254,1674578.186599999666214],[1050526.31290000025183,1674541.958100000396371]]]]}},
{"type":"Feature","properties":{"รหัสกลุ่มคิว":"45/001","รหัสรับเหมา":"738889","ชื่อ-สกุล รับเหมา":"รถตัดโรงงานเบอร์ 14","นักเกษตร":"4502","ศูนย์":"K2-45","โควตา":"785058","ชาวไร่":"นาง ชนิษฐา อมรสินธนพงษ์","ประเภทอ้อย":"ปลายฝน","พื้นที่":11.33,"ตันรวม":147.29,"รหัสแปลง":"321705151569","กลุ่ม":"กลุ่ม_45"},"geometry":{"type":"MultiPolygon","coordinates":[[[[1026190.409400000236928,1679430.286800000816584],[1026148.025000000372529,1679440.728199999779463],[1026146.2928,1679441.852900000289083],[1026141.8328,1679446.438999999314547],[1026137.664300000295043,1679451.440199999138713],[1026121.387500000186265,1679472.347500000149012],[1026120.317499999888241,1679475.161100000143051],[1026120.850599999539554,1679478.084899999201298],[1026121.825899999588728,1679482.165300000458956],[1026122.559999999590218,1679486.274700000882149],[1026123.549200000241399,1679490.360999999567866],[1026125.3755,1679496.698400000110269],[1026125.988099999725819,1679498.8136],[1026127.2506,1679503.362299999222159],[1026129.757000000216067,1679511.4989],[1026130.812800000421703,1679514.28999999910593],[1026132.008500000461936,1679517.241900000721216],[1026133.437,1679521.113800000399351],[1026134.8975,1679523.891799999400973],[1026135.711199999786913,1679525.743899999186397],[1026137.82660000026226,1679529.2281],[1026139.951000000350177,1679532.746999999508262],[1026141.876799999736249,1679536.274700000882149],[1026145.0082,1679541.729900000616908],[1026148.0323,1679545.855000000447035],[1026154.1815,1679554.320599999278784],[1026155.419300000183284,1679557.270199999213219],[1026156.670199999585748,1679560.161100000143051],[1026158.2472,1679562.64750000089407],[1026159.507500000298023,1679565.170199999585748],[1026160.447300000116229,1679566.688699999824166],[1026161.738300000317395,1679569.185399999842048],[1026163.020399999804795,1679571.6941],[1026164.944199999794364,1679575.645899999886751],[1026165.60149999987334,1679578.6601],[1026167.958599999547005,1679582.859099999070168],[1026168.764000000432134,1679584.459100000560284],[1026170.4485,1679586.671399999409914],[1026171.683600000105798,1679589.157999999821186],[1026173.172600000165403,1679591.773399999365211],[1026176.086400000378489,1679595.38429999910295],[1026177.090599999763072,1679596.960899999365211],[1026180.96999999973923,1679602.0921],[1026182.693300000391901,1679604.163200000301003],[1026183.139999999664724,1679605.0168999992311],[1026185.427500000223517,1679608.282999999821186],[1026186.701399999670684,1679610.773700000718236],[1026188.387299999594688,1679613.210400000214577],[1026190.6902,1679616.654400000348687],[1026193.4145,1679620.733999999240041],[1026193.916899999603629,1679621.50789999961853],[1026196.228900000452995,1679624.8344],[1026198.284099999815226,1679628.552699999883771],[1026200.989900000393391,1679633.171399999409914],[1026203.94400000013411,1679636.618899999186397],[1026206.4693,1679640.242200000211596],[1026209.285299999639392,1679644.465900000184774],[1026214.154500000178814,1679649.891100000590086],[1026216.181400000117719,1679652.557499999180436],[1026218.69649999961257,1679656.059499999508262],[1026221.575400000438094,1679659.44539999961853],[1026222.470599999651313,1679660.4978],[1026224.513500000350177,1679662.83699999935925],[1026225.586500000208616,1679664.570599999278784],[1026228.683600000105798,1679668.469799999147654],[1026229.667600000277162,1679670.082599999383092],[1026232.379499999806285,1679674.57149999961257],[1026236.01630000025034,1679679.750499999150634],[1026236.721699999645352,1679681.237199999392033],[1026238.266900000162423,1679685.677899999544024],[1026240.1957,1679688.776100000366569],[1026242.237999999895692,1679691.094200000166893],[1026243.727800000458956,1679693.284499999135733],[1026246.068599999882281,1679698.165899999439716],[1026249.294800000265241,1679699.524599999189377],[1026253.280799999833107,1679697.814200000837445],[1026256.306300000287592,1679696.283299999311566],[1026259.594700000248849,1679695.434299999848008],[1026263.11849999986589,1679693.852399999275804],[1026268.377999999560416,1679692.189300000667572],[1026272.705900000408292,1679690.572100000455976],[1026276.212299999780953,1679689.332800000905991],[1026278.464100000448525,1679688.258500000461936],[1026281.2423,1679687.324899999424815],[1026284.566800000146031,1679685.203400000929832],[1026284.295199999585748,1679683.942900000140071],[1026283.2511,1679680.721200000494719],[1026282.960199999623001,1679679.88990000076592],[1026282.341099999845028,1679678.067700000479817],[1026281.1711,1679674.500199999660254],[1026279.65749999973923,1679670.285599999129772],[1026279.043100000359118,1679668.587799999862909],[1026278.117700000293553,1679666.040500000119209],[1026277.236399999819696,1679663.206599999219179],[1026276.436599999666214,1679659.865000000223517],[1026274.769299999810755,1679655.2939],[1026273.484299999661744,1679652.143500000238419],[1026272.88150000013411,1679650.263900000602007],[1026271.550900000147521,1679646.886],[1026270.349899999797344,1679642.631799999624491],[1026268.779799999669194,1679638.341600000858307],[1026267.255400000140071,1679634.852800000458956],[1026266.5669,1679633.234400000423193],[1026265.657200000248849,1679631.0471],[1026264.7818,1679628.626299999654293],[1026263.9254,1679625.308900000527501],[1026262.980399999767542,1679623.0132],[1026261.9655,1679620.9967],[1026261.187,1679617.278100000694394],[1026257.908599999733269,1679611.93610000051558],[1026256.573400000110269,1679607.416899999603629],[1026255.339999999850988,1679603.645999999716878],[1026253.935200000181794,1679600.209799999371171],[1026252.8904,1679597.840800000354648],[1026251.377299999818206,1679593.653899999335408],[1026249.841799999587238,1679589.98619999922812],[1026248.49309999961406,1679586.355900000780821],[1026247.651499999687076,1679584.6418999992311],[1026246.903599999845028,1679582.787900000810623],[1026245.844399999827147,1679579.86119999922812],[1026244.9693,1679577.905600000172853],[1026243.8958,1679575.278400000184774],[1026242.446700000204146,1679571.752399999648333],[1026241.8015,1679569.742000000551343],[1026241.30379999987781,1679568.030099999159575],[1026240.593100000172853,1679566.203600000590086],[1026239.666000000201166,1679563.392000000923872],[1026238.843500000424683,1679561.500900000333786],[1026237.951000000350177,1679557.86629999987781],[1026236.921500000171363,1679555.2478],[1026235.316100000403821,1679551.089999999850988],[1026233.463200000114739,1679547.77930000051856],[1026231.2812,1679544.716499999165535],[1026228.490000000223517,1679540.296900000423193],[1026226.861499999649823,1679537.894799999892712],[1026225.393500000238419,1679535.213199999183416],[1026222.671699999831617,1679530.973799999803305],[1026219.987800000235438,1679527.016200000420213],[1026218.846099999733269,1679523.722400000318885],[1026217.5614,1679520.990599999204278],[1026215.3421,1679517.426300000399351],[1026214.098600000143051,1679515.120500000193715],[1026212.4956,1679510.806199999526143],[1026211.491100000217557,1679508.274900000542402],[1026208.777099999599159,1679502.766799999400973],[1026206.262000000104308,1679495.119599999859929],[1026204.954199999570847,1679490.527699999511242],[1026203.804700000211596,1679486.281300000846386],[1026202.583599999547005,1679480.944299999624491],[1026199.7045,1679472.9858],[1026197.075000000186265,1679467.314200000837445],[1026195.434000000357628,1679461.564799999818206],[1026195.0066,1679458.834300000220537],[1026195.883399999700487,1679453.040200000628829],[1026196.341099999845028,1679448.000499999150634],[1026195.237200000323355,1679443.356599999591708],[1026194.4671,1679440.854900000616908],[1026193.184299999848008,1679437.0263],[1026190.436599999666214,1679430.229699999094009],[1026190.409400000236928,1679430.286800000816584]]]]}},
{"type":"Feature","properties":{"รหัสกลุ่มคิว":"45/001","รหัสรับเหมา":"738889","ชื่อ-สกุล รับเหมา":"รถตัดโรงงานเบอร์ 14","นักเกษตร":"4502","ศูนย์":"K2-45","โควตา":"950277","ชาวไร่":"นาย สอน ไชยสาร","ประเภทอ้อย":"ปลายฝน","พื้นที่":8.07,"ตันรวม":104.91,"รหัสแปลง":"331005020007","กลุ่ม":"กลุ่ม_45"},"geometry":{"type":"MultiPolygon","coordinates":[[[[1054611.181099999696016,1682988.329900000244379],[1054354.013600000180304,1683053.152100000530481],[1054357.2346,1683053.783399999141693],[1054359.3514,1683055.499199999496341],[1054362.287899999879301,1683060.566099999472499],[1054367.6875,1683067.9123],[1054362.009200000204146,1683079.994599999859929],[1054372.3755,1683105.412399999797344],[1054535.005199999548495,1683054.832399999722838],[1054622.434299999848008,1683037.091],[1054611.181099999696016,1682988.329900000244379]]]]}},
{"type":"Feature","properties":{"รหัสกลุ่มคิว":"45/001","รหัสรับเหมา":"738889","ชื่อ-สกุล รับเหมา":"รถตัดโรงงานเบอร์ 14","นักเกษตร":"4502","ศูนย์":"K2-45","โควตา":"950419","ชาวไร่":"น.ส. วัชราภรณ์ อินทร์ทอง","ประเภทอ้อย":"ปลายฝน","พื้นที่":14.73,"ตันรวม":191.49,"รหัสแปลง":"331005140003","กลุ่ม":"กลุ่ม_45"},"geometry":{"type":"MultiPolygon","coordinates":[[[[1051836.0652,1681219.78969999961555],[1052123.805200000293553,1681108.640799999237061],[1052088.192599999718368,1681025.069700000807643],[1052011.2379,1681061.40819999948144],[1052038.724499999545515,1681134.148499999195337],[1052032.057,1681136.185799999162555],[1052002.410400000400841,1681065.541999999433756],[1051818.590300000272691,1681152.377399999648333],[1051836.0652,1681219.78969999961555]]]]}},
{"type":"Feature","properties":{"รหัสกลุ่มคิว":"45/001","รหัสรับเหมา":"738889","ชื่อ-สกุล รับเหมา":"รถตัดโรงงานเบอร์ 14","นักเกษตร":"4502","ศูนย์":"K2-45","โควตา":"783518","ชาวไร่":"นาย สุทัศน์ สิงห์โสดา","ประเภทอ้อย":"ปลายฝน","พื้นที่":4.85,"ตันรวม":63.05,"รหัสแปลง":"321702101570","กลุ่ม":"กลุ่ม_45"},"geometry":{"type":"MultiPolygon","coordinates":[[[[1034994.402499999850988,1687367.557900000363588],[1034897.7566,1687382.189899999648333],[1034906.2972,1687417.3585],[1034906.2763,1687434.0121],[1034917.381400000303984,1687435.561000000685453],[1034924.022099999710917,1687435.897700000554323],[1034927.597,1687436.7195999994874],[1034946.194299999624491,1687440.6601],[1034960.85329999960959,1687443.955600000917912],[1034979.121000000275671,1687446.593399999663234],[1034999.21,1687448.162499999627471],[1035013.7505,1687440.907700000330806],[1035019.8756,1687432.35050000064075],[1035023.319500000216067,1687423.176899999380112],[1035024.1519,1687418.1996],[1035021.645999999716878,1687402.043400000780821],[1035017.213100000284612,1687391.579600000753999],[1035013.7226,1687387.058800000697374],[1035005.154900000430644,1687376.685599999502301],[1034994.402499999850988,1687367.557900000363588]]]]}},
{"type":"Feature","properties":{"รหัสกลุ่มคิว":"45/001","รหัสรับเหมา":"738889","ชื่อ-สกุล รับเหมา":"รถตัดโรงงานเบอร์ 14","นักเกษตร":"4502","ศูนย์":"K2-45","โควตา":"950243","ชาวไร่":"นาง นิตยาภรณ์ เกษโสภา","ประเภทอ้อย":"ปลายฝน","พื้นที่":8.18,"ตันรวม":106.34,"รหัสแปลง":"331005040002","กลุ่ม":"กลุ่ม_45"},"geometry":{"type":"MultiPolygon","coordinates":[[[[1053718.212000000290573,1678980.339400000870228],[1053796.404799999669194,1678935.349199999123812],[1053757.954800000414252,1678872.994000000879169],[1053730.248499999754131,1678889.001000000163913],[1053641.8744,1678701.644999999552965],[1053614.5449,1678716.920700000599027],[1053702.2017,1678911.848500000312924],[1053689.418100000359118,1678920.247400000691414],[1053718.212000000290573,1678980.339400000870228]]]]}},
{"type":"Feature","properties":{"รหัสกลุ่มคิว":"45/001","รหัสรับเหมา":"738889","ชื่อ-สกุล รับเหมา":"รถตัดโรงงานเบอร์ 14","นักเกษตร":"4502","ศูนย์":"K2-45","โควตา":"950385","ชาวไร่":"น.ส. นงลักษณ์ ชำนิกุล","ประเภทอ้อย":"ปลายฝน","พื้นที่":11.24,"ตันรวม":146.12,"รหัสแปลง":"331005120003","กลุ่ม":"กลุ่ม_45"},"geometry":{"type":"MultiPolygon","coordinates":[[[[1053946.015599999576807,1680241.376900000497699],[1054035.682400000281632,1680212.947100000455976],[1053991.365899999625981,1680109.731599999591708],[1053978.397099999710917,1680080.181399999186397],[1053970.576399999670684,1680068.706499999389052],[1053948.491100000217557,1680036.9057],[1053943.036899999715388,1680024.190899999812245],[1053929.728400000371039,1680009.0702],[1053920.4528,1679998.3015],[1053904.044700000435114,1679977.369899999350309],[1053879.287200000137091,1679982.71030000038445],[1053946.015599999576807,1680241.376900000497699]]]]}},
{"type":"Feature","properties":{"รหัสกลุ่มคิว":"45/001","รหัสรับเหมา":"738889","ชื่อ-สกุล รับเหมา":"รถตัดโรงงานเบอร์ 14","นักเกษตร":"4502","ศูนย์":"K2-45","โควตา":"784400","ชาวไร่":"นาย ประเสริฐ พงษ์ภา","ประเภทอ้อย":"ปลายฝน","พื้นที่":4.56,"ตันรวม":59.28,"รหัสแปลง":"331005120004","กลุ่ม":"กลุ่ม_45"},"geometry":{"type":"MultiPolygon","coordinates":[[[[1053856.6425,1679989.95130000077188],[1053831.404400000348687,1679977.511399999260902],[1053813.329199999570847,1679973.939500000327826],[1053784.697999999858439,1679983.446000000461936],[1053856.88190000038594,1680117.301799999549985],[1053874.138000000268221,1680125.111700000241399],[1053878.903900000266731,1680136.514599999412894],[1053890.973799999803305,1680135.503000000491738],[1053856.6425,1679989.95130000077188]]]]}}
]
}
