{
"type": "FeatureCollection",
"name": "กลุ่ม_83",
"crs": { "type": "name", "properties": { "name": "urn:ogc:def:crs:EPSG::32647" } },
"xy_coordinate_resolution": 1e-15,
"features": [
{"type":"Feature","properties":{"รหัสกลุ่มคิว":"83/001","รหัสรับเหมา":"738889","ชื่อ-สกุล รับเหมา":"รถตัดโรงงานเบอร์ 35","นักเกษตร":"8301","ศูนย์":"K2-83","โควตา":"784870","ชาวไร่":"นาย พิธิวัฒน์ รอดเนียม","ประเภทอ้อย":"ปลายฝน","พื้นที่":16.03,"ตันรวม":208.39,"รหัสแปลง":"320405071502","กลุ่ม":"กลุ่ม_83"},"geometry":{"type":"MultiPolygon","coordinates":[[[[1001882.278400000184774,1678889.57909999974072],[1002158.420099999755621,1678861.5987],[1002159.5137,1678763.271500000730157],[1002087.997000000439584,1678765.686000000685453],[1002056.238199999555945,1678771.71059999987483],[1002027.400500000454485,1678780.679500000551343],[1001874.263799999840558,1678817.863199999555945],[1001882.278400000184774,1678889.57909999974072]]]]}},
{"type":"Feature","properties":{"รหัสกลุ่มคิว":"83/001","รหัสรับเหมา":"738889","ชื่อ-สกุล รับเหมา":"รถตัดโรงงานเบอร์ 35","นักเกษตร":"8301","ศูนย์":"K2-83","โควตา":"784870","ชาวไร่":"นาย พิธิวัฒน์ รอดเนียม","ประเภทอ้อย":"ปลายฝน","พื้นที่":20.16,"ตันรวม":262.08,"รหัสแปลง":"320405071503","กลุ่ม":"กลุ่ม_83"},"geometry":{"type":"MultiPolygon","coordinates":[[[[1001856.237499999813735,1678989.508099999278784],[1002033.2823,1678992.005000000819564],[1002095.3536,1678991.105399999767542],[1002154.981800000183284,1679000.655200000852346],[1002158.804700000211596,1678866.967000000178814],[1001865.786999999545515,1678900.272900000214577],[1001857.312,1678919.737199999392033],[1001856.237499999813735,1678989.508099999278784]]]]}},
{"type":"Feature","properties":{"รหัสกลุ่มคิว":"83/001","รหัสรับเหมา":"738889","ชื่อ-สกุล รับเหมา":"รถตัดโรงงานเบอร์ 35","นักเกษตร":"8301","ศูนย์":"K2-83","โควตา":"782397","ชาวไร่":"น.ส. จินดา ใจกล้า","ประเภทอ้อย":"ปลายฝน","พื้นที่":16.92,"ตันรวม":219.96,"รหัสแปลง":"320405091501","กลุ่ม":"กลุ่ม_83"},"geometry":{"type":"MultiPolygon","coordinates":[[[[998474.320199999958277,1683153.825300000607967],[998551.809200000017881,1683132.981499999761581],[998486.441300000064075,1682941.236700000241399],[998478.365100000053644,1682942.589999999850988],[998459.304299999959767,1682948.217800000682473],[998392.775999999605119,1682962.1985],[998204.29700000025332,1682994.8892],[998208.444199999794364,1683035.012199999764562],[998391.840900000184774,1683016.05629999935627],[998394.598100000061095,1683023.449999999254942],[998421.688799999654293,1683019.2588],[998437.777499999850988,1683057.54839999973774],[998474.320199999958277,1683153.825300000607967]]]]}},
{"type":"Feature","properties":{"รหัสกลุ่มคิว":"83/001","รหัสรับเหมา":"738889","ชื่อ-สกุล รับเหมา":"รถตัดโรงงานเบอร์ 35","นักเกษตร":"8301","ศูนย์":"K2-83","โควตา":"782716","ชาวไร่":"นาย ศักดิ์สิทธิ์ บุตรดี","ประเภทอ้อย":"ตอ2","พื้นที่":6.9,"ตันรวม":55.2,"รหัสแปลง":"320906120020","กลุ่ม":"กลุ่ม_83"},"geometry":{"type":"MultiPolygon","coordinates":[[[[1009192.4013,1676126.620999999344349],[1009402.73340000025928,1676073.2993],[1009395.2544,1676022.079299999400973],[1009178.716199999675155,1676079.928999999538064],[1009192.4013,1676126.620999999344349]]]]}},
{"type":"Feature","properties":{"รหัสกลุ่มคิว":"83/001","รหัสรับเหมา":"738889","ชื่อ-สกุล รับเหมา":"รถตัดโรงงานเบอร์ 35","นักเกษตร":"8301","ศูนย์":"K2-83","โควตา":"782381","ชาวไร่":"นาง บัวทอง พวงจันทร์","ประเภทอ้อย":"ตอ1","พื้นที่":9.9,"ตันรวม":89.1,"รหัสแปลง":"320405061501","กลุ่ม":"กลุ่ม_83"},"geometry":{"type":"MultiPolygon","coordinates":[[[[997211.154500000178814,1681795.511],[997109.422600000165403,1681799.032500000670552],[997047.13300000037998,1681807.648700000718236],[996970.509100000374019,1681818.296499999240041],[996964.571299999952316,1681876.080900000408292],[997197.7807,1681866.5647],[997211.154500000178814,1681795.511]]]]}},
{"type":"Feature","properties":{"รหัสกลุ่มคิว":"83/001","รหัสรับเหมา":"738889","ชื่อ-สกุล รับเหมา":"รถตัดโรงงานเบอร์ 35","นักเกษตร":"8301","ศูนย์":"K2-83","โควตา":"782482","ชาวไร่":"นาย ธานินทร์ กองทอง","ประเภทอ้อย":"ปลายฝน","พื้นที่":5.14,"ตันรวม":66.82,"รหัสแปลง":"320308050028","กลุ่ม":"กลุ่ม_83"},"geometry":{"type":"MultiPolygon","coordinates":[[[[1006757.716900000348687,1685382.14299999922514],[1006960.74280000012368,1685335.261299999430776],[1006944.210699999704957,1685296.885199999436736],[1006745.049499999731779,1685345.6108],[1006757.716900000348687,1685382.14299999922514]]]]}},
{"type":"Feature","properties":{"รหัสกลุ่มคิว":"83/001","รหัสรับเหมา":"738889","ชื่อ-สกุล รับเหมา":"รถตัดโรงงานเบอร์ 35","นักเกษตร":"8301","ศูนย์":"K2-83","โควตา":"782305","ชาวไร่":"นาย เหมียน หวังผล","ประเภทอ้อย":"ตอ1","พื้นที่":11.96,"ตันรวม":107.64,"รหัสแปลง":"320405070017","กลุ่ม":"กลุ่ม_83"},"geometry":{"type":"MultiPolygon","coordinates":[[[[1002362.887000000104308,1678958.093499999493361],[1002469.031499999575317,1678933.7643],[1002461.412899999879301,1678782.6612],[1002322.458100000396371,1678789.659600000828505],[1002326.597299999557436,1678836.714299999177456],[1002350.100999999791384,1678837.0493],[1002362.887000000104308,1678958.093499999493361]]]]}},
{"type":"Feature","properties":{"รหัสกลุ่มคิว":"83/001","รหัสรับเหมา":"738889","ชื่อ-สกุล รับเหมา":"รถตัดโรงงานเบอร์ 35","นักเกษตร":"8301","ศูนย์":"K2-83","โควตา":"782716","ชาวไร่":"นาย ศักดิ์สิทธิ์ บุตรดี","ประเภทอ้อย":"ตอ2","พื้นที่":6.41,"ตันรวม":51.28,"รหัสแปลง":"320906121504","กลุ่ม":"กลุ่ม_83"},"geometry":{"type":"MultiPolygon","coordinates":[[[[1009405.223500000312924,1676019.122899999842048],[1009413.8399,1676154.493100000545382],[1009481.24210000038147,1676152.668299999088049],[1009483.11600000038743,1676080.900299999862909],[1009474.8279,1676081.140799999237061],[1009479.673000000417233,1675996.300599999725819],[1009405.223500000312924,1676019.122899999842048]]]]}},
{"type":"Feature","properties":{"รหัสกลุ่มคิว":"83/001","รหัสรับเหมา":"738889","ชื่อ-สกุล รับเหมา":"รถตัดโรงงานเบอร์ 35","นักเกษตร":"8301","ศูนย์":"K2-83","โควตา":"783732","ชาวไร่":"นาง บัวลี บุตรดี","ประเภทอ้อย":"ปลายฝน","พื้นที่":18.42,"ตันรวม":239.46,"รหัสแปลง":"320906121544","กลุ่ม":"กลุ่ม_83"},"geometry":{"type":"MultiPolygon","coordinates":[[[[1010101.303399999625981,1676418.050599999725819],[1010021.324099999852479,1676443.512599999085069],[1010034.149400000460446,1676523.516100000590086],[1009985.42,1676549.839099999517202],[1009987.063500000163913,1676573.551999999210238],[1009954.951299999840558,1676587.655799999833107],[1009943.4485,1676571.128799999132752],[1009897.569799999706447,1676581.975299999117851],[1009925.115899999625981,1676662.666999999433756],[1010130.471599999815226,1676631.408299999311566],[1010101.303399999625981,1676418.050599999725819]]]]}},
{"type":"Feature","properties":{"รหัสกลุ่มคิว":"83/001","รหัสรับเหมา":"738889","ชื่อ-สกุล รับเหมา":"รถตัดโรงงานเบอร์ 35","นักเกษตร":"8301","ศูนย์":"K2-83","โควตา":"782239","ชาวไร่":"นาง กาญจนา พุทธหล้า","ประเภทอ้อย":"ปลายฝน","พื้นที่":11.7,"ตันรวม":152.1,"รหัสแปลง":"320407060001","กลุ่ม":"กลุ่ม_83"},"geometry":{"type":"MultiPolygon","coordinates":[[[[995476.209599999710917,1678436.559599999338388],[995502.208200000226498,1678527.243699999526143],[995526.622200000099838,1678529.619400000199676],[995593.005599999800324,1678530.95549999922514],[995639.243200000375509,1678531.9287],[995661.254999999888241,1678531.262399999424815],[995643.356700000353158,1678431.138900000602007],[995740.832700000144541,1678417.729699999094009],[995737.621700000017881,1678403.692500000819564],[995652.1727,1678413.020500000566244],[995650.226700000464916,1678412.730900000780821],[995627.192900000140071,1678411.707900000736117],[995627.051300000399351,1678417.00029999949038],[995615.026100000366569,1678418.746799999848008],[995611.434200000017881,1678412.155300000682473],[995560.253399999812245,1678428.378900000825524],[995476.209599999710917,1678436.559599999338388]]]]}},
{"type":"Feature","properties":{"รหัสกลุ่มคิว":"83/001","รหัสรับเหมา":"738889","ชื่อ-สกุล รับเหมา":"รถตัดโรงงานเบอร์ 35","นักเกษตร":"8301","ศูนย์":"K2-83","โควตา":"782305","ชาวไร่":"นาย เหมียน หวังผล","ประเภทอ้อย":"ปลายฝน","พื้นที่":12.51,"ตันรวม":162.63,"รหัสแปลง":"320405031511","กลุ่ม":"กลุ่ม_83"},"geometry":{"type":"MultiPolygon","coordinates":[[[[1002107.773699999786913,1678995.309100000187755],[1002065.6858,1678989.668299999088049],[1002013.3783,1678992.182800000533462],[1001903.958499999716878,1678993.041300000622869],[1001905.676099999807775,1679051.16609999909997],[1001973.552000000141561,1679055.244599999859929],[1001970.579300000332296,1679083.63990000076592],[1002038.8756,1679089.792899999767542],[1002037.036500000394881,1679103.543600000441074],[1002075.271300000138581,1679109.092199999839067],[1002073.3586,1679147.975199999287724],[1002110.49210000038147,1679154.412599999457598],[1002107.773699999786913,1678995.309100000187755]]]]}},
{"type":"Feature","properties":{"รหัสกลุ่มคิว":"83/001","รหัสรับเหมา":"738889","ชื่อ-สกุล รับเหมา":"รถตัดโรงงานเบอร์ 35","นักเกษตร":"8301","ศูนย์":"K2-83","โควตา":"783353","ชาวไร่":"นาง ลำดวน แสงสี","ประเภทอ้อย":"ปลายฝน","พื้นที่":11.39,"ตันรวม":148.07,"รหัสแปลง":"320406061651","กลุ่ม":"กลุ่ม_83"},"geometry":{"type":"MultiPolygon","coordinates":[[[[1004491.401700000278652,1681094.0921],[1004447.9693,1681254.382999999448657],[1004552.2977,1681256.769500000402331],[1004560.769299999810755,1681256.8581000007689],[1004566.392900000326335,1681255.431399999186397],[1004564.739699999801815,1681249.929099999368191],[1004568.0735,1681245.669299999251962],[1004577.148699999786913,1681237.89049999974668],[1004559.9243,1681230.482100000604987],[1004564.55449999962002,1681221.962500000372529],[1004581.038099999539554,1681225.6667],[1004575.111399999819696,1681254.003599999472499],[1004581.188500000163913,1681255.334300000220537],[1004593.039200000464916,1681208.375499999150634],[1004604.1601,1681155.593399999663234],[1004605.479100000113249,1681145.36710000038147],[1004612.644299999810755,1681132.243300000205636],[1004539.02309999987483,1681111.420399999246001],[1004527.59389999974519,1681107.302999999374151],[1004503.332899999804795,1681099.427699999883771],[1004491.401700000278652,1681094.0921]]]]}},
{"type":"Feature","properties":{"รหัสกลุ่มคิว":"83/001","รหัสรับเหมา":"738889","ชื่อ-สกุล รับเหมา":"รถตัดโรงงานเบอร์ 35","นักเกษตร":"8301","ศูนย์":"K2-83","โควตา":"782244","ชาวไร่":"นาย สมยศ บุญเลิศ","ประเภทอ้อย":"ปลายฝน","พื้นที่":9.36,"ตันรวม":121.68,"รหัสแปลง":"320407010004","กลุ่ม":"กลุ่ม_83"},"geometry":{"type":"MultiPolygon","coordinates":[[[[995128.439699999988079,1682085.004100000485778],[995262.326299999840558,1682102.138499999418855],[995270.370299999602139,1682105.162200000137091],[995278.78940000012517,1682108.645300000905991],[995288.168499999679625,1682113.778899999335408],[995302.165599999949336,1682119.372600000351667],[995304.956100000068545,1682121.201400000602007],[995308.901999999769032,1682123.38399999961257],[995316.392900000326335,1682126.880899999290705],[995324.065100000239909,1682130.874399999156594],[995354.993599999696016,1682142.747400000691414],[995379.927299999631941,1682149.581599999219179],[995399.530399999581277,1682153.861099999397993],[995412.849299999885261,1682111.633899999782443],[995227.104600000195205,1682040.285700000822544],[995192.517199999652803,1682027.997300000861287],[995182.7171,1682025.0954],[995174.8739,1682023.841499999165535],[995169.598100000061095,1682023.498400000855327],[995163.413399999961257,1682023.83530000038445],[995157.43709999974817,1682024.82010000012815],[995150.181099999696016,1682026.8443],[995141.21889999974519,1682028.72719999961555],[995128.439699999988079,1682085.004100000485778]]]]}},
{"type":"Feature","properties":{"รหัสกลุ่มคิว":"83/001","รหัสรับเหมา":"738889","ชื่อ-สกุล รับเหมา":"รถตัดโรงงานเบอร์ 35","นักเกษตร":"8301","ศูนย์":"K2-83","โควตา":"782634","ชาวไร่":"นาง วันนา อินทะสมบัติ","ประเภทอ้อย":"ปลายฝน","พื้นที่":6.17,"ตันรวม":80.21,"รหัสแปลง":"320407010005","กลุ่ม":"กลุ่ม_83"},"geometry":{"type":"MultiPolygon","coordinates":[[[[995131.749200000427663,1681575.737299999222159],[995220.321299999952316,1681563.309900000691414],[995208.833300000056624,1681457.842800000682473],[995120.646900000050664,1681466.426899999380112],[995116.705799999646842,1681474.751800000667572],[995131.749200000427663,1681575.737299999222159]]]]}},
{"type":"Feature","properties":{"รหัสกลุ่มคิว":"83/001","รหัสรับเหมา":"738889","ชื่อ-สกุล รับเหมา":"รถตัดโรงงานเบอร์ 35","นักเกษตร":"8301","ศูนย์":"K2-83","โควตา":"782239","ชาวไร่":"นาง กาญจนา พุทธหล้า","ประเภทอ้อย":"ปลายฝน","พื้นที่":6.81,"ตันรวม":88.53,"รหัสแปลง":"320407060002","กลุ่ม":"กลุ่ม_83"},"geometry":{"type":"MultiPolygon","coordinates":[[[[995748.374200000427663,1678417.75760000012815],[995645.307900000363588,1678433.433700000867248],[995663.306900000199676,1678535.276000000536442],[995768.951000000350177,1678518.944199999794364],[995748.374200000427663,1678417.75760000012815]]]]}},
{"type":"Feature","properties":{"รหัสกลุ่มคิว":"83/001","รหัสรับเหมา":"738889","ชื่อ-สกุล รับเหมา":"รถตัดโรงงานเบอร์ 35","นักเกษตร":"8301","ศูนย์":"K2-83","โควตา":"784922","ชาวไร่":"นาง สุณีย์ ยอดรัก","ประเภทอ้อย":"ตอ1","พื้นที่":14.77,"ตันรวม":132.93,"รหัสแปลง":"320401110001","กลุ่ม":"กลุ่ม_83"},"geometry":{"type":"MultiPolygon","coordinates":[[[[990801.026399999856949,1674514.964999999850988],[990797.003700000233948,1674590.7043999992311],[990849.130099999718368,1674584.085400000214577],[990867.79700000025332,1674607.988800000399351],[990927.026499999687076,1674592.293099999427795],[990928.800400000065565,1674590.2961],[991038.067800000309944,1674571.568800000473857],[991045.457899999804795,1674570.880300000309944],[991056.316599999554455,1674568.656199999153614],[991065.411000000312924,1674566.465399999171495],[991059.878700000233948,1674545.578600000590086],[991056.184899999760091,1674535.81389999948442],[991052.953599999658763,1674508.420700000599027],[991050.865600000135601,1674496.446900000795722],[991050.059700000099838,1674484.35219999961555],[991045.709099999628961,1674484.698799999430776],[991043.030100000090897,1674485.018100000917912],[991040.433500000275671,1674485.158299999311566],[991037.866399999707937,1674484.864099999889731],[991035.222000000067055,1674483.9858],[991033.993599999696016,1674483.38990000076592],[991031.661500000394881,1674482.266200000420213],[991031.364199999719858,1674482.099099999293685],[990958.161299999803305,1674487.661299999803305],[990801.026399999856949,1674514.964999999850988]]]]}},
{"type":"Feature","properties":{"รหัสกลุ่มคิว":"83/001","รหัสรับเหมา":"738889","ชื่อ-สกุล รับเหมา":"รถตัดโรงงานเบอร์ 35","นักเกษตร":"8301","ศูนย์":"K2-83","โควตา":"784889","ชาวไร่":"น.ส. เพชรัช คงมั่น","ประเภทอ้อย":"ปลายฝน","พื้นที่":16.29,"ตันรวม":211.77,"รหัสแปลง":"320407041522","กลุ่ม":"กลุ่ม_83"},"geometry":{"type":"MultiPolygon","coordinates":[[[[991773.310700000263751,1683457.3059],[991766.409900000318885,1683413.830800000578165],[991634.448099999688566,1683423.538699999451637],[991630.748499999754131,1683530.257200000807643],[991739.776200000196695,1683530.767899999395013],[991926.200500000268221,1683504.44480000063777],[991920.792899999767542,1683433.796299999579787],[991773.310700000263751,1683457.3059]]]]}},
{"type":"Feature","properties":{"รหัสกลุ่มคิว":"83/001","รหัสรับเหมา":"738889","ชื่อ-สกุล รับเหมา":"รถตัดโรงงานเบอร์ 35","นักเกษตร":"8301","ศูนย์":"K2-83","โควตา":"784889","ชาวไร่":"น.ส. เพชรัช คงมั่น","ประเภทอ้อย":"ตอ3","พื้นที่":5.98,"ตันรวม":41.86,"รหัสแปลง":"320306050002","กลุ่ม":"กลุ่ม_83"},"geometry":{"type":"MultiPolygon","coordinates":[[[[991766.084800000302494,1683418.444599999114871],[991753.824799999594688,1683344.419299999251962],[991627.243900000117719,1683359.0395],[991628.045099999755621,1683428.409900000318885],[991766.084800000302494,1683418.444599999114871]]]]}},
{"type":"Feature","properties":{"รหัสกลุ่มคิว":"83/001","รหัสรับเหมา":"738889","ชื่อ-สกุล รับเหมา":"รถตัดโรงงานเบอร์ 35","นักเกษตร":"8301","ศูนย์":"K2-83","โควตา":"784889","ชาวไร่":"น.ส. เพชรัช คงมั่น","ประเภทอ้อย":"ตอ1","พื้นที่":24.57,"ตันรวม":221.13,"รหัสแปลง":"320306050004","กลุ่ม":"กลุ่ม_83"},"geometry":{"type":"MultiPolygon","coordinates":[[[[991845.081600000150502,1683123.520899999886751],[991784.358199999667704,1682920.230000000447035],[991701.57050000037998,1682940.759600000455976],[991613.700400000438094,1682979.432800000533462],[991616.667799999937415,1683149.5],[991845.081600000150502,1683123.520899999886751]]]]}},
{"type":"Feature","properties":{"รหัสกลุ่มคิว":"83/001","รหัสรับเหมา":"738889","ชื่อ-สกุล รับเหมา":"รถตัดโรงงานเบอร์ 35","นักเกษตร":"8301","ศูนย์":"K2-83","โควตา":"784870","ชาวไร่":"นาย พิธิวัฒน์ รอดเนียม","ประเภทอ้อย":"ปลายฝน","พื้นที่":13.7,"ตันรวม":178.1,"รหัสแปลง":"320407070001","กลุ่ม":"กลุ่ม_83"},"geometry":{"type":"MultiPolygon","coordinates":[[[[996140.592000000178814,1678686.749199999496341],[996229.643899999558926,1678659.849899999797344],[996172.875599999912083,1678441.960699999704957],[996076.053000000305474,1678466.9934],[996140.592000000178814,1678686.749199999496341]]]]}},
{"type":"Feature","properties":{"รหัสกลุ่มคิว":"83/001","รหัสรับเหมา":"738889","ชื่อ-สกุล รับเหมา":"รถตัดโรงงานเบอร์ 35","นักเกษตร":"8301","ศูนย์":"K2-83","โควตา":"782406","ชาวไร่":"นาง สุดารัตน์ สมพร","ประเภทอ้อย":"ตอ2","พื้นที่":17.15,"ตันรวม":137.2,"รหัสแปลง":"320409120001","กลุ่ม":"กลุ่ม_83"},"geometry":{"type":"MultiPolygon","coordinates":[[[[992543.571600000374019,1679743.518300000578165],[992521.617999999783933,1679596.459799999371171],[992370.3602,1679611.748299999162555],[992364.806800000369549,1679614.0921],[992365.691999999806285,1679659.4054000005126],[992366.785199999809265,1679688.079800000414252],[992369.531999999657273,1679713.131400000303984],[992376.865699999965727,1679742.421299999579787],[992393.642799999564886,1679796.697799999266863],[992543.571600000374019,1679743.518300000578165]]]]}},
{"type":"Feature","properties":{"รหัสกลุ่มคิว":"83/001","รหัสรับเหมา":"738889","ชื่อ-สกุล รับเหมา":"รถตัดโรงงานเบอร์ 35","นักเกษตร":"8301","ศูนย์":"K2-83","โควตา":"782403","ชาวไร่":"นาย พิทักษ์ แสนกล้า","ประเภทอ้อย":"ตอ1","พื้นที่":6.84,"ตันรวม":61.56,"รหัสแปลง":"320409090003","กลุ่ม":"กลุ่ม_83"},"geometry":{"type":"MultiPolygon","coordinates":[[[[992987.035799999721348,1680353.92339999973774],[993056.703700000420213,1680327.68129999935627],[993020.847599999979138,1680201.875499999150634],[992939.399699999950826,1680228.521999999880791],[992978.911799999885261,1680347.582100000232458],[992987.035799999721348,1680353.92339999973774]]]]}},
{"type":"Feature","properties":{"รหัสกลุ่มคิว":"83/001","รหัสรับเหมา":"738889","ชื่อ-สกุล รับเหมา":"รถตัดโรงงานเบอร์ 35","นักเกษตร":"8301","ศูนย์":"K2-83","โควตา":"784870","ชาวไร่":"นาย พิธิวัฒน์ รอดเนียม","ประเภทอ้อย":"ตอ1","พื้นที่":14.65,"ตันรวม":131.85,"รหัสแปลง":"320401020006","กลุ่ม":"กลุ่ม_83"},"geometry":{"type":"MultiPolygon","coordinates":[[[[997236.310899999924004,1675789.847899999469519],[997136.888500000350177,1675618.871400000527501],[997078.3739,1675622.03940000012517],[996998.76659999974072,1675639.060200000181794],[997160.542399999685585,1675828.105100000277162],[997236.310899999924004,1675789.847899999469519]]]]}},
{"type":"Feature","properties":{"รหัสกลุ่มคิว":"83/001","รหัสรับเหมา":"738889","ชื่อ-สกุล รับเหมา":"รถตัดโรงงานเบอร์ 35","นักเกษตร":"8301","ศูนย์":"K2-83","โควตา":"784257","ชาวไร่":"นาย ชินกรณ์ เจือจันทร์","ประเภทอ้อย":"ปลายฝน","พื้นที่":30.36,"ตันรวม":394.68,"รหัสแปลง":"320409100003","กลุ่ม":"กลุ่ม_83"},"geometry":{"type":"MultiPolygon","coordinates":[[[[993077.255800000391901,1682311.152599999681115],[993116.076100000180304,1682705.886399999260902],[993156.611899999901652,1682696.613600000739098],[993212.147900000214577,1682677.197100000455976],[993243.884399999864399,1682665.837600000202656],[993223.760999999940395,1682624.016799999400973],[993221.076000000350177,1682616.812699999660254],[993219.61699999962002,1682589.074799999594688],[993217.880499999970198,1682582.727700000628829],[993217.972400000318885,1682556.412799999117851],[993228.257500000298023,1682331.598999999463558],[993166.116200000047684,1682314.9386],[993159.96169999986887,1682312.930600000545382],[993149.829599999822676,1682301.166200000792742],[993141.710500000044703,1682296.354699999094009],[993077.255800000391901,1682311.152599999681115]]]]}},
{"type":"Feature","properties":{"รหัสกลุ่มคิว":"83/001","รหัสรับเหมา":"738889","ชื่อ-สกุล รับเหมา":"รถตัดโรงงานเบอร์ 35","นักเกษตร":"8301","ศูนย์":"K2-83","โควตา":"781764","ชาวไร่":"นาง หนูไกร ฉิมงาม","ประเภทอ้อย":"ตอ3","พื้นที่":13.45,"ตันรวม":94.15,"รหัสแปลง":"320306050009","กลุ่ม":"กลุ่ม_83"},"geometry":{"type":"MultiPolygon","coordinates":[[[[990304.069099999964237,1686777.4309],[990318.704400000162423,1686823.430500000715256],[990472.115199999883771,1686782.322499999776483],[990445.153599999845028,1686671.761],[990425.753700000233948,1686665.857899999246001],[990407.991200000047684,1686646.794800000265241],[990328.605600000359118,1686652.765000000596046],[990304.069099999964237,1686777.4309]]]]}},
{"type":"Feature","properties":{"รหัสกลุ่มคิว":"83/001","รหัสรับเหมา":"738889","ชื่อ-สกุล รับเหมา":"รถตัดโรงงานเบอร์ 35","นักเกษตร":"8301","ศูนย์":"K2-83","โควตา":"784889","ชาวไร่":"น.ส. เพชรัช คงมั่น","ประเภทอ้อย":"ปลายฝน","พื้นที่":27.48,"ตันรวม":357.24,"รหัสแปลง":"320306050013","กลุ่ม":"กลุ่ม_83"},"geometry":{"type":"MultiPolygon","coordinates":[[[[991890.463499999605119,1683288.550899999216199],[991846.290900000371039,1683123.100199999287724],[991618.836900000460446,1683149.561000000685453],[991628.369800000451505,1683356.159900000318885],[991705.118800000287592,1683345.629300000146031],[991701.675499999895692,1683294.501499999314547],[991745.659099999815226,1683291.2961],[991750.063799999654293,1683304.548499999567866],[991890.463499999605119,1683288.550899999216199]]]]}},
{"type":"Feature","properties":{"รหัสกลุ่มคิว":"83/001","รหัสรับเหมา":"738889","ชื่อ-สกุล รับเหมา":"รถตัดโรงงานเบอร์ 35","นักเกษตร":"8301","ศูนย์":"K2-83","โควตา":"782634","ชาวไร่":"นาง วันนา อินทะสมบัติ","ประเภทอ้อย":"ตอ2","พื้นที่":9.37,"ตันรวม":74.96,"รหัสแปลง":"320407010008","กลุ่ม":"กลุ่ม_83"},"geometry":{"type":"MultiPolygon","coordinates":[[[[995155.36849999986589,1681738.281300000846386],[995241.147199999541044,1681732.572000000625849],[995222.955400000326335,1681561.362500000745058],[995132.682500000111759,1681572.976099999621511],[995132.607599999755621,1681572.848099999129772],[995155.36849999986589,1681738.281300000846386]]]]}},
{"type":"Feature","properties":{"รหัสกลุ่มคิว":"83/001","รหัสรับเหมา":"738889","ชื่อ-สกุล รับเหมา":"รถตัดโรงงานเบอร์ 35","นักเกษตร":"8301","ศูนย์":"K2-83","โควตา":"782396","ชาวไร่":"นาง สงวน สมานมิตร","ประเภทอ้อย":"ตอ2","พื้นที่":13.36,"ตันรวม":106.88,"รหัสแปลง":"320407051506","กลุ่ม":"กลุ่ม_83"},"geometry":{"type":"MultiPolygon","coordinates":[[[[995645.379300000146031,1680879.105000000447035],[995677.917200000025332,1681091.446100000292063],[995773.764299999922514,1681071.324799999594688],[995737.124200000427663,1680859.6414],[995708.901100000366569,1680856.671700000762939],[995663.309100000187755,1680853.255899999290705],[995663.997499999590218,1680877.091700000688434],[995645.379300000146031,1680879.105000000447035]]]]}},
{"type":"Feature","properties":{"รหัสกลุ่มคิว":"83/001","รหัสรับเหมา":"738889","ชื่อ-สกุล รับเหมา":"รถตัดโรงงานเบอร์ 35","นักเกษตร":"8301","ศูนย์":"K2-83","โควตา":"782397","ชาวไร่":"น.ส. จินดา ใจกล้า","ประเภทอ้อย":"ตอ3","พื้นที่":4.88,"ตันรวม":34.16,"รหัสแปลง":"320407051507","กลุ่ม":"กลุ่ม_83"},"geometry":{"type":"MultiPolygon","coordinates":[[[[995666.196899999864399,1681021.688100000843406],[995627.99309999961406,1681029.227399999275804],[995582.67090000025928,1681036.753200000151992],[995473.418700000271201,1681046.332699999213219],[995456.235399999655783,1681045.932900000363588],[995417.700500000268221,1681047.768400000408292],[995371.091300000436604,1681053.570800000801682],[995377.700400000438094,1681080.060200000181794],[995481.817800000309944,1681070.5274],[995539.97829999960959,1681066.991699999198318],[995586.996600000187755,1681061.220499999821186],[995638.466500000096858,1681053.8443],[995668.950699999928474,1681051.948100000619888],[995666.196899999864399,1681021.688100000843406]]]]}},
{"type":"Feature","properties":{"รหัสกลุ่มคิว":"83/001","รหัสรับเหมา":"738889","ชื่อ-สกุล รับเหมา":"รถตัดโรงงานเบอร์ 35","นักเกษตร":"8301","ศูนย์":"K2-83","โควตา":"784973","ชาวไร่":"นาง วรรณา ก้านอินทร์","ประเภทอ้อย":"ตอ2","พื้นที่":6.61,"ตันรวม":52.88,"รหัสแปลง":"320401110003","กลุ่ม":"กลุ่ม_83"},"geometry":{"type":"MultiPolygon","coordinates":[[[[991006.567999999970198,1675918.731699999421835],[991023.980999999679625,1675916.617599999532104],[991007.933400000445545,1675860.500800000503659],[990911.213600000366569,1675876.900000000372529],[990866.655299999751151,1675887.423599999397993],[990880.95990000013262,1675952.719200000166893],[990937.89919999986887,1675947.899299999698997],[991010.059600000269711,1675941.041799999773502],[991006.567999999970198,1675918.731699999421835]]]]}},
{"type":"Feature","properties":{"รหัสกลุ่มคิว":"83/001","รหัสรับเหมา":"738889","ชื่อ-สกุล รับเหมา":"รถตัดโรงงานเบอร์ 35","นักเกษตร":"8301","ศูนย์":"K2-83","โควตา":"784973","ชาวไร่":"นาง วรรณา ก้านอินทร์","ประเภทอ้อย":"ตอ2","พื้นที่":5.15,"ตันรวม":41.2,"รหัสแปลง":"320401110004","กลุ่ม":"กลุ่ม_83"},"geometry":{"type":"MultiPolygon","coordinates":[[[[991036.897599999792874,1675937.091199999675155],[991133.011699999682605,1675927.93889999948442],[991132.937599999830127,1675918.916300000622869],[991130.202399999834597,1675918.264599999412894],[991123.594899999909103,1675898.784499999135733],[991122.80379999987781,1675890.290699999779463],[991120.462199999950826,1675886.8377],[991114.688400000333786,1675840.3662],[991016.532599999569356,1675856.705199999734759],[991036.897599999792874,1675937.091199999675155]]]]}},
{"type":"Feature","properties":{"รหัสกลุ่มคิว":"83/001","รหัสรับเหมา":"738889","ชื่อ-สกุล รับเหมา":"รถตัดโรงงานเบอร์ 35","นักเกษตร":"8301","ศูนย์":"K2-83","โควตา":"782403","ชาวไร่":"นาย พิทักษ์ แสนกล้า","ประเภทอ้อย":"ตอ2","พื้นที่":12.12,"ตันรวม":96.96,"รหัสแปลง":"320409120002","กลุ่ม":"กลุ่ม_83"},"geometry":{"type":"MultiPolygon","coordinates":[[[[992627.362999999895692,1679404.451400000602007],[992644.642099999822676,1679411.115800000727177],[992671.536500000394881,1679420.602399999275804],[992679.766200000420213,1679425.108899999409914],[992687.912800000049174,1679429.667999999597669],[992722.10010000038892,1679452.621799999848008],[992790.698800000362098,1679479.122500000521541],[992804.831199999898672,1679469.545],[992787.088000000454485,1679405.99349999986589],[992793.063799999654293,1679359.752900000661612],[992766.675400000065565,1679315.386800000444055],[992762.589200000278652,1679306.282199999317527],[992695.0954,1679326.801899999380112],[992682.765800000168383,1679328.366900000721216],[992674.204300000332296,1679326.585400000214577],[992666.939699999988079,1679324.941999999806285],[992646.154900000430644,1679320.002900000661612],[992623.944799999706447,1679398.812899999320507],[992627.362999999895692,1679404.451400000602007]]]]}},
{"type":"Feature","properties":{"รหัสกลุ่มคิว":"83/001","รหัสรับเหมา":"738889","ชื่อ-สกุล รับเหมา":"รถตัดโรงงานเบอร์ 35","นักเกษตร":"8301","ศูนย์":"K2-83","โควตา":"782397","ชาวไร่":"น.ส. จินดา ใจกล้า","ประเภทอ้อย":"ตอ3","พื้นที่":3.61,"ตันรวม":25.27,"รหัสแปลง":"320407051512","กลุ่ม":"กลุ่ม_83"},"geometry":{"type":"MultiPolygon","coordinates":[[[[995629.496899999678135,1681056.05320000089705],[995575.014399999752641,1681063.0285],[995474.096400000154972,1681072.5296],[995475.441399999894202,1681103.931600000709295],[995475.694799999706447,1681104.437400000169873],[995487.401899999938905,1681104.372300000861287],[995538.121600000187755,1681104.049799999222159],[995587.356499999761581,1681099.8246],[995633.950600000098348,1681094.587099999189377],[995629.496899999678135,1681056.05320000089705]]]]}},
{"type":"Feature","properties":{"รหัสกลุ่มคิว":"83/001","รหัสรับเหมา":"738889","ชื่อ-สกุล รับเหมา":"รถตัดโรงงานเบอร์ 35","นักเกษตร":"8301","ศูนย์":"K2-83","โควตา":"782403","ชาวไร่":"นาย พิทักษ์ แสนกล้า","ประเภทอ้อย":"ตอ1","พื้นที่":7.18,"ตันรวม":64.62,"รหัสแปลง":"320409130007","กลุ่ม":"กลุ่ม_83"},"geometry":{"type":"MultiPolygon","coordinates":[[[[993128.399799999780953,1680912.09569999948144],[993121.904400000348687,1680882.382799999788404],[992743.552199999801815,1680947.759199999272823],[992746.663800000213087,1680976.875499999150634],[993128.399799999780953,1680912.09569999948144]]]]}},
{"type":"Feature","properties":{"รหัสกลุ่มคิว":"83/001","รหัสรับเหมา":"738889","ชื่อ-สกุล รับเหมา":"รถตัดโรงงานเบอร์ 35","นักเกษตร":"8301","ศูนย์":"K2-83","โควตา":"782397","ชาวไร่":"น.ส. จินดา ใจกล้า","ประเภทอ้อย":"ตอ3","พื้นที่":5.81,"ตันรวม":40.67,"รหัสแปลง":"320407051513","กลุ่ม":"กลุ่ม_83"},"geometry":{"type":"MultiPolygon","coordinates":[[[[995132.200600000098348,1680949.2149],[995125.202800000086427,1680912.588600000366569],[995102.116499999538064,1680917.101800000295043],[995099.497200000099838,1680898.2027000002563],[994903.832200000062585,1680940.704800000414252],[994905.343100000172853,1680970.639499999582767],[995132.200600000098348,1680949.2149]]]]}},
{"type":"Feature","properties":{"รหัสกลุ่มคิว":"83/001","รหัสรับเหมา":"738889","ชื่อ-สกุล รับเหมา":"รถตัดโรงงานเบอร์ 35","นักเกษตร":"8301","ศูนย์":"K2-83","โควตา":"781764","ชาวไร่":"นาง หนูไกร ฉิมงาม","ประเภทอ้อย":"ตอ2","พื้นที่":3.61,"ตันรวม":28.88,"รหัสแปลง":"320306020001","กลุ่ม":"กลุ่ม_83"},"geometry":{"type":"MultiPolygon","coordinates":[[[[990279.731800000183284,1686878.2676],[990282.139499999582767,1686902.601800000295043],[990349.936099999584258,1686887.461300000548363],[990483.540300000458956,1686832.288100000470877],[990476.926099999807775,1686810.456000000238419],[990279.731800000183284,1686878.2676]]]]}},
{"type":"Feature","properties":{"รหัสกลุ่มคิว":"83/001","รหัสรับเหมา":"738889","ชื่อ-สกุล รับเหมา":"รถตัดโรงงานเบอร์ 35","นักเกษตร":"8301","ศูนย์":"K2-83","โควตา":"781764","ชาวไร่":"นาง หนูไกร ฉิมงาม","ประเภทอ้อย":"ตอ2","พื้นที่":4.19,"ตันรวม":33.52,"รหัสแปลง":"320306020002","กลุ่ม":"กลุ่ม_83"},"geometry":{"type":"MultiPolygon","coordinates":[[[[990478.484199999831617,1686811.953500000759959],[990470.412700000219047,1686785.105799999088049],[990470.229199999943376,1686785.673900000751019],[990266.953099999576807,1686846.331800000742078],[990277.829699999652803,1686880.259999999776483],[990277.856700000353158,1686880.2652000002563],[990478.484199999831617,1686811.953500000759959]]]]}},
{"type":"Feature","properties":{"รหัสกลุ่มคิว":"83/001","รหัสรับเหมา":"738889","ชื่อ-สกุล รับเหมา":"รถตัดโรงงานเบอร์ 35","นักเกษตร":"8301","ศูนย์":"K2-83","โควตา":"781764","ชาวไร่":"นาง หนูไกร ฉิมงาม","ประเภทอ้อย":"ตอ1","พื้นที่":10.07,"ตันรวม":90.63,"รหัสแปลง":"320306020003","กลุ่ม":"กลุ่ม_83"},"geometry":{"type":"MultiPolygon","coordinates":[[[[992768.8273,1686091.444299999624491],[992670.935200000181794,1686129.632500000298023],[992700.455599999986589,1686229.165899999439716],[992716.705900000408292,1686228.427899999544024],[992737.818599999882281,1686270.648399999365211],[992741.834699999541044,1686292.673599999397993],[992807.03940000012517,1686275.687100000679493],[992768.8273,1686091.444299999624491]]]]}},
{"type":"Feature","properties":{"รหัสกลุ่มคิว":"83/001","รหัสรับเหมา":"738889","ชื่อ-สกุล รับเหมา":"รถตัดโรงงานเบอร์ 35","นักเกษตร":"8301","ศูนย์":"K2-83","โควตา":"782406","ชาวไร่":"นาง สุดารัตน์ สมพร","ประเภทอ้อย":"ตอ3","พื้นที่":10.24,"ตันรวม":71.68,"รหัสแปลง":"320409120006","กลุ่ม":"กลุ่ม_83"},"geometry":{"type":"MultiPolygon","coordinates":[[[[992808.569600000046194,1680759.1403],[992724.874900000169873,1680434.802300000563264],[992683.232200000435114,1680442.097799999639392],[992757.264700000174344,1680778.192600000649691],[992808.569600000046194,1680759.1403]]]]}},
{"type":"Feature","properties":{"รหัสกลุ่มคิว":"83/001","รหัสรับเหมา":"738889","ชื่อ-สกุล รับเหมา":"รถตัดโรงงานเบอร์ 35","นักเกษตร":"8301","ศูนย์":"K2-83","โควตา":"782244","ชาวไร่":"นาย สมยศ บุญเลิศ","ประเภทอ้อย":"ปลายฝน","พื้นที่":16.91,"ตันรวม":219.83,"รหัสแปลง":"320409100024","กลุ่ม":"กลุ่ม_83"},"geometry":{"type":"MultiPolygon","coordinates":[[[[993022.362800000235438,1682323.579600000753999],[993024.281700000166893,1682344.486400000751019],[993026.169499999843538,1682359.983999999240041],[993026.112999999895692,1682373.864299999549985],[993023.80449999962002,1682390.459699999541044],[993021.981300000101328,1682402.8706],[993022.431200000457466,1682417.1568],[993022.432699999772012,1682436.879300000146031],[993024.077600000426173,1682455.343399999663234],[993024.443599999882281,1682463.29869999922812],[993023.257399999536574,1682479.787399999797344],[993028.25,1682508.748099999502301],[993031.907599999569356,1682558.27280000038445],[993043.670699999667704,1682624.862600000575185],[993059.99280000012368,1682731.160499999299645],[993078.326399999670684,1682729.16440000012517],[993121.2796,1682711.883099999278784],[993077.637099999934435,1682312.351099999621511],[993022.362800000235438,1682323.579600000753999]]]]}},
{"type":"Feature","properties":{"รหัสกลุ่มคิว":"83/001","รหัสรับเหมา":"738889","ชื่อ-สกุล รับเหมา":"รถตัดโรงงานเบอร์ 35","นักเกษตร":"8301","ศูนย์":"K2-83","โควตา":"782403","ชาวไร่":"นาย พิทักษ์ แสนกล้า","ประเภทอ้อย":"ตอ2","พื้นที่":7.42,"ตันรวม":59.36,"รหัสแปลง":"320401080012","กลุ่ม":"กลุ่ม_83"},"geometry":{"type":"MultiPolygon","coordinates":[[[[992930.599200000055134,1678197.755100000649691],[992882.256699999794364,1677818.1645],[992858.88150000013411,1677820.86089999973774],[992890.696999999694526,1678197.143200000748038],[992895.771399999968708,1678195.561300000175834],[992899.042600000277162,1678194.2347],[992912.342000000178814,1678192.4901],[992918.775999999605119,1678193.722300000488758],[992923.460099999792874,1678193.522700000554323],[992927.444199999794364,1678196.9869],[992930.599200000055134,1678197.755100000649691]]]]}},
{"type":"Feature","properties":{"รหัสกลุ่มคิว":"83/001","รหัสรับเหมา":"738889","ชื่อ-สกุล รับเหมา":"รถตัดโรงงานเบอร์ 35","นักเกษตร":"8301","ศูนย์":"K2-83","โควตา":"782403","ชาวไร่":"นาย พิทักษ์ แสนกล้า","ประเภทอ้อย":"ตอ1","พื้นที่":7.75,"ตันรวม":69.75,"รหัสแปลง":"320409090010","กลุ่ม":"กลุ่ม_83"},"geometry":{"type":"MultiPolygon","coordinates":[[[[993051.562699999660254,1680331.57799999974668],[992985.072700000368059,1680357.169299999251962],[993049.427199999801815,1680523.713600000366569],[993112.555100000463426,1680497.623700000345707],[993051.562699999660254,1680331.57799999974668]]]]}},
{"type":"Feature","properties":{"รหัสกลุ่มคิว":"83/001","รหัสรับเหมา":"738889","ชื่อ-สกุล รับเหมา":"รถตัดโรงงานเบอร์ 35","นักเกษตร":"8301","ศูนย์":"K2-83","โควตา":"782452","ชาวไร่":"นาย สุคม บุญเลิศ","ประเภทอ้อย":"ตอ2","พื้นที่":2.35,"ตันรวม":18.8,"รหัสแปลง":"320407010011","กลุ่ม":"กลุ่ม_83"},"geometry":{"type":"MultiPolygon","coordinates":[[[[994943.221300000324845,1682054.552799999713898],[995090.4671,1682076.198799999430776],[995096.270499999634922,1682050.954],[994942.197700000368059,1682030.5449],[994943.221300000324845,1682054.552799999713898]]]]}},
{"type":"Feature","properties":{"รหัสกลุ่มคิว":"83/001","รหัสรับเหมา":"738889","ชื่อ-สกุล รับเหมา":"รถตัดโรงงานเบอร์ 35","นักเกษตร":"8301","ศูนย์":"K2-83","โควตา":"784889","ชาวไร่":"น.ส. เพชรัช คงมั่น","ประเภทอ้อย":"ตอ4","พื้นที่":8.05,"ตันรวม":56.35,"รหัสแปลง":"320306050034","กลุ่ม":"กลุ่ม_83"},"geometry":{"type":"MultiPolygon","coordinates":[[[[991749.215499999932945,1683311.347200000658631],[991766.557500000111759,1683401.057600000873208],[991910.553299999795854,1683383.417700000107288],[991889.149100000038743,1683296.198200000450015],[991749.215499999932945,1683311.347200000658631]]]]}},
{"type":"Feature","properties":{"รหัสกลุ่มคิว":"83/001","รหัสรับเหมา":"738889","ชื่อ-สกุล รับเหมา":"รถตัดโรงงานเบอร์ 35","นักเกษตร":"8301","ศูนย์":"K2-83","โควตา":"782403","ชาวไร่":"นาย พิทักษ์ แสนกล้า","ประเภทอ้อย":"ตอ1","พื้นที่":8.58,"ตันรวม":77.22,"รหัสแปลง":"320401080014","กลุ่ม":"กลุ่ม_83"},"geometry":{"type":"MultiPolygon","coordinates":[[[[996968.2193,1679627.321399999782443],[997119.126799999736249,1679557.079800000414252],[997074.881000000052154,1679484.087999999523163],[996932.82880000025034,1679549.550000000745058],[996968.210199999623001,1679626.042300000786781],[996968.2193,1679627.321399999782443]]]]}},
{"type":"Feature","properties":{"รหัสกลุ่มคิว":"83/001","รหัสรับเหมา":"738889","ชื่อ-สกุล รับเหมา":"รถตัดโรงงานเบอร์ 35","นักเกษตร":"8301","ศูนย์":"K2-83","โควตา":"784889","ชาวไร่":"น.ส. เพชรัช คงมั่น","ประเภทอ้อย":"ตอ4","พื้นที่":6.54,"ตันรวม":45.78,"รหัสแปลง":"320306050035","กลุ่ม":"กลุ่ม_83"},"geometry":{"type":"MultiPolygon","coordinates":[[[[991764.053299999795854,1683399.433299999684095],[991775.055499999783933,1683469.684100000187755],[991820.632100000046194,1683465.439899999648333],[991922.854899999685585,1683446.380899999290705],[991919.536100000143051,1683416.395600000396371],[991911.447399999946356,1683381.697200000286102],[991764.053299999795854,1683399.433299999684095]]]]}},
{"type":"Feature","properties":{"รหัสกลุ่มคิว":"83/001","รหัสรับเหมา":"738889","ชื่อ-สกุล รับเหมา":"รถตัดโรงงานเบอร์ 35","นักเกษตร":"8301","ศูนย์":"K2-83","โควตา":"782452","ชาวไร่":"นาย สุคม บุญเลิศ","ประเภทอ้อย":"ตอ1","พื้นที่":3.11,"ตันรวม":27.99,"รหัสแปลง":"320407090001","กลุ่ม":"กลุ่ม_83"},"geometry":{"type":"MultiPolygon","coordinates":[[[[995111.119400000199676,1682141.993100000545382],[995117.644199999980628,1682112.720599999651313],[994946.179100000299513,1682086.645600000396371],[994943.934500000439584,1682114.7248],[995111.119400000199676,1682141.993100000545382]]]]}},
{"type":"Feature","properties":{"รหัสกลุ่มคิว":"83/001","รหัสรับเหมา":"738889","ชื่อ-สกุล รับเหมา":"รถตัดโรงงานเบอร์ 35","นักเกษตร":"8301","ศูนย์":"K2-83","โควตา":"782239","ชาวไร่":"นาง กาญจนา พุทธหล้า","ประเภทอ้อย":"ปลายฝน","พื้นที่":11.4,"ตันรวม":148.2,"รหัสแปลง":"320406061679","กลุ่ม":"กลุ่ม_83"},"geometry":{"type":"MultiPolygon","coordinates":[[[[1003404.800099999643862,1679999.859300000593066],[1003520.742700000293553,1679980.1447],[1003520.9907,1679918.187100000679493],[1003513.873800000175834,1679822.593399999663234],[1003401.034799999557436,1679839.970000000670552],[1003407.579300000332296,1679987.526200000196695],[1003404.800099999643862,1679999.859300000593066]]]]}},
{"type":"Feature","properties":{"รหัสกลุ่มคิว":"83/001","รหัสรับเหมา":"738889","ชื่อ-สกุล รับเหมา":"รถตัดโรงงานเบอร์ 35","นักเกษตร":"8301","ศูนย์":"K2-83","โควตา":"782493","ชาวไร่":"นาย สมจิตร แผ่นทอง","ประเภทอ้อย":"ตอ2","พื้นที่":3.26,"ตันรวม":26.08,"รหัสแปลง":"320409100030","กลุ่ม":"กลุ่ม_83"},"geometry":{"type":"MultiPolygon","coordinates":[[[[992512.439699999988079,1681889.538699999451637],[992491.323900000192225,1681889.508899999782443],[992495.718299999833107,1681927.219499999657273],[992500.438500000163913,1681967.479100000113249],[992502.238099999725819,1681986.972999999299645],[992503.954800000414252,1681997.466099999845028],[992509.788200000301003,1682023.540300000458956],[992524.3739,1682090.567800000309944],[992530.402800000272691,1682095.849500000476837],[992533.385700000450015,1682127.9814],[992550.127100000157952,1682129.601800000295043],[992512.439699999988079,1681889.538699999451637]]]]}},
{"type":"Feature","properties":{"รหัสกลุ่มคิว":"83/001","รหัสรับเหมา":"738889","ชื่อ-สกุล รับเหมา":"รถตัดโรงงานเบอร์ 35","นักเกษตร":"8301","ศูนย์":"K2-83","โควตา":"782403","ชาวไร่":"นาย พิทักษ์ แสนกล้า","ประเภทอ้อย":"ตอ1","พื้นที่":24.08,"ตันรวม":216.72,"รหัสแปลง":"320409090011","กลุ่ม":"กลุ่ม_83"},"geometry":{"type":"MultiPolygon","coordinates":[[[[993268.039099999703467,1680257.598899999633431],[993088.217000000178814,1680318.911000000312924],[993064.474000000394881,1680328.490599999204278],[993057.523299999535084,1680335.557700000703335],[993115.898199999704957,1680492.909900000318885],[993245.39670000039041,1680445.5778],[993280.073400000110269,1680428.549799999222159],[993335.307500000111759,1680412.557600000873208],[993306.562599999830127,1680359.1118],[993268.039099999703467,1680257.598899999633431]]]]}},
{"type":"Feature","properties":{"รหัสกลุ่มคิว":"83/001","รหัสรับเหมา":"738889","ชื่อ-สกุล รับเหมา":"รถตัดโรงงานเบอร์ 35","นักเกษตร":"8301","ศูนย์":"K2-83","โควตา":"782403","ชาวไร่":"นาย พิทักษ์ แสนกล้า","ประเภทอ้อย":"ตอ2","พื้นที่":3.56,"ตันรวม":28.48,"รหัสแปลง":"320305081503","กลุ่ม":"กลุ่ม_83"},"geometry":{"type":"MultiPolygon","coordinates":[[[[998252.428199999965727,1683908.478900000452995],[998263.8432,1684017.049000000581145],[998265.554700000211596,1684038.510600000619888],[998266.850899999961257,1684048.269200000911951],[998267.420099999755621,1684050.847999999299645],[998271.932599999941885,1684077.481499999761581],[998270.479500000365078,1684085.267400000244379],[998271.061599999666214,1684086.985400000587106],[998271.820600000210106,1684094.479900000616908],[998306.765300000086427,1684078.6184],[998278.414300000295043,1683904.133400000631809],[998252.428199999965727,1683908.478900000452995]]]]}},
{"type":"Feature","properties":{"รหัสกลุ่มคิว":"83/001","รหัสรับเหมา":"738889","ชื่อ-สกุล รับเหมา":"รถตัดโรงงานเบอร์ 35","นักเกษตร":"8301","ศูนย์":"K2-83","โควตา":"787028","ชาวไร่":"นาง เง็ก ธนาศุภวัฒน์","ประเภทอ้อย":"ปลายฝน","พื้นที่":15.71,"ตันรวม":204.23,"รหัสแปลง":"320401071511","กลุ่ม":"กลุ่ม_83"},"geometry":{"type":"MultiPolygon","coordinates":[[[[996748.730200000107288,1678845.357100000604987],[996828.377199999988079,1678979.994799999520183],[996876.277700000442564,1678985.66579999960959],[996901.623399999924004,1679004.356799999251962],[996910.945700000040233,1678999.726299999281764],[996899.855100000277162,1678920.7708],[996949.222799999639392,1678900.173499999567866],[996950.163099999539554,1678863.332299999892712],[996951.32050000037998,1678827.7654],[996942.743599999696016,1678787.230699999257922],[996748.730200000107288,1678845.357100000604987]]]]}},
{"type":"Feature","properties":{"รหัสกลุ่มคิว":"83/001","รหัสรับเหมา":"738889","ชื่อ-สกุล รับเหมา":"รถตัดโรงงานเบอร์ 35","นักเกษตร":"8301","ศูนย์":"K2-83","โควตา":"787027","ชาวไร่":"นาย บุญลอง แสนกล้า","ประเภทอ้อย":"ปลายฝน","พื้นที่":7.22,"ตันรวม":93.86,"รหัสแปลง":"320409090015","กลุ่ม":"กลุ่ม_83"},"geometry":{"type":"MultiPolygon","coordinates":[[[[993043.313900000415742,1680747.634400000795722],[992858.983199999667704,1680801.280999999493361],[992860.457000000402331,1680797.040899999439716],[992903.985399999655783,1680785.117200000211596],[992893.136599999852479,1680738.743599999696016],[992847.912499999627471,1680746.009099999442697],[992866.631099999882281,1680857.113600000739098],[992914.201500000432134,1680841.04590000025928],[992955.052699999883771,1680823.519099999219179],[992968.315999999642372,1680815.479399999603629],[992987.279799999669194,1680805.221200000494719],[993004.4227,1680797.400399999693036],[993022.312699999660254,1680791.27309999987483],[993064.637400000356138,1680779.810399999842048],[993043.313900000415742,1680747.634400000795722]]]]}},
{"type":"Feature","properties":{"รหัสกลุ่มคิว":"83/001","รหัสรับเหมา":"738889","ชื่อ-สกุล รับเหมา":"รถตัดโรงงานเบอร์ 35","นักเกษตร":"8301","ศูนย์":"K2-83","โควตา":"787019","ชาวไร่":"นาย อำนาจ สุขแสวง","ประเภทอ้อย":"ปลายฝน","พื้นที่":4.27,"ตันรวม":55.51,"รหัสแปลง":"320409120008","กลุ่ม":"กลุ่ม_83"},"geometry":{"type":"MultiPolygon","coordinates":[[[[992801.966599999926984,1680209.407700000330806],[992825.511300000362098,1680202.023700000718236],[992800.205799999646842,1680158.4134],[992713.913800000213087,1680175.356100000441074],[992738.222500000149012,1680255.54869999922812],[992806.753399999812245,1680233.928600000217557],[992801.966599999926984,1680209.407700000330806]]]]}},
{"type":"Feature","properties":{"รหัสกลุ่มคิว":"83/001","รหัสรับเหมา":"738889","ชื่อ-สกุล รับเหมา":"รถตัดโรงงานเบอร์ 35","นักเกษตร":"8301","ศูนย์":"K2-83","โควตา":"784963","ชาวไร่":"นาย สมสิทธิ์ กระแสเทพ","ประเภทอ้อย":"ตอ3","พื้นที่":7.5,"ตันรวม":52.5,"รหัสแปลง":"320409100042","กลุ่ม":"กลุ่ม_83"},"geometry":{"type":"MultiPolygon","coordinates":[[[[992331.229500000365078,1681371.897099999710917],[992331.386099999770522,1681075.185200000181794],[992289.548200000077486,1681080.70160000026226],[992291.231700000353158,1681370.726399999111891],[992331.229500000365078,1681371.897099999710917]]]]}},
{"type":"Feature","properties":{"รหัสกลุ่มคิว":"83/001","รหัสรับเหมา":"738889","ชื่อ-สกุล รับเหมา":"รถตัดโรงงานเบอร์ 35","นักเกษตร":"8301","ศูนย์":"K2-83","โควตา":"782493","ชาวไร่":"นาย สมจิตร แผ่นทอง","ประเภทอ้อย":"ตอ1","พื้นที่":7.85,"ตันรวม":70.65,"รหัสแปลง":"320409100045","กลุ่ม":"กลุ่ม_83"},"geometry":{"type":"MultiPolygon","coordinates":[[[[992573.85869999974966,1681896.374900000169873],[992519.764899999834597,1681903.844100000336766],[992530.382100000046194,1681991.6009],[992550.201100000180304,1682134.634500000625849],[992575.365199999883771,1682133.446100000292063],[992573.569899999536574,1682125.149399999529123],[992602.561300000175834,1682127.966199999675155],[992573.85869999974966,1681896.374900000169873]]]]}},
{"type":"Feature","properties":{"รหัสกลุ่มคิว":"83/001","รหัสรับเหมา":"738889","ชื่อ-สกุล รับเหมา":"รถตัดโรงงานเบอร์ 35","นักเกษตร":"8301","ศูนย์":"K2-83","โควตา":"787017","ชาวไร่":"นาง เงิน สมานมิตร","ประเภทอ้อย":"ตอ1","พื้นที่":6.32,"ตันรวม":56.88,"รหัสแปลง":"320409090019","กลุ่ม":"กลุ่ม_83"},"geometry":{"type":"MultiPolygon","coordinates":[[[[995344.716599999926984,1680329.359400000423193],[995265.024799999780953,1680347.464600000530481],[995294.434600000269711,1680455.390599999576807],[995377.414300000295043,1680451.4507],[995380.567699999548495,1680448.424499999731779],[995382.565299999900162,1680445.373999999836087],[995344.716599999926984,1680329.359400000423193]]]]}},
{"type":"Feature","properties":{"รหัสกลุ่มคิว":"83/001","รหัสรับเหมา":"738889","ชื่อ-สกุล รับเหมา":"รถตัดโรงงานเบอร์ 35","นักเกษตร":"8301","ศูนย์":"K2-83","โควตา":"784963","ชาวไร่":"นาย สมสิทธิ์ กระแสเทพ","ประเภทอ้อย":"ตอ2","พื้นที่":7.69,"ตันรวม":61.52,"รหัสแปลง":"320409120010","กลุ่ม":"กลุ่ม_83"},"geometry":{"type":"MultiPolygon","coordinates":[[[[992234.668200000189245,1681086.566700000315905],[992231.889700000174344,1681091.563500000163913],[992239.069199999794364,1681144.295499999076128],[992251.502000000327826,1681178.675599999725819],[992254.985700000077486,1681214.630799999460578],[992258.097400000318885,1681267.919399999082088],[992249.185700000263751,1681372.965900000184774],[992291.853099999949336,1681377.1381],[992290.305700000375509,1681086.031400000676513],[992284.831299999728799,1681086.9847],[992284.353400000371039,1681075.29759999923408],[992234.668200000189245,1681086.566700000315905]]]]}},
{"type":"Feature","properties":{"รหัสกลุ่มคิว":"83/001","รหัสรับเหมา":"738889","ชื่อ-สกุล รับเหมา":"รถตัดโรงงานเบอร์ 35","นักเกษตร":"8301","ศูนย์":"K2-83","โควตา":"787028","ชาวไร่":"นาง เง็ก ธนาศุภวัฒน์","ประเภทอ้อย":"ตอ1","พื้นที่":18.05,"ตันรวม":162.45,"รหัสแปลง":"320401071512","กลุ่ม":"กลุ่ม_83"},"geometry":{"type":"MultiPolygon","coordinates":[[[[995847.529500000178814,1677693.145099999383092],[995595.856599999591708,1677750.787399999797344],[995619.477699999697506,1677808.770600000396371],[995648.749699999578297,1677801.82179999910295],[995651.751400000415742,1677809.009099999442697],[995686.91579999960959,1677798.352700000628829],[995699.469100000336766,1677847.239099999889731],[995708.314399999566376,1677864.818199999630451],[995858.502000000327826,1677832.79700000025332],[995870.651800000108778,1677823.457499999552965],[995847.529500000178814,1677693.145099999383092]]]]}},
{"type":"Feature","properties":{"รหัสกลุ่มคิว":"83/001","รหัสรับเหมา":"738889","ชื่อ-สกุล รับเหมา":"รถตัดโรงงานเบอร์ 35","นักเกษตร":"8301","ศูนย์":"K2-83","โควตา":"782403","ชาวไร่":"นาย พิทักษ์ แสนกล้า","ประเภทอ้อย":"ปลายฝน","พื้นที่":4.3,"ตันรวม":55.9,"รหัสแปลง":"320409090023","กลุ่ม":"กลุ่ม_83"},"geometry":{"type":"MultiPolygon","coordinates":[[[[991791.259100000374019,1676380.171],[991762.474899999797344,1676321.718900000676513],[991762.359299999661744,1676321.5756],[991739.821999999694526,1676331.174200000241399],[991740.81180000025779,1676343.515900000929832],[991736.510099999606609,1676346.496500000357628],[991747.804299999959767,1676389.2577],[991788.731599999591708,1676377.621799999848008],[991790.614500000141561,1676382.28690000064671],[991774.31900000013411,1676393.153999999165535],[991750.362900000065565,1676403.8037],[991762.191800000146031,1676431.4167],[991781.040300000458956,1676438.462999999523163],[991809.604799999855459,1676500.459100000560284],[991809.369599999859929,1676501.088899999856949],[991837.587100000120699,1676484.017000000923872],[991839.513199999928474,1676482.783299999311566],[991810.25760000012815,1676417.698100000619888],[991821.123700000345707,1676405.063300000503659],[991791.259100000374019,1676380.171]]]]}},
{"type":"Feature","properties":{"รหัสกลุ่มคิว":"83/001","รหัสรับเหมา":"738889","ชื่อ-สกุล รับเหมา":"รถตัดโรงงานเบอร์ 35","นักเกษตร":"8301","ศูนย์":"K2-83","โควตา":"782381","ชาวไร่":"นาง บัวทอง พวงจันทร์","ประเภทอ้อย":"ตอ2","พื้นที่":8.3,"ตันรวม":66.4,"รหัสแปลง":"320405031528","กลุ่ม":"กลุ่ม_83"},"geometry":{"type":"MultiPolygon","coordinates":[[[[997201.304299999959767,1681864.062699999660254],[996964.411899999715388,1681876.265000000596046],[996961.483199999667704,1681931.061699999496341],[997195.247100000269711,1681922.591900000348687],[997201.304299999959767,1681864.062699999660254]]]]}},
{"type":"Feature","properties":{"รหัสกลุ่มคิว":"83/001","รหัสรับเหมา":"738889","ชื่อ-สกุล รับเหมา":"รถตัดโรงงานเบอร์ 35","นักเกษตร":"8301","ศูนย์":"K2-83","โควตา":"782244","ชาวไร่":"นาย สมยศ บุญเลิศ","ประเภทอ้อย":"ตอ2","พื้นที่":15.15,"ตันรวม":121.2,"รหัสแปลง":"320407041546","กลุ่ม":"กลุ่ม_83"},"geometry":{"type":"MultiPolygon","coordinates":[[[[995373.49129999987781,1681446.357699999585748],[995373.987700000405312,1681445.201899999752641],[995277.700400000438094,1681449.595499999821186],[995296.358599999919534,1681738.890000000596046],[995368.556499999947846,1681732.016100000590086],[995373.49129999987781,1681446.357699999585748]]]]}},
{"type":"Feature","properties":{"รหัสกลุ่มคิว":"83/001","รหัสรับเหมา":"738889","ชื่อ-สกุล รับเหมา":"รถตัดโรงงานเบอร์ 35","นักเกษตร":"8301","ศูนย์":"K2-83","โควตา":"787018","ชาวไร่":"นาง ปุณยนุช ยินดี","ประเภทอ้อย":"ตอ2","พื้นที่":10.01,"ตันรวม":80.08,"รหัสแปลง":"320407041547","กลุ่ม":"กลุ่ม_83"},"geometry":{"type":"MultiPolygon","coordinates":[[[[995371.758500000461936,1681443.838899999856949],[995367.497100000269711,1681730.684399999678135],[995367.804100000299513,1681730.436699999496341],[995367.921400000341237,1681731.058399999514222],[995370.745400000363588,1681730.7895],[995372.144700000062585,1681730.618100000545382],[995372.926699999719858,1681729.823400000110269],[995372.97620000038296,1681730.080800000578165],[995383.067800000309944,1681729.082900000736117],[995391.996299999766052,1681727.58],[995405.676599999889731,1681724.0822],[995409.553199999965727,1681723.114199999719858],[995427.638700000010431,1681722.464600000530481],[995419.594800000078976,1681672.854900000616908],[995417.331699999980628,1681653.77419999986887],[995416.126000000163913,1681631.674100000411272],[995419.46999999973923,1681593.546599999070168],[995423.587100000120699,1681569.465900000184774],[995441.329800000414252,1681436.963899999856949],[995371.758500000461936,1681443.838899999856949]]]]}},
{"type":"Feature","properties":{"รหัสกลุ่มคิว":"83/001","รหัสรับเหมา":"738889","ชื่อ-สกุล รับเหมา":"รถตัดโรงงานเบอร์ 35","นักเกษตร":"8301","ศูนย์":"K2-83","โควตา":"788046","ชาวไร่":"นางสาว กันนิดา เพชรงาม","ประเภทอ้อย":"ตอ1","พื้นที่":11.48,"ตันรวม":103.32,"รหัสแปลง":"320401080015","กลุ่ม":"กลุ่ม_83"},"geometry":{"type":"MultiPolygon","coordinates":[[[[993056.170699999667704,1677857.994300000369549],[993016.945199999958277,1677865.0494],[993091.214399999938905,1678299.311699999496341],[993115.325199999846518,1678309.457000000402331],[993134.155500000342727,1678302.876199999824166],[993056.170699999667704,1677857.994300000369549]]]]}},
{"type":"Feature","properties":{"รหัสกลุ่มคิว":"83/001","รหัสรับเหมา":"738889","ชื่อ-สกุล รับเหมา":"รถตัดโรงงานเบอร์ 35","นักเกษตร":"8301","ศูนย์":"K2-83","โควตา":"783460","ชาวไร่":"นาย อภิชาติ บุญมี","ประเภทอ้อย":"ตอ2","พื้นที่":22.2,"ตันรวม":177.6,"รหัสแปลง":"320905090001","กลุ่ม":"กลุ่ม_83"},"geometry":{"type":"MultiPolygon","coordinates":[[[[1008996.966099999845028,1660898.435000000521541],[1009027.028,1660981.020999999716878],[1009009.9868,1660987.500800000503659],[1009016.520200000144541,1661001.513499999418855],[1009032.595599999651313,1660998.157700000330806],[1009046.684899999760091,1661062.459899999201298],[1008942.301400000229478,1661066.70240000076592],[1008983.452499999664724,1661194.104100000113249],[1009069.676900000311434,1661181.334799999371171],[1009065.689600000157952,1661157.57289999909699],[1009143.591099999845028,1661147.215500000864267],[1009050.385099999606609,1660872.570800000801682],[1008996.966099999845028,1660898.435000000521541]]]]}},
{"type":"Feature","properties":{"รหัสกลุ่มคิว":"83/001","รหัสรับเหมา":"738889","ชื่อ-สกุล รับเหมา":"รถตัดโรงงานเบอร์ 35","นักเกษตร":"8301","ศูนย์":"K2-83","โควตา":"787074","ชาวไร่":"นางสาว พัศนีย์ พุฒหล้า","ประเภทอ้อย":"ตอ2","พื้นที่":13.26,"ตันรวม":106.08,"รหัสแปลง":"320407010018","กลุ่ม":"กลุ่ม_83"},"geometry":{"type":"MultiPolygon","coordinates":[[[[995374.307199999690056,1682685.38370000012219],[995491.08420000039041,1682685.192800000309944],[995484.891400000080466,1682551.26039999909699],[995385.82079999987036,1682549.548000000417233],[995376.368300000205636,1682548.980200000107288],[995367.384200000204146,1682546.540300000458956],[995328.260499999858439,1682543.091900000348687],[995322.119500000029802,1682543.8169],[995319.698599999770522,1682544.497099999338388],[995316.261199999600649,1682547.742499999701977],[995315.571800000034273,1682549.159499999135733],[995309.050900000147521,1682584.560100000351667],[995307.618999999947846,1682605.899900000542402],[995306.869500000029802,1682633.879899999126792],[995370.522699999623001,1682635.287799999117851],[995374.307199999690056,1682685.38370000012219]]]]}},
{"type":"Feature","properties":{"รหัสกลุ่มคิว":"83/001","รหัสรับเหมา":"738889","ชื่อ-สกุล รับเหมา":"รถตัดโรงงานเบอร์ 35","นักเกษตร":"8301","ศูนย์":"K2-83","โควตา":"787028","ชาวไร่":"นาง เง็ก ธนาศุภวัฒน์","ประเภทอ้อย":"ตอ2","พื้นที่":34.76,"ตันรวม":278.08,"รหัสแปลง":"320401071516","กลุ่ม":"กลุ่ม_83"},"geometry":{"type":"MultiPolygon","coordinates":[[[[995851.652999999932945,1677686.318600000813603],[995811.548799999989569,1677495.842299999669194],[995799.892699999734759,1677492.2668999992311],[995565.992200000211596,1677568.723400000482798],[995553.111399999819696,1677565.31110000051558],[995545.564399999566376,1677550.97749999910593],[995533.254499999806285,1677521.241399999707937],[995508.996899999678135,1677459.4002],[995481.244400000199676,1677476.560100000351667],[995581.733099999837577,1677710.478000000119209],[995615.339999999850988,1677697.512800000607967],[995633.174100000411272,1677741.903999999165535],[995851.652999999932945,1677686.318600000813603]]]]}},
{"type":"Feature","properties":{"รหัสกลุ่มคิว":"83/001","รหัสรับเหมา":"738889","ชื่อ-สกุล รับเหมา":"รถตัดโรงงานเบอร์ 35","นักเกษตร":"8301","ศูนย์":"K2-83","โควตา":"787076","ชาวไร่":"นาย ชาติชาย สว่างภพ","ประเภทอ้อย":"ตอ2","พื้นที่":6.01,"ตันรวม":48.08,"รหัสแปลง":"320409010005","กลุ่ม":"กลุ่ม_83"},"geometry":{"type":"MultiPolygon","coordinates":[[[[990975.71030000038445,1675384.394799999892712],[990974.577800000086427,1675384.061699999496341],[990914.708999999798834,1675386.258899999782443],[990846.680700000375509,1675390.232699999585748],[990772.314199999906123,1675401.815400000661612],[990744.950899999588728,1675406.955],[990735.895299999974668,1675408.490900000557303],[990720.536000000312924,1675410.632500000298023],[990664.215900000184774,1675420.044399999082088],[990626.697100000455976,1675424.149599999189377],[990572.253499999642372,1675433.217800000682473],[990566.354199999943376,1675438.950500000268221],[990570.252700000070035,1675457.895700000226498],[990758.941100000403821,1675424.453600000590086],[990807.671000000089407,1675418.217299999669194],[990833.558199999853969,1675415.120799999684095],[990841.681900000199676,1675414.751700000837445],[990870.997299999929965,1675413.403200000524521],[990909.132399999536574,1675413.675200000405312],[990977.01659999974072,1675414.187999999150634],[990975.71030000038445,1675384.394799999892712]]]]}},
{"type":"Feature","properties":{"รหัสกลุ่มคิว":"83/001","รหัสรับเหมา":"738889","ชื่อ-สกุล รับเหมา":"รถตัดโรงงานเบอร์ 35","นักเกษตร":"8301","ศูนย์":"K2-83","โควตา":"782403","ชาวไร่":"นาย พิทักษ์ แสนกล้า","ประเภทอ้อย":"ตอ2","พื้นที่":4.3,"ตันรวม":34.4,"รหัสแปลง":"320409010006","กลุ่ม":"กลุ่ม_83"},"geometry":{"type":"MultiPolygon","coordinates":[[[[991835.212100000120699,1676382.494799999520183],[991898.465499999932945,1676366.332499999552965],[991875.011800000444055,1676294.449799999594688],[991869.887900000438094,1676294.882099999114871],[991761.800400000065565,1676316.638399999588728],[991765.505900000222027,1676328.496400000527501],[991816.205400000326335,1676315.081299999728799],[991821.136599999852479,1676340.263499999418855],[991789.346300000324845,1676345.156199999153614],[991790.903199999593198,1676353.2555],[991784.299899999983609,1676357.278799999505281],[991791.278400000184774,1676378.5713],[991806.64159999974072,1676373.747600000351667],[991810.853500000201166,1676378.433700000867248],[991828.978000000119209,1676371.661399999633431],[991835.212100000120699,1676382.494799999520183]]]]}},
{"type":"Feature","properties":{"รหัสกลุ่มคิว":"83/001","รหัสรับเหมา":"738889","ชื่อ-สกุล รับเหมา":"รถตัดโรงงานเบอร์ 35","นักเกษตร":"8301","ศูนย์":"K2-83","โควตา":"782403","ชาวไร่":"นาย พิทักษ์ แสนกล้า","ประเภทอ้อย":"ตอ2","พื้นที่":5.92,"ตันรวม":47.36,"รหัสแปลง":"320409010007","กลุ่ม":"กลุ่ม_83"},"geometry":{"type":"MultiPolygon","coordinates":[[[[991889.678199999965727,1676444.551899999380112],[992024.207600000314415,1676353.52140000090003],[992010.730399999767542,1676334.908299999311566],[991845.505400000140071,1676380.737700000405312],[991865.534699999727309,1676426.772700000554323],[991843.450400000438094,1676439.716099999845028],[991850.803199999965727,1676465.904200000688434],[991889.678199999965727,1676444.551899999380112]]]]}},
{"type":"Feature","properties":{"รหัสกลุ่มคิว":"83/001","รหัสรับเหมา":"738889","ชื่อ-สกุล รับเหมา":"รถตัดโรงงานเบอร์ 35","นักเกษตร":"8301","ศูนย์":"K2-83","โควตา":"788003","ชาวไร่":"นาง อนงค์ กระแสเทพ","ประเภทอ้อย":"ตอ2","พื้นที่":2.71,"ตันรวม":21.68,"รหัสแปลง":"320409100062","กลุ่ม":"กลุ่ม_83"},"geometry":{"type":"MultiPolygon","coordinates":[[[[993449.400799999944866,1682518.333499999716878],[993595.459099999628961,1682521.597799999639392],[993594.971300000324845,1682491.1678],[993446.469700000248849,1682489.906199999153614],[993449.400799999944866,1682518.333499999716878]]]]}},
{"type":"Feature","properties":{"รหัสกลุ่มคิว":"83/001","รหัสรับเหมา":"738889","ชื่อ-สกุล รับเหมา":"รถตัดโรงงานเบอร์ 35","นักเกษตร":"8301","ศูนย์":"K2-83","โควตา":"787085","ชาวไร่":"นาย พงษ์พิชิต ตลับทอง","ประเภทอ้อย":"ตอ1","พื้นที่":3.98,"ตันรวม":35.82,"รหัสแปลง":"320407010023","กลุ่ม":"กลุ่ม_83"},"geometry":{"type":"MultiPolygon","coordinates":[[[[994648.654400000348687,1682569.540699999779463],[994654.888100000098348,1682771.589700000360608],[994685.616399999707937,1682769.796800000593066],[994680.774000000208616,1682567.450799999758601],[994648.654400000348687,1682569.540699999779463]]]]}},
{"type":"Feature","properties":{"รหัสกลุ่มคิว":"83/001","รหัสรับเหมา":"738889","ชื่อ-สกุล รับเหมา":"รถตัดโรงงานเบอร์ 35","นักเกษตร":"8301","ศูนย์":"K2-83","โควตา":"787085","ชาวไร่":"นาย พงษ์พิชิต ตลับทอง","ประเภทอ้อย":"ตอ1","พื้นที่":6.17,"ตันรวม":55.53,"รหัสแปลง":"320407010024","กลุ่ม":"กลุ่ม_83"},"geometry":{"type":"MultiPolygon","coordinates":[[[[994618.029099999926984,1682524.977700000628829],[994592.473600000143051,1682360.423499999567866],[994522.248300000093877,1682371.099099999293685],[994517.120600000023842,1682403.4485],[994513.872999999672174,1682407.822100000455976],[994514.407200000248849,1682419.45920000039041],[994523.170199999585748,1682440.081299999728799],[994525.12569999974221,1682440.003799999132752],[994591.30420000012964,1682504.9627],[994595.370699999853969,1682530.645999999716878],[994618.029099999926984,1682524.977700000628829]]]]}},
{"type":"Feature","properties":{"รหัสกลุ่มคิว":"83/001","รหัสรับเหมา":"738889","ชื่อ-สกุล รับเหมา":"รถตัดโรงงานเบอร์ 35","นักเกษตร":"8301","ศูนย์":"K2-83","โควตา":"787085","ชาวไร่":"นาย พงษ์พิชิต ตลับทอง","ประเภทอ้อย":"ตอ1","พื้นที่":4.73,"ตันรวม":42.57,"รหัสแปลง":"320407090004","กลุ่ม":"กลุ่ม_83"},"geometry":{"type":"MultiPolygon","coordinates":[[[[995353.304999999701977,1681790.1108],[995249.117700000293553,1681791.966099999845028],[995246.729799999855459,1681794.351500000804663],[995246.35190000012517,1681829.313500000163913],[995419.152700000442564,1681837.473600000143051],[995428.271599999628961,1681790.490599999204278],[995353.304999999701977,1681790.1108]]]]}},
{"type":"Feature","properties":{"รหัสกลุ่มคิว":"83/001","รหัสรับเหมา":"738889","ชื่อ-สกุล รับเหมา":"รถตัดโรงงานเบอร์ 35","นักเกษตร":"8301","ศูนย์":"K2-83","โควตา":"787085","ชาวไร่":"นาย พงษ์พิชิต ตลับทอง","ประเภทอ้อย":"ตอ1","พื้นที่":4.78,"ตันรวม":43.02,"รหัสแปลง":"320407090005","กลุ่ม":"กลุ่ม_83"},"geometry":{"type":"MultiPolygon","coordinates":[[[[995253.109400000423193,1681875.534800000488758],[995247.793700000271201,1681910.065400000661612],[995424.755199999548495,1681940.762000000104308],[995438.179100000299513,1681893.246099999174476],[995253.109400000423193,1681875.534800000488758]]]]}},
{"type":"Feature","properties":{"รหัสกลุ่มคิว":"83/001","รหัสรับเหมา":"738889","ชื่อ-สกุล รับเหมา":"รถตัดโรงงานเบอร์ 35","นักเกษตร":"8301","ศูนย์":"K2-83","โควตา":"788003","ชาวไร่":"นาง อนงค์ กระแสเทพ","ประเภทอ้อย":"ตอ1","พื้นที่":5.68,"ตันรวม":51.12,"รหัสแปลง":"320409100064","กลุ่ม":"กลุ่ม_83"},"geometry":{"type":"MultiPolygon","coordinates":[[[[993597.071000000461936,1682528.8421],[993889.771499999798834,1682533.570299999788404],[993892.164599999785423,1682499.099600000306964],[993598.701000000350177,1682501.2796],[993597.071000000461936,1682528.8421]]]]}},
{"type":"Feature","properties":{"รหัสกลุ่มคิว":"83/001","รหัสรับเหมา":"738889","ชื่อ-สกุล รับเหมา":"รถตัดโรงงานเบอร์ 35","นักเกษตร":"8301","ศูนย์":"K2-83","โควตา":"788004","ชาวไร่":"นาย ฉันทวัฒน์ ชัยหาญ","ประเภทอ้อย":"ตอ1","พื้นที่":14.36,"ตันรวม":129.24,"รหัสแปลง":"320306140001","กลุ่ม":"กลุ่ม_83"},"geometry":{"type":"MultiPolygon","coordinates":[[[[993235.52240000013262,1683629.48369999974966],[993415.262600000016391,1683607.008600000292063],[993418.773900000378489,1683524.456299999728799],[993412.639399999752641,1683507.974600000306964],[993328.925900000147521,1683526.1875],[993149.282200000248849,1683554.369000000879169],[993150.418200000189245,1683642.273900000378489],[993182.466300000436604,1683638.199100000783801],[993182.953300000168383,1683605.944399999454618],[993232.652099999599159,1683605.613900000229478],[993235.52240000013262,1683629.48369999974966]]]]}},
{"type":"Feature","properties":{"รหัสกลุ่มคิว":"83/001","รหัสรับเหมา":"738889","ชื่อ-สกุล รับเหมา":"รถตัดโรงงานเบอร์ 35","นักเกษตร":"8301","ศูนย์":"K2-83","โควตา":"788002","ชาวไร่":"นาง ถนอม ขอทัดกลาง","ประเภทอ้อย":"ตอ1","พื้นที่":9.74,"ตันรวม":87.66,"รหัสแปลง":"320407090009","กลุ่ม":"กลุ่ม_83"},"geometry":{"type":"MultiPolygon","coordinates":[[[[994984.767400000244379,1682824.307299999520183],[994916.015999999828637,1682546.0965],[994909.901200000196695,1682540.568099999800324],[994884.75789999961853,1682547.031400000676513],[994887.130099999718368,1682569.933700000867248],[994889.053700000047684,1682632.030899999663234],[994886.657399999909103,1682666.732699999585748],[994889.755099999718368,1682681.701899999752641],[994892.487300000153482,1682706.801200000569224],[994901.586799999698997,1682804.149299999698997],[994927.809000000357628,1682807.331800000742078],[994929.748599999584258,1682818.493699999526143],[994984.767400000244379,1682824.307299999520183]]]]}},
{"type":"Feature","properties":{"รหัสกลุ่มคิว":"83/001","รหัสรับเหมา":"738889","ชื่อ-สกุล รับเหมา":"รถตัดโรงงานเบอร์ 35","นักเกษตร":"8301","ศูนย์":"K2-83","โควตา":"782403","ชาวไร่":"นาย พิทักษ์ แสนกล้า","ประเภทอ้อย":"ตอ1","พื้นที่":13.92,"ตันรวม":125.28,"รหัสแปลง":"320407010027","กลุ่ม":"กลุ่ม_83"},"geometry":{"type":"MultiPolygon","coordinates":[[[[998280.127999999560416,1683904.072200000286102],[998308.743700000457466,1684081.827500000596046],[998376.937199999578297,1684049.223099999129772],[998324.646800000220537,1683764.687599999830127],[998237.479500000365078,1683776.137000000104308],[998247.056900000199676,1683837.465399999171495],[998254.514600000344217,1683838.937599999830127],[998269.640800000168383,1683836.51659999974072],[998280.127999999560416,1683904.072200000286102]]]]}},
{"type":"Feature","properties":{"รหัสกลุ่มคิว":"83/001","รหัสรับเหมา":"738889","ชื่อ-สกุล รับเหมา":"รถตัดโรงงานเบอร์ 35","นักเกษตร":"8301","ศูนย์":"K2-83","โควตา":"788003","ชาวไร่":"นาง อนงค์ กระแสเทพ","ประเภทอ้อย":"ตอ1","พื้นที่":4.53,"ตันรวม":40.77,"รหัสแปลง":"320409100065","กลุ่ม":"กลุ่ม_83"},"geometry":{"type":"MultiPolygon","coordinates":[[[[992656.708800000138581,1681449.067299999296665],[992661.21129999961704,1681491.13120000064373],[992729.42090000025928,1681483.443199999630451],[992809.107099999673665,1681472.066999999806285],[992800.858300000429153,1681420.866599999368191],[992745.490899999625981,1681428.951199999079108],[992656.708800000138581,1681449.067299999296665]]]]}},
{"type":"Feature","properties":{"รหัสกลุ่มคิว":"83/001","รหัสรับเหมา":"738889","ชื่อ-สกุล รับเหมา":"รถตัดโรงงานเบอร์ 35","นักเกษตร":"8301","ศูนย์":"K2-83","โควตา":"787085","ชาวไร่":"นาย พงษ์พิชิต ตลับทอง","ประเภทอ้อย":"ตอ1","พื้นที่":5.59,"ตันรวม":50.31,"รหัสแปลง":"320407010030","กลุ่ม":"กลุ่ม_83"},"geometry":{"type":"MultiPolygon","coordinates":[[[[994665.275100000202656,1683029.879300000146031],[994700.969399999827147,1683024.082100000232458],[994689.832200000062585,1682772.207000000402331],[994655.681300000287592,1682770.973899999633431],[994665.275100000202656,1683029.879300000146031]]]]}},
{"type":"Feature","properties":{"รหัสกลุ่มคิว":"83/001","รหัสรับเหมา":"738889","ชื่อ-สกุล รับเหมา":"รถตัดโรงงานเบอร์ 35","นักเกษตร":"8301","ศูนย์":"K2-83","โควตา":"788017","ชาวไร่":"นาง กนกอร เที่ยงธรรม","ประเภทอ้อย":"ตอ1","พื้นที่":2.79,"ตันรวม":25.11,"รหัสแปลง":"320407010031","กลุ่ม":"กลุ่ม_83"},"geometry":{"type":"MultiPolygon","coordinates":[[[[995888.421500000171363,1682449.273],[995884.207700000144541,1682453.559499999508262],[995878.923299999907613,1682476.339400000870228],[995986.66370000038296,1682490.574300000444055],[996034.815499999560416,1682499.96030000038445],[996044.17960000038147,1682470.833699999377131],[995888.421500000171363,1682449.273]]]]}},
{"type":"Feature","properties":{"รหัสกลุ่มคิว":"83/001","รหัสรับเหมา":"738889","ชื่อ-สกุล รับเหมา":"รถตัดโรงงานเบอร์ 35","นักเกษตร":"8301","ศูนย์":"K2-83","โควตา":"788022","ชาวไร่":"นาง บังอร กระแสเทพ","ประเภทอ้อย":"ตอ1","พื้นที่":3.38,"ตันรวม":30.42,"รหัสแปลง":"320407010034","กลุ่ม":"กลุ่ม_83"},"geometry":{"type":"MultiPolygon","coordinates":[[[[995906.572200000286102,1682361.997400000691414],[995902.205599999986589,1682392.153799999505281],[996057.07079999987036,1682414.315999999642372],[996068.898000000044703,1682378.128399999812245],[995906.572200000286102,1682361.997400000691414]]]]}},
{"type":"Feature","properties":{"รหัสกลุ่มคิว":"83/001","รหัสรับเหมา":"738889","ชื่อ-สกุล รับเหมา":"รถตัดโรงงานเบอร์ 35","นักเกษตร":"8301","ศูนย์":"K2-83","โควตา":"788049","ชาวไร่":"นาย มงคล พุฒหล้า","ประเภทอ้อย":"ตอ1","พื้นที่":8.43,"ตันรวม":75.87,"รหัสแปลง":"320407010035","กลุ่ม":"กลุ่ม_83"},"geometry":{"type":"MultiPolygon","coordinates":[[[[996394.905500000342727,1682843.471799999475479],[996396.307099999859929,1682942.30320000089705],[996497.477099999785423,1682953.01659999974072],[996525.358799999579787,1682954.844499999657273],[996525.624499999918044,1682884.530500000342727],[996527.555200000293553,1682847.604399999603629],[996394.905500000342727,1682843.471799999475479]]]]}},
{"type":"Feature","properties":{"รหัสกลุ่มคิว":"83/001","รหัสรับเหมา":"738889","ชื่อ-สกุล รับเหมา":"รถตัดโรงงานเบอร์ 35","นักเกษตร":"8301","ศูนย์":"K2-83","โควตา":"787019","ชาวไร่":"นาย อำนาจ สุขแสวง","ประเภทอ้อย":"ตอ1","พื้นที่":8.03,"ตันรวม":72.27,"รหัสแปลง":"320409090030","กลุ่ม":"กลุ่ม_83"},"geometry":{"type":"MultiPolygon","coordinates":[[[[993315.571700000204146,1680990.404100000858307],[993320.965599999763072,1681036.689300000667572],[993377.39919999986887,1681026.86710000038147],[993431.154299999587238,1681019.576400000602007],[993460.155600000172853,1681016.751900000497699],[993456.496799999848008,1680983.674499999731779],[993632.865699999965727,1680963.12470000050962],[993627.134600000455976,1680922.450300000607967],[993315.571700000204146,1680990.404100000858307]]]]}},
{"type":"Feature","properties":{"รหัสกลุ่มคิว":"83/001","รหัสรับเหมา":"738889","ชื่อ-สกุล รับเหมา":"รถตัดโรงงานเบอร์ 35","นักเกษตร":"8301","ศูนย์":"K2-83","โควตา":"782452","ชาวไร่":"นาย สุคม บุญเลิศ","ประเภทอ้อย":"ตอ1","พื้นที่":1.4,"ตันรวม":12.6,"รหัสแปลง":"320407010036","กลุ่ม":"กลุ่ม_83"},"geometry":{"type":"MultiPolygon","coordinates":[[[[994942.478099999949336,1682031.918999999761581],[995091.99309999961406,1682050.630999999120831],[995099.309000000357628,1682027.809599999338388],[995070.454199999570847,1682024.768100000917912],[994978.317499999888241,1682028.670299999415874],[994970.436200000345707,1682028.255699999630451],[994962.7171,1682027.401799999177456],[994956.896099999547005,1682026.796499999240041],[994953.5795,1682026.868599999696016],[994949.074599999934435,1682027.325200000777841],[994943.433000000193715,1682029.615499999374151],[994942.478099999949336,1682031.918999999761581]]]]}},
{"type":"Feature","properties":{"รหัสกลุ่มคิว":"83/001","รหัสรับเหมา":"738889","ชื่อ-สกุล รับเหมา":"รถตัดโรงงานเบอร์ 35","นักเกษตร":"8301","ศูนย์":"K2-83","โควตา":"787085","ชาวไร่":"นาย พงษ์พิชิต ตลับทอง","ประเภทอ้อย":"ตอ1","พื้นที่":6.12,"ตันรวม":55.08,"รหัสแปลง":"320407090012","กลุ่ม":"กลุ่ม_83"},"geometry":{"type":"MultiPolygon","coordinates":[[[[995240.630800000391901,1681749.708799999207258],[995242.291799999773502,1681788.618699999526143],[995428.539200000464916,1681786.338300000876188],[995429.667399999685585,1681720.913899999111891],[995240.630800000391901,1681749.708799999207258]]]]}},
{"type":"Feature","properties":{"รหัสกลุ่มคิว":"83/001","รหัสรับเหมา":"738889","ชื่อ-สกุล รับเหมา":"รถตัดโรงงานเบอร์ 35","นักเกษตร":"8301","ศูนย์":"K2-83","โควตา":"788052","ชาวไร่":"นาง อรสา สุขยา","ประเภทอ้อย":"ตอ1","พื้นที่":9.88,"ตันรวม":88.92,"รหัสแปลง":"320409090033","กลุ่ม":"กลุ่ม_83"},"geometry":{"type":"MultiPolygon","coordinates":[[[[992535.078099999576807,1680526.949999999254942],[992553.963999999687076,1680661.79759999923408],[992538.18819999974221,1680660.799200000241399],[992546.175999999977648,1680710.119599999859929],[992572.2034,1680830.213500000536442],[992593.03000000026077,1680913.851800000295043],[992649.150899999774992,1681122.997199999168515],[992678.666100000031292,1681118.866499999538064],[992602.940299999900162,1680833.790200000628829],[992582.551900000311434,1680747.3904],[992577.440600000321865,1680721.949500000104308],[992574.993599999696016,1680704.330700000748038],[992574.119199999608099,1680698.276000000536442],[992567.178100000135601,1680655.534299999475479],[992557.285699999891222,1680581.887700000777841],[992552.768299999646842,1680561.175200000405312],[992551.250500000081956,1680525.739700000733137],[992535.078099999576807,1680526.949999999254942]]]]}},
{"type":"Feature","properties":{"รหัสกลุ่มคิว":"83/001","รหัสรับเหมา":"738889","ชื่อ-สกุล รับเหมา":"รถตัดโรงงานเบอร์ 35","นักเกษตร":"8301","ศูนย์":"K2-83","โควตา":"788075","ชาวไร่":"นาย พนาศักดิ์ กระแสเทพ","ประเภทอ้อย":"ตอ1","พื้นที่":6.32,"ตันรวม":56.88,"รหัสแปลง":"320407041551","กลุ่ม":"กลุ่ม_83"},"geometry":{"type":"MultiPolygon","coordinates":[[[[995936.530899999663234,1682078.355399999767542],[995882.320600000210106,1682322.04869999922812],[995912.744500000029802,1682328.704299999400973],[995955.169300000183284,1682186.697000000625849],[995974.30530000012368,1682116.616599999368191],[995977.550900000147521,1682102.147199999541044],[995981.120099999941885,1682075.715700000524521],[995936.530899999663234,1682078.355399999767542]]]]}},
{"type":"Feature","properties":{"รหัสกลุ่มคิว":"83/001","รหัสรับเหมา":"738889","ชื่อ-สกุล รับเหมา":"รถตัดโรงงานเบอร์ 35","นักเกษตร":"8301","ศูนย์":"K2-83","โควตา":"788097","ชาวไร่":"นาย ธนชัย สายน้อย","ประเภทอ้อย":"ตอ1","พื้นที่":7.91,"ตันรวม":71.19,"รหัสแปลง":"320409060002","กลุ่ม":"กลุ่ม_83"},"geometry":{"type":"MultiPolygon","coordinates":[[[[989518.653800000436604,1678705.459499999880791],[989447.937800000421703,1678725.339700000360608],[989441.172500000335276,1678730.260900000110269],[989440.608199999667704,1678831.637900000438094],[989552.895200000144541,1678830.020400000736117],[989554.268500000238419,1678809.0735],[989625.592899999581277,1678809.223099999129772],[989626.556699999608099,1678781.2818],[989525.560999999754131,1678785.716900000348687],[989518.653800000436604,1678705.459499999880791]]]]}},
{"type":"Feature","properties":{"รหัสกลุ่มคิว":"83/001","รหัสรับเหมา":"738889","ชื่อ-สกุล รับเหมา":"รถตัดโรงงานเบอร์ 35","นักเกษตร":"8301","ศูนย์":"K2-83","โควตา":"782403","ชาวไร่":"นาย พิทักษ์ แสนกล้า","ประเภทอ้อย":"ตอ1","พื้นที่":6.16,"ตันรวม":55.44,"รหัสแปลง":"320409010011","กลุ่ม":"กลุ่ม_83"},"geometry":{"type":"MultiPolygon","coordinates":[[[[991897.737800000235438,1676367.114],[992005.923200000077486,1676340.259500000625849],[992002.741600000299513,1676323.034099999815226],[992010.248999999836087,1676314.531300000846386],[992010.576000000350177,1676253.710400000214577],[991976.213200000114739,1676260.372300000861287],[991977.838200000114739,1676269.23200000077486],[991872.620699999853969,1676296.886499999091029],[991897.737800000235438,1676367.114]]]]}},
{"type":"Feature","properties":{"รหัสกลุ่มคิว":"83/001","รหัสรับเหมา":"738889","ชื่อ-สกุล รับเหมา":"รถตัดโรงงานเบอร์ 35","นักเกษตร":"8301","ศูนย์":"K2-83","โควตา":"782403","ชาวไร่":"นาย พิทักษ์ แสนกล้า","ประเภทอ้อย":"ตอ1","พื้นที่":3.09,"ตันรวม":27.81,"รหัสแปลง":"320409010012","กลุ่ม":"กลุ่ม_83"},"geometry":{"type":"MultiPolygon","coordinates":[[[[991756.347699999809265,1676421.267200000584126],[991733.777700000442564,1676370.21059999987483],[991688.33669999986887,1676384.136099999770522],[991670.808100000023842,1676342.847100000828505],[991652.332600000314415,1676349.548900000751019],[991664.141800000332296,1676414.974600000306964],[991672.102300000376999,1676422.213199999183416],[991691.715599999763072,1676422.718800000846386],[991695.407999999821186,1676434.06389999948442],[991756.347699999809265,1676421.267200000584126]]]]}},
{"type":"Feature","properties":{"รหัสกลุ่มคิว":"83/001","รหัสรับเหมา":"738889","ชื่อ-สกุล รับเหมา":"รถตัดโรงงานเบอร์ 35","นักเกษตร":"8301","ศูนย์":"K2-83","โควตา":"782305","ชาวไร่":"นาย เหมียน หวังผล","ประเภทอ้อย":"ปลายฝน","พื้นที่":15.5,"ตันรวม":201.5,"รหัสแปลง":"320405071558","กลุ่ม":"กลุ่ม_83"},"geometry":{"type":"MultiPolygon","coordinates":[[[[1000679.237200000323355,1679038.736300000920892],[1000637.463999999687076,1679062.272199999541044],[1000637.489900000393391,1679067.082299999892712],[1000638.443300000391901,1679071.977700000628829],[1000670.9435,1679166.089099999517202],[1000859.596300000324845,1679111.237400000914931],[1000804.475499999709427,1678974.414100000634789],[1000679.237200000323355,1679038.736300000920892]]]]}},
{"type":"Feature","properties":{"รหัสกลุ่มคิว":"83/001","รหัสรับเหมา":"738889","ชื่อ-สกุล รับเหมา":"รถตัดโรงงานเบอร์ 35","นักเกษตร":"8301","ศูนย์":"K2-83","โควตา":"782244","ชาวไร่":"นาย สมยศ บุญเลิศ","ประเภทอ้อย":"ปลายฝน","พื้นที่":4.04,"ตันรวม":52.52,"รหัสแปลง":"320407030013","กลุ่ม":"กลุ่ม_83"},"geometry":{"type":"MultiPolygon","coordinates":[[[[994755.00800000037998,1684072.338999999687076],[994748.99239999987185,1684140.937899999320507],[994823.465099999681115,1684179.995999999344349],[994828.55489999987185,1684077.1722],[994755.00800000037998,1684072.338999999687076]]]]}},
{"type":"Feature","properties":{"รหัสกลุ่มคิว":"83/001","รหัสรับเหมา":"738889","ชื่อ-สกุล รับเหมา":"รถตัดโรงงานเบอร์ 35","นักเกษตร":"8301","ศูนย์":"K2-83","โควตา":"701538","ชาวไร่":"นาย ธนพล สังข์เสาวภาคย์","ประเภทอ้อย":"ปลายฝน","พื้นที่":7.99,"ตันรวม":103.87,"รหัสแปลง":"320309100002","กลุ่ม":"กลุ่ม_83"},"geometry":{"type":"MultiPolygon","coordinates":[[[[995850.705799999646842,1690293.4046],[995811.803000000305474,1690175.582000000402331],[995707.343100000172853,1690170.838999999687076],[995690.999400000087917,1690250.704600000753999],[995850.705799999646842,1690293.4046]]]]}},
{"type":"Feature","properties":{"รหัสกลุ่มคิว":"83/001","รหัสรับเหมา":"738889","ชื่อ-สกุล รับเหมา":"รถตัดโรงงานเบอร์ 35","นักเกษตร":"8301","ศูนย์":"K2-83","โควตา":"782244","ชาวไร่":"นาย สมยศ บุญเลิศ","ประเภทอ้อย":"ปลายฝน","พื้นที่":10.96,"ตันรวม":142.48,"รหัสแปลง":"320309100003","กลุ่ม":"กลุ่ม_83"},"geometry":{"type":"MultiPolygon","coordinates":[[[[995691.593100000172853,1690254.814200000837445],[995670.498300000093877,1690322.94400000013411],[995729.51410000026226,1690339.76659999974072],[995722.741200000047684,1690364.478800000622869],[995825.352099999785423,1690391.32120000012219],[995825.553600000217557,1690396.300200000405312],[995881.176799999549985,1690397.926300000399351],[995853.087700000032783,1690317.126900000497699],[995847.980499999597669,1690293.6875],[995691.593100000172853,1690254.814200000837445]]]]}},
{"type":"Feature","properties":{"รหัสกลุ่มคิว":"83/001","รหัสรับเหมา":"738889","ชื่อ-สกุล รับเหมา":"รถตัดโรงงานเบอร์ 35","นักเกษตร":"8301","ศูนย์":"K2-83","โควตา":"782244","ชาวไร่":"นาย สมยศ บุญเลิศ","ประเภทอ้อย":"ปลายฝน","พื้นที่":4.73,"ตันรวม":61.49,"รหัสแปลง":"320407090017","กลุ่ม":"กลุ่ม_83"},"geometry":{"type":"MultiPolygon","coordinates":[[[[995886.987499999813735,1690166.123400000855327],[995887.63150000013411,1690165.878499999642372],[995847.525700000114739,1690054.308000000193715],[995789.269199999980628,1690069.875199999660254],[995813.087799999862909,1690174.571900000795722],[995886.987499999813735,1690166.123400000855327]]]]}},
{"type":"Feature","properties":{"รหัสกลุ่มคิว":"83/001","รหัสรับเหมา":"738889","ชื่อ-สกุล รับเหมา":"รถตัดโรงงานเบอร์ 35","นักเกษตร":"8301","ศูนย์":"K2-83","โควตา":"788049","ชาวไร่":"นาย มงคล พุฒหล้า","ประเภทอ้อย":"ปลายฝน","พื้นที่":6.38,"ตันรวม":82.94,"รหัสแปลง":"320407010038","กลุ่ม":"กลุ่ม_83"},"geometry":{"type":"MultiPolygon","coordinates":[[[[996485.735999999567866,1682128.706000000238419],[996388.578999999910593,1682227.358899999409914],[996420.43709999974817,1682291.721200000494719],[996539.047199999913573,1682164.237299999222159],[996485.735999999567866,1682128.706000000238419]]]]}},
{"type":"Feature","properties":{"รหัสกลุ่มคิว":"83/001","รหัสรับเหมา":"738889","ชื่อ-สกุล รับเหมา":"รถตัดโรงงานเบอร์ 35","นักเกษตร":"8301","ศูนย์":"K2-83","โควตา":"788022","ชาวไร่":"นาง บังอร กระแสเทพ","ประเภทอ้อย":"ปลายฝน","พื้นที่":4.5,"ตันรวม":58.5,"รหัสแปลง":"320407010039","กลุ่ม":"กลุ่ม_83"},"geometry":{"type":"MultiPolygon","coordinates":[[[[995527.508100000210106,1682828.8445999994874],[995537.362700000405312,1682871.32880000025034],[995528.690000000409782,1682871.35219999961555],[995543.115699999965727,1682898.9989],[995482.695000000298023,1682911.791200000792742],[995492.15639999974519,1682949.829500000923872],[995519.377199999988079,1682945.217299999669194],[995525.933400000445545,1682969.7029],[995597.251000000163913,1682945.046399999409914],[995591.206399999558926,1682925.5329],[995585.483500000089407,1682924.220300000160933],[995584.587799999862909,1682923.410199999809265],[995556.693799999542534,1682925.855399999767542],[995553.244099999777973,1682912.627399999648333],[995540.92920000012964,1682913.902200000360608],[995541.056599999777973,1682907.562000000849366],[995581.454199999570847,1682898.368699999526143],[995556.040599999949336,1682823.519999999552965],[995527.508100000210106,1682828.8445999994874]]]]}},
{"type":"Feature","properties":{"รหัสกลุ่มคิว":"83/001","รหัสรับเหมา":"738889","ชื่อ-สกุล รับเหมา":"รถตัดโรงงานเบอร์ 35","นักเกษตร":"8301","ศูนย์":"K2-83","โควตา":"788017","ชาวไร่":"นาง กนกอร เที่ยงธรรม","ประเภทอ้อย":"ปลายฝน","พื้นที่":2.0,"ตันรวม":26.0,"รหัสแปลง":"320407090018","กลุ่ม":"กลุ่ม_83"},"geometry":{"type":"MultiPolygon","coordinates":[[[[996040.414300000295043,1682468.064300000667572],[996050.565600000321865,1682447.438999999314547],[995895.61849999986589,1682428.552999999374151],[995897.291699999943376,1682440.875800000503659],[995891.110799999907613,1682448.662799999117851],[996040.414300000295043,1682468.064300000667572]]]]}},
{"type":"Feature","properties":{"รหัสกลุ่มคิว":"83/001","รหัสรับเหมา":"738889","ชื่อ-สกุล รับเหมา":"รถตัดโรงงานเบอร์ 35","นักเกษตร":"8301","ศูนย์":"K2-83","โควตา":"787105","ชาวไร่":"นาง ทองอยู่ กระแสเทพ","ประเภทอ้อย":"ปลายฝน","พื้นที่":3.29,"ตันรวม":42.77,"รหัสแปลง":"320407090019","กลุ่ม":"กลุ่ม_83"},"geometry":{"type":"MultiPolygon","coordinates":[[[[995907.503200000151992,1682392.12470000050962],[995895.507000000216067,1682426.02170000039041],[996051.45160000026226,1682444.576999999582767],[996065.069799999706447,1682414.720200000330806],[995907.503200000151992,1682392.12470000050962]]]]}},
{"type":"Feature","properties":{"รหัสกลุ่มคิว":"83/001","รหัสรับเหมา":"738889","ชื่อ-สกุล รับเหมา":"รถตัดโรงงานเบอร์ 35","นักเกษตร":"8301","ศูนย์":"K2-83","โควตา":"788017","ชาวไร่":"นาง กนกอร เที่ยงธรรม","ประเภทอ้อย":"ปลายฝน","พื้นที่":11.1,"ตันรวม":144.3,"รหัสแปลง":"320407090020","กลุ่ม":"กลุ่ม_83"},"geometry":{"type":"MultiPolygon","coordinates":[[[[995819.859899999573827,1682089.740599999204278],[995812.199199999682605,1682381.782600000500679],[995852.444199999794364,1682382.371300000697374],[995900.496100000105798,1682084.347200000658631],[995819.859899999573827,1682089.740599999204278]]]]}},
{"type":"Feature","properties":{"รหัสกลุ่มคิว":"83/001","รหัสรับเหมา":"738889","ชื่อ-สกุล รับเหมา":"รถตัดโรงงานเบอร์ 35","นักเกษตร":"8301","ศูนย์":"K2-83","โควตา":"788002","ชาวไร่":"นาง ถนอม ขอทัดกลาง","ประเภทอ้อย":"ปลายฝน","พื้นที่":4.39,"ตันรวม":57.07,"รหัสแปลง":"320407090021","กลุ่ม":"กลุ่ม_83"},"geometry":{"type":"MultiPolygon","coordinates":[[[[995543.231700000353158,1682122.51410000026226],[995551.984600000083447,1682220.123299999162555],[995553.515800000168383,1682232.551699999719858],[995554.096400000154972,1682260.76630000025034],[995561.615899999625981,1682297.287699999287724],[995602.198699999600649,1682291.061899999156594],[995581.07079999987036,1682122.265900000929832],[995543.231700000353158,1682122.51410000026226]]]]}},
{"type":"Feature","properties":{"รหัสกลุ่มคิว":"83/001","รหัสรับเหมา":"738889","ชื่อ-สกุล รับเหมา":"รถตัดโรงงานเบอร์ 35","นักเกษตร":"8301","ศูนย์":"K2-83","โควตา":"787028","ชาวไร่":"นาง เง็ก ธนาศุภวัฒน์","ประเภทอ้อย":"ปลายฝน","พื้นที่":5.34,"ตันรวม":69.42,"รหัสแปลง":"320401071517","กลุ่ม":"กลุ่ม_83"},"geometry":{"type":"MultiPolygon","coordinates":[[[[995920.610399999655783,1677924.861099999397993],[995978.557000000029802,1677898.07740000076592],[995978.232699999585748,1677877.5417],[995992.386099999770522,1677873.2335],[995980.925499999895692,1677829.359899999573827],[995897.774000000208616,1677833.021199999377131],[995882.974799999967217,1677834.107799999415874],[995866.985100000165403,1677836.95380000025034],[995831.251199999824166,1677845.216600000858307],[995836.021599999628961,1677859.788200000301003],[995844.108099999837577,1677861.3333],[995842.2652000002563,1677872.680800000205636],[995862.300900000147521,1677871.345899999141693],[995865.049300000071526,1677877.35050000064075],[995893.973899999633431,1677870.980699999257922],[995901.011800000444055,1677875.688500000163913],[995908.5795,1677881.035499999299645],[995920.610399999655783,1677924.861099999397993]]]]}},
{"type":"Feature","properties":{"รหัสกลุ่มคิว":"83/001","รหัสรับเหมา":"738889","ชื่อ-สกุล รับเหมา":"รถตัดโรงงานเบอร์ 35","นักเกษตร":"8301","ศูนย์":"K2-83","โควตา":"787028","ชาวไร่":"นาง เง็ก ธนาศุภวัฒน์","ประเภทอ้อย":"ปลายฝน","พื้นที่":7.49,"ตันรวม":97.37,"รหัสแปลง":"320401071518","กลุ่ม":"กลุ่ม_83"},"geometry":{"type":"MultiPolygon","coordinates":[[[[995929.985500000417233,1678002.102900000289083],[995920.332999999634922,1677928.718000000342727],[995903.804800000041723,1677929.297700000926852],[995897.970200000330806,1677909.620300000533462],[995784.190299999900162,1677918.7336],[995801.457299999892712,1677972.831599999219179],[995808.434000000357628,1677974.863800000399351],[995818.622499999590218,1678022.436699999496341],[995929.985500000417233,1678002.102900000289083]]]]}},
{"type":"Feature","properties":{"รหัสกลุ่มคิว":"83/001","รหัสรับเหมา":"738889","ชื่อ-สกุล รับเหมา":"รถตัดโรงงานเบอร์ 35","นักเกษตร":"8301","ศูนย์":"K2-83","โควตา":"788022","ชาวไร่":"นาง บังอร กระแสเทพ","ประเภทอ้อย":"ปลายฝน","พื้นที่":4.26,"ตันรวม":55.38,"รหัสแปลง":"320407041552","กลุ่ม":"กลุ่ม_83"},"geometry":{"type":"MultiPolygon","coordinates":[[[[995537.841199999675155,1682124.436699999496341],[995501.357300000265241,1682127.677500000223517],[995510.066700000315905,1682291.737199999392033],[995555.410400000400841,1682290.589700000360608],[995549.585400000214577,1682269.329900000244379],[995549.624900000169873,1682260.611999999731779],[995550.035199999809265,1682230.790500000119209],[995547.707100000232458,1682197.845200000330806],[995537.841199999675155,1682124.436699999496341]]]]}},
{"type":"Feature","properties":{"รหัสกลุ่มคิว":"83/001","รหัสรับเหมา":"738889","ชื่อ-สกุล รับเหมา":"รถตัดโรงงานเบอร์ 35","นักเกษตร":"8301","ศูนย์":"K2-83","โควตา":"787085","ชาวไร่":"นาย พงษ์พิชิต ตลับทอง","ประเภทอ้อย":"ปลายฝน","พื้นที่":16.22,"ตันรวม":210.86,"รหัสแปลง":"320402100001","กลุ่ม":"กลุ่ม_83"},"geometry":{"type":"MultiPolygon","coordinates":[[[[982588.195299999788404,1683359.479299999773502],[982571.719800000078976,1683429.793700000271201],[982669.306300000287592,1683456.159],[982702.104199999943376,1683495.907400000840425],[982696.846499999985099,1683542.307800000533462],[982772.96100000012666,1683569.641200000420213],[982794.356900000013411,1683425.152200000360608],[982802.149400000460446,1683425.619799999520183],[982812.641699999570847,1683390.902300000190735],[982588.195299999788404,1683359.479299999773502]]]]}},
{"type":"Feature","properties":{"รหัสกลุ่มคิว":"83/001","รหัสรับเหมา":"738889","ชื่อ-สกุล รับเหมา":"รถตัดโรงงานเบอร์ 35","นักเกษตร":"8301","ศูนย์":"K2-83","โควตา":"782492","ชาวไร่":"นาย วิทยา แสนกล้า","ประเภทอ้อย":"ปลายฝน","พื้นที่":9.51,"ตันรวม":123.63,"รหัสแปลง":"320402100002","กลุ่ม":"กลุ่ม_83"},"geometry":{"type":"MultiPolygon","coordinates":[[[[982824.298799999989569,1683318.989800000563264],[982598.775600000284612,1683297.823100000619888],[982588.262000000104308,1683360.113099999725819],[982812.873200000263751,1683389.49349999986589],[982824.298799999989569,1683318.989800000563264]]]]}},
{"type":"Feature","properties":{"รหัสกลุ่มคิว":"83/001","รหัสรับเหมา":"738889","ชื่อ-สกุล รับเหมา":"รถตัดโรงงานเบอร์ 35","นักเกษตร":"8301","ศูนย์":"K2-83","โควตา":"782452","ชาวไร่":"นาย สุคม บุญเลิศ","ประเภทอ้อย":"ปลายฝน","พื้นที่":10.69,"ตันรวม":138.97,"รหัสแปลง":"320402100003","กลุ่ม":"กลุ่ม_83"},"geometry":{"type":"MultiPolygon","coordinates":[[[[982602.850599999539554,1683296.2027000002563],[982824.979299999773502,1683320.947599999606609],[982819.397900000214577,1683238.2303],[982614.193900000303984,1683219.342199999839067],[982602.850599999539554,1683296.2027000002563]]]]}},
{"type":"Feature","properties":{"รหัสกลุ่มคิว":"83/001","รหัสรับเหมา":"738889","ชื่อ-สกุล รับเหมา":"รถตัดโรงงานเบอร์ 35","นักเกษตร":"8301","ศูนย์":"K2-83","โควตา":"782403","ชาวไร่":"นาย พิทักษ์ แสนกล้า","ประเภทอ้อย":"ปลายฝน","พื้นที่":7.75,"ตันรวม":100.75,"รหัสแปลง":"320409060003","กลุ่ม":"กลุ่ม_83"},"geometry":{"type":"MultiPolygon","coordinates":[[[[989905.596800000406802,1680462.108899999409914],[989915.723699999973178,1680483.498500000685453],[989920.103099999949336,1680484.8125],[990264.703700000420213,1680389.838400000706315],[990250.232400000095367,1680349.539300000295043],[989905.596800000406802,1680462.108899999409914]]]]}},
{"type":"Feature","properties":{"รหัสกลุ่มคิว":"83/001","รหัสรับเหมา":"738889","ชื่อ-สกุล รับเหมา":"รถตัดโรงงานเบอร์ 35","นักเกษตร":"8301","ศูนย์":"K2-83","โควตา":"788049","ชาวไร่":"นาย มงคล พุฒหล้า","ประเภทอ้อย":"ปลายฝน","พื้นที่":17.94,"ตันรวม":233.22,"รหัสแปลง":"320402100004","กลุ่ม":"กลุ่ม_83"},"geometry":{"type":"MultiPolygon","coordinates":[[[[983013.827200000174344,1683875.240199999883771],[983105.103699999861419,1683866.2007],[983112.683100000023842,1683864.55379999987781],[983117.66469999961555,1683858.61739999987185],[983129.098600000143051,1683735.747899999842048],[983127.491499999538064,1683678.042199999094009],[983125.043700000271201,1683653.064899999648333],[983120.689500000327826,1683555.3432],[983038.583200000226498,1683560.097200000658631],[983039.091500000096858,1683590.527699999511242],[983047.760200000368059,1683597.681500000879169],[983013.827200000174344,1683875.240199999883771]]]]}},
{"type":"Feature","properties":{"รหัสกลุ่มคิว":"83/001","รหัสรับเหมา":"738889","ชื่อ-สกุล รับเหมา":"รถตัดโรงงานเบอร์ 35","นักเกษตร":"8301","ศูนย์":"K2-83","โควตา":"787114","ชาวไร่":"นาย สมปอง สมานมิตร","ประเภทอ้อย":"ปลายฝน","พื้นที่":4.59,"ตันรวม":59.67,"รหัสแปลง":"320402100005","กลุ่ม":"กลุ่ม_83"},"geometry":{"type":"MultiPolygon","coordinates":[[[[982647.077899999916553,1683006.4989],[982555.090099999681115,1682997.967800000682473],[982550.385900000110269,1683083.146099999547005],[982634.598100000061095,1683086.8597999997437],[982647.077899999916553,1683006.4989]]]]}},
{"type":"Feature","properties":{"รหัสกลุ่มคิว":"83/001","รหัสรับเหมา":"738889","ชื่อ-สกุล รับเหมา":"รถตัดโรงงานเบอร์ 35","นักเกษตร":"8301","ศูนย์":"K2-83","โควตา":"788097","ชาวไร่":"นาย ธนชัย สายน้อย","ประเภทอ้อย":"ปลายฝน","พื้นที่":6.75,"ตันรวม":87.75,"รหัสแปลง":"320409060004","กลุ่ม":"กลุ่ม_83"},"geometry":{"type":"MultiPolygon","coordinates":[[[[989624.90500000026077,1678778.974999999627471],[989653.462500000372529,1678779.121500000357628],[989648.246600000187755,1678696.334000000730157],[989518.972799999639392,1678698.566700000315905],[989522.99210000038147,1678782.840700000524521],[989624.90500000026077,1678778.974999999627471]]]]}},
{"type":"Feature","properties":{"รหัสกลุ่มคิว":"83/001","รหัสรับเหมา":"738889","ชื่อ-สกุล รับเหมา":"รถตัดโรงงานเบอร์ 35","นักเกษตร":"8301","ศูนย์":"K2-83","โควตา":"788075","ชาวไร่":"นาย พนาศักดิ์ กระแสเทพ","ประเภทอ้อย":"ปลายฝน","พื้นที่":1.86,"ตันรวม":24.18,"รหัสแปลง":"320407090025","กลุ่ม":"กลุ่ม_83"},"geometry":{"type":"MultiPolygon","coordinates":[[[[995908.835699999704957,1682352.643999999389052],[995898.748999999836087,1682350.150699999183416],[995896.78899999987334,1682344.874900000169873],[995900.67960000038147,1682326.958200000226498],[995885.581000000238419,1682321.2675],[995861.83739999961108,1682448.245699999853969],[995865.765300000086427,1682455.055500000715256],[995876.122800000011921,1682450.8399],[995879.618300000205636,1682448.472400000318885],[995882.657999999821186,1682445.846699999645352],[995884.431800000369549,1682442.9923],[995885.681300000287592,1682440.88150000013411],[995908.835699999704957,1682352.643999999389052]]]]}},
{"type":"Feature","properties":{"รหัสกลุ่มคิว":"83/001","รหัสรับเหมา":"738889","ชื่อ-สกุล รับเหมา":"รถตัดโรงงานเบอร์ 35","นักเกษตร":"8301","ศูนย์":"K2-83","โควตา":"787110","ชาวไร่":"นาง ปรียนันท์ เอี่ยมอาจิณ","ประเภทอ้อย":"ปลายฝน","พื้นที่":20.26,"ตันรวม":263.38,"รหัสแปลง":"320801080001","กลุ่ม":"กลุ่ม_83"},"geometry":{"type":"MultiPolygon","coordinates":[[[[1011192.6168,1685933.625499999150634],[1011190.4364,1685965.649800000712276],[1011163.780500000342727,1685967.171800000593066],[1011164.147699999623001,1686051.849999999627471],[1011172.040400000289083,1686188.396199999377131],[1011172.930499999783933,1686219.087899999693036],[1011278.10120000038296,1686240.734300000593066],[1011280.579699999652803,1686218.670099999755621],[1011290.883100000210106,1686015.962799999862909],[1011274.3887,1686014.222300000488758],[1011277.7445,1685961.568199999630451],[1011261.106599999591708,1685952.515900000929832],[1011192.6168,1685933.625499999150634]]]]}},
{"type":"Feature","properties":{"รหัสกลุ่มคิว":"83/001","รหัสรับเหมา":"738889","ชื่อ-สกุล รับเหมา":"รถตัดโรงงานเบอร์ 35","นักเกษตร":"8301","ศูนย์":"K2-83","โควตา":"787028","ชาวไร่":"นาง เง็ก ธนาศุภวัฒน์","ประเภทอ้อย":"ปลายฝน","พื้นที่":1.43,"ตันรวม":18.59,"รหัสแปลง":"320401071519","กลุ่ม":"กลุ่ม_83"},"geometry":{"type":"MultiPolygon","coordinates":[[[[996040.402999999932945,1677905.215500000864267],[996010.39879999961704,1677822.9452],[995987.382100000046194,1677826.2478],[995997.689199999906123,1677864.675000000745058],[996017.537299999967217,1677853.0777000002563],[996018.403199999593198,1677859.001599999144673],[995998.849499999545515,1677869.001000000163913],[996011.045699999667704,1677914.471200000494719],[996040.402999999932945,1677905.215500000864267]]]]}},
{"type":"Feature","properties":{"รหัสกลุ่มคิว":"83/001","รหัสรับเหมา":"738889","ชื่อ-สกุล รับเหมา":"รถตัดโรงงานเบอร์ 35","นักเกษตร":"8301","ศูนย์":"K2-83","โควตา":"787028","ชาวไร่":"นาง เง็ก ธนาศุภวัฒน์","ประเภทอ้อย":"ปลายฝน","พื้นที่":6.31,"ตันรวม":82.03,"รหัสแปลง":"320401071520","กลุ่ม":"กลุ่ม_83"},"geometry":{"type":"MultiPolygon","coordinates":[[[[996064.199900000356138,1677911.031899999827147],[996010.178700000047684,1677920.118899999186397],[996028.255900000222027,1677985.680500000715256],[996083.512500000186265,1677980.065199999138713],[996085.976700000464916,1677997.102900000289083],[996143.514200000092387,1677980.538899999111891],[996142.193099999800324,1677974.529999999329448],[996165.186700000427663,1677962.800100000575185],[996145.192800000309944,1677926.128200000151992],[996124.383399999700487,1677900.174000000581145],[996112.544700000435114,1677903.997199999168515],[996092.3125,1677881.80489999987185],[996070.141099999658763,1677898.820000000298023],[996085.295300000347197,1677977.560499999672174],[996079.143600000068545,1677979.501599999144673],[996064.199900000356138,1677911.031899999827147]]]]}},
{"type":"Feature","properties":{"รหัสกลุ่มคิว":"83/001","รหัสรับเหมา":"738889","ชื่อ-สกุล รับเหมา":"รถตัดโรงงานเบอร์ 35","นักเกษตร":"8301","ศูนย์":"K2-83","โควตา":"782403","ชาวไร่":"นาย พิทักษ์ แสนกล้า","ประเภทอ้อย":"ปลายฝน","พื้นที่":4.59,"ตันรวม":59.67,"รหัสแปลง":"320409060005","กลุ่ม":"กลุ่ม_83"},"geometry":{"type":"MultiPolygon","coordinates":[[[[990051.594700000248849,1680454.648499999195337],[990007.553600000217557,1680461.255999999120831],[990069.907200000248849,1680615.7029],[990115.020299999974668,1680605.893500000238419],[990075.090699999593198,1680507.740399999544024],[990063.565000000409782,1680484.389699999243021],[990059.690799999982119,1680482.825400000438094],[990051.594700000248849,1680454.648499999195337]]]]}},
{"type":"Feature","properties":{"รหัสกลุ่มคิว":"83/001","รหัสรับเหมา":"738889","ชื่อ-สกุล รับเหมา":"รถตัดโรงงานเบอร์ 35","นักเกษตร":"8301","ศูนย์":"K2-83","โควตา":"787028","ชาวไร่":"นาง เง็ก ธนาศุภวัฒน์","ประเภทอ้อย":"ปลายฝน","พื้นที่":8.0,"ตันรวม":104.0,"รหัสแปลง":"320401071521","กลุ่ม":"กลุ่ม_83"},"geometry":{"type":"MultiPolygon","coordinates":[[[[996329.9545,1677945.355100000277162],[996236.959300000220537,1677980.63539999909699],[996315.808699999935925,1678111.2599],[996382.627299999818206,1678082.418199999257922],[996329.9545,1677945.355100000277162]]]]}},
{"type":"Feature","properties":{"รหัสกลุ่มคิว":"83/001","รหัสรับเหมา":"738889","ชื่อ-สกุล รับเหมา":"รถตัดโรงงานเบอร์ 35","นักเกษตร":"8301","ศูนย์":"K2-83","โควตา":"787028","ชาวไร่":"นาง เง็ก ธนาศุภวัฒน์","ประเภทอ้อย":"ปลายฝน","พื้นที่":4.48,"ตันรวม":58.24,"รหัสแปลง":"320401071522","กลุ่ม":"กลุ่ม_83"},"geometry":{"type":"MultiPolygon","coordinates":[[[[996427.142199999652803,1677905.064500000327826],[996431.721300000324845,1677909.105900000780821],[996458.1402000002563,1677897.002399999648333],[996433.610700000077486,1677826.405899999663234],[996340.132500000298023,1677861.351800000295043],[996367.192599999718368,1677928.595799999311566],[996427.142199999652803,1677905.064500000327826]]]]}},
{"type":"Feature","properties":{"รหัสกลุ่มคิว":"83/001","รหัสรับเหมา":"738889","ชื่อ-สกุล รับเหมา":"รถตัดโรงงานเบอร์ 35","นักเกษตร":"8301","ศูนย์":"K2-83","โควตา":"782244","ชาวไร่":"นาย สมยศ บุญเลิศ","ประเภทอ้อย":"ปลายฝน","พื้นที่":11.03,"ตันรวม":143.39,"รหัสแปลง":"320407010041","กลุ่ม":"กลุ่ม_83"},"geometry":{"type":"MultiPolygon","coordinates":[[[[996094.963000000454485,1680136.50620000064373],[996081.957200000062585,1679835.990499999374151],[996056.516900000162423,1679837.159700000658631],[996057.127500000409782,1679846.386199999600649],[996066.252700000070035,1679847.043500000610948],[996070.025100000202656,1679870.3574],[996063.57149999961257,1679872.526200000196695],[996062.621500000357628,1679878.479499999433756],[996033.858500000089407,1679879.839400000870228],[996029.317300000227988,1679854.444199999794364],[996005.180399999953806,1679859.180700000375509],[996022.200400000438094,1679984.491100000217557],[996022.639399999752641,1679990.583499999716878],[996087.647699999623001,1679992.620799999684095],[996088.018099999986589,1679999.129499999806285],[996023.19510000012815,1679997.303899999707937],[996024.487499999813735,1680013.836899999529123],[996028.587100000120699,1680044.226299999281764],[996043.370199999772012,1680139.883500000461936],[996094.959499999880791,1680136.467299999669194],[996094.963000000454485,1680136.50620000064373]]]]}},
{"type":"Feature","properties":{"รหัสกลุ่มคิว":"83/001","รหัสรับเหมา":"738889","ชื่อ-สกุล รับเหมา":"รถตัดโรงงานเบอร์ 35","นักเกษตร":"8301","ศูนย์":"K2-83","โควตา":"782403","ชาวไร่":"นาย พิทักษ์ แสนกล้า","ประเภทอ้อย":"ปลายฝน","พื้นที่":3.9,"ตันรวม":50.7,"รหัสแปลง":"320409010013","กลุ่ม":"กลุ่ม_83"},"geometry":{"type":"MultiPolygon","coordinates":[[[[991773.145999999716878,1676307.27250000089407],[991942.620799999684095,1676266.124900000169873],[991938.004499999806285,1676239.125],[991811.183199999853969,1676257.098200000822544],[991761.25650000013411,1676269.167999999597669],[991773.145999999716878,1676307.27250000089407]]]]}}
]
}
