{
"type": "FeatureCollection",
"name": "กลุ่ม_กลุ่ม_43",
"crs": { "type": "name", "properties": { "name": "urn:ogc:def:crs:EPSG::32647" } },
"xy_coordinate_resolution": 1e-15,
"features": [
{"type":"Feature","properties":{"รหัสกลุ่มคิว":"43/001","รหัสรับเหมา":"738889","ชื่อ-สกุล รับเหมา":"รถตัดโรงงานเบอร์ 13","นักเกษตร":"4301","ศูนย์":"K2-43","โควตา":"944412","ชาวไร่":"นาง พินิจ สีหะวงษ์","ประเภทอ้อย":"ตอ1","พื้นที่":9.35,"ตันรวม":84.15,"รหัสแปลง":"320903011501","กลุ่ม":"กลุ่ม_43"},"geometry":{"type":"MultiPolygon","coordinates":[[[[1010587.66440000012517,1647224.262299999594688],[1010500.2423,1647257.179300000891089],[1010521.29590000025928,1647392.473500000312924],[1010637.021300000138581,1647339.996200000867248],[1010634.7473,1647328.479399999603629],[1010629.525999999605119,1647311.72069999948144],[1010626.153300000354648,1647301.105399999767542],[1010620.376799999736249,1647285.074699999764562],[1010617.3087,1647277.055500000715256],[1010613.584099999628961,1647266.06279999949038],[1010610.903199999593198,1647256.757099999114871],[1010600.017400000244379,1647235.623400000855327],[1010594.291000000201166,1647225.698000000789762],[1010591.488199999555945,1647222.1239],[1010587.66440000012517,1647224.262299999594688]]]]}},
{"type":"Feature","properties":{"รหัสกลุ่มคิว":"43/001","รหัสรับเหมา":"738889","ชื่อ-สกุล รับเหมา":"รถตัดโรงงานเบอร์ 13","นักเกษตร":"4301","ศูนย์":"K2-43","โควตา":"944412","ชาวไร่":"นาง พินิจ สีหะวงษ์","ประเภทอ้อย":"ตอ1","พื้นที่":11.38,"ตันรวม":102.42,"รหัสแปลง":"320903011503","กลุ่ม":"กลุ่ม_43"},"geometry":{"type":"MultiPolygon","coordinates":[[[[1010759.115899999625981,1647385.691800000146031],[1010668.288200000301003,1647189.536299999803305],[1010605.880400000140071,1647213.736099999397993],[1010608.772599999792874,1647221.566500000655651],[1010600.917600000277162,1647227.13370000012219],[1010666.928600000217557,1647414.252299999818206],[1010759.115899999625981,1647385.691800000146031]]]]}},
{"type":"Feature","properties":{"รหัสกลุ่มคิว":"43/001","รหัสรับเหมา":"738889","ชื่อ-สกุล รับเหมา":"รถตัดโรงงานเบอร์ 13","นักเกษตร":"4301","ศูนย์":"K2-43","โควตา":"975345","ชาวไร่":"นาง บุปผา สหุนาลุ","ประเภทอ้อย":"ปลายฝน","พื้นที่":5.07,"ตันรวม":65.91,"รหัสแปลง":"320911011521","กลุ่ม":"กลุ่ม_43"},"geometry":{"type":"MultiPolygon","coordinates":[[[[1024382.1425,1655302.231499999761581],[1024300.476800000295043,1655319.260900000110269],[1024283.531000000424683,1655354.215900000184774],[1024256.833100000396371,1655380.212999999523163],[1024299.0285,1655400.427300000563264],[1024400.776399999856949,1655360.310699999332428],[1024382.1425,1655302.231499999761581]]]]}},
{"type":"Feature","properties":{"รหัสกลุ่มคิว":"43/001","รหัสรับเหมา":"738889","ชื่อ-สกุล รับเหมา":"รถตัดโรงงานเบอร์ 13","นักเกษตร":"4301","ศูนย์":"K2-43","โควตา":"743950","ชาวไร่":"นาย เสน่ห์ วงละคร","ประเภทอ้อย":"ปลายฝน","พื้นที่":10.65,"ตันรวม":138.45,"รหัสแปลง":"320915070006","กลุ่ม":"กลุ่ม_43"},"geometry":{"type":"MultiPolygon","coordinates":[[[[1018931.416899999603629,1649561.6502],[1018929.180100000463426,1649505.66440000012517],[1018926.528900000266731,1649482.9024],[1018918.478799999691546,1649450.306900000199676],[1018892.882799999788404,1649360.658600000664592],[1018810.1513,1649376.3268],[1018826.301799999549985,1649448.539300000295043],[1018829.7807,1649468.822799999266863],[1018854.152300000190735,1649536.275000000372529],[1018872.2928,1649574.617599999532104],[1018931.416899999603629,1649561.6502]]]]}},
{"type":"Feature","properties":{"รหัสกลุ่มคิว":"43/001","รหัสรับเหมา":"738889","ชื่อ-สกุล รับเหมา":"รถตัดโรงงานเบอร์ 13","นักเกษตร":"4301","ศูนย์":"K2-43","โควตา":"743183","ชาวไร่":"นาย สุทร กรวยทอง","ประเภทอ้อย":"ปลายฝน","พื้นที่":2.97,"ตันรวม":38.61,"รหัสแปลง":"321206031546","กลุ่ม":"กลุ่ม_43"},"geometry":{"type":"MultiPolygon","coordinates":[[[[1027841.94539999961853,1658398.185200000181794],[1027869.969200000166893,1658399.915500000119209],[1027872.120500000193715,1658343.346699999645352],[1027878.426699999719858,1658310.367499999701977],[1027883.041500000283122,1658272.540300000458956],[1027882.89850000012666,1658270.871899999678135],[1027884.635300000198185,1658265.544700000435114],[1027884.6722,1658263.880400000140071],[1027886.813699999824166,1658256.526900000870228],[1027889.457700000144541,1658250.8498],[1027890.025700000114739,1658249.567199999466538],[1027891.272300000302494,1658242.008899999782443],[1027862.300599999725819,1658234.33699999935925],[1027852.132399999536574,1658279.257099999114871],[1027846.557900000363588,1658303.556500000879169],[1027841.94539999961853,1658398.185200000181794]]]]}},
{"type":"Feature","properties":{"รหัสกลุ่มคิว":"43/001","รหัสรับเหมา":"738889","ชื่อ-สกุล รับเหมา":"รถตัดโรงงานเบอร์ 13","นักเกษตร":"4301","ศูนย์":"K2-43","โควตา":"974257","ชาวไร่":"นาย จรูญ สามยอด","ประเภทอ้อย":"ปลายฝน","พื้นที่":10.88,"ตันรวม":141.44,"รหัสแปลง":"321207011514","กลุ่ม":"กลุ่ม_43"},"geometry":{"type":"MultiPolygon","coordinates":[[[[1035555.0164,1665932.197599999606609],[1035601.042700000107288,1665932.865900000557303],[1035634.435999999754131,1665935.469699999317527],[1035691.41469999961555,1665928.9835],[1035682.8108,1665911.7654],[1035676.359400000423193,1665886.824100000783801],[1035674.950199999846518,1665877.540100000798702],[1035671.253899999894202,1665858.027200000360608],[1035667.574,1665829.817700000479817],[1035657.576399999670684,1665778.705399999395013],[1035556.255599999800324,1665789.557800000533462],[1035555.0164,1665932.197599999606609]]]]}},
{"type":"Feature","properties":{"รหัสกลุ่มคิว":"43/001","รหัสรับเหมา":"738889","ชื่อ-สกุล รับเหมา":"รถตัดโรงงานเบอร์ 13","นักเกษตร":"4301","ศูนย์":"K2-43","โควตา":"974996","ชาวไร่":"นาง นรีนารถ ไชยแสง","ประเภทอ้อย":"ตอ1","พื้นที่":4.79,"ตันรวม":43.11,"รหัสแปลง":"321207021544","กลุ่ม":"กลุ่ม_43"},"geometry":{"type":"MultiPolygon","coordinates":[[[[1033716.767799999564886,1663302.0241],[1033718.0291,1663271.02280000038445],[1033656.678100000135601,1663275.849899999797344],[1033618.8141,1663283.630300000309944],[1033622.730700000189245,1663351.805800000205636],[1033664.455500000156462,1663345.906500000506639],[1033662.285899999551475,1663328.655600000172853],[1033670.620299999602139,1663326.591900000348687],[1033674.298000000417233,1663345.059800000861287],[1033724.246100000105798,1663342.417400000616908],[1033716.767799999564886,1663302.0241]]]]}},
{"type":"Feature","properties":{"รหัสกลุ่มคิว":"43/001","รหัสรับเหมา":"738889","ชื่อ-สกุล รับเหมา":"รถตัดโรงงานเบอร์ 13","นักเกษตร":"4301","ศูนย์":"K2-43","โควตา":"950038","ชาวไร่":"นาย ธนาวุฒิ ผักไหม","ประเภทอ้อย":"ปลายฝน","พื้นที่":3.2,"ตันรวม":41.6,"รหัสแปลง":"321504011501","กลุ่ม":"กลุ่ม_43"},"geometry":{"type":"MultiPolygon","coordinates":[[[[1034451.212500000372529,1657844.995100000873208],[1034468.784199999645352,1657903.8607],[1034553.613400000147521,1657875.5998],[1034538.385300000198185,1657824.5581],[1034451.212500000372529,1657844.995100000873208]]]]}},
{"type":"Feature","properties":{"รหัสกลุ่มคิว":"43/001","รหัสรับเหมา":"738889","ชื่อ-สกุล รับเหมา":"รถตัดโรงงานเบอร์ 13","นักเกษตร":"4301","ศูนย์":"K2-43","โควตา":"974326","ชาวไร่":"นาง พนารัตน์ ศรีเลิศ","ประเภทอ้อย":"ตอ1","พื้นที่":3.96,"ตันรวม":35.64,"รหัสแปลง":"330709021513","กลุ่ม":"กลุ่ม_43"},"geometry":{"type":"MultiPolygon","coordinates":[[[[1034989.4879,1656366.569499999284744],[1034970.0291,1656254.82039999961853],[1034916.3207,1656269.581599999219179],[1034929.5192,1656374.4057],[1034989.4879,1656366.569499999284744]]]]}},
{"type":"Feature","properties":{"รหัสกลุ่มคิว":"43/001","รหัสรับเหมา":"738889","ชื่อ-สกุล รับเหมา":"รถตัดโรงงานเบอร์ 13","นักเกษตร":"4301","ศูนย์":"K2-43","โควตา":"974326","ชาวไร่":"นาง พนารัตน์ ศรีเลิศ","ประเภทอ้อย":"ตอ1","พื้นที่":2.43,"ตันรวม":21.87,"รหัสแปลง":"331204131533","กลุ่ม":"กลุ่ม_43"},"geometry":{"type":"MultiPolygon","coordinates":[[[[1035749.091900000348687,1657605.436899999156594],[1035857.5016,1657606.567299999296665],[1035859.1864,1657570.667500000447035],[1035751.232200000435114,1657569.431800000369549],[1035749.091900000348687,1657605.436899999156594]]]]}},
{"type":"Feature","properties":{"รหัสกลุ่มคิว":"43/001","รหัสรับเหมา":"738889","ชื่อ-สกุล รับเหมา":"รถตัดโรงงานเบอร์ 13","นักเกษตร":"4301","ศูนย์":"K2-43","โควตา":"950122","ชาวไร่":"นาย บุญนา วงษ์ละคร","ประเภทอ้อย":"ปลายฝน","พื้นที่":7.91,"ตันรวม":102.83,"รหัสแปลง":"331204141566","กลุ่ม":"กลุ่ม_43"},"geometry":{"type":"MultiPolygon","coordinates":[[[[1036201.170300000347197,1658406.074799999594688],[1036197.521999999880791,1658392.299599999561906],[1036194.024400000460446,1658379.823200000450015],[1036187.033300000242889,1658354.685200000181794],[1036170.643500000238419,1658219.420800000429153],[1036148.773,1658223.143100000917912],[1036169.0137,1658408.33669999986887],[1036164.965599999763072,1658409.368599999696016],[1036145.720599999651313,1658223.671800000593066],[1036142.329699999652803,1658166.417400000616908],[1036108.895999999716878,1658165.110999999567866],[1036109.071899999864399,1658197.312300000339746],[1036115.828700000420213,1658280.918299999088049],[1036119.4117,1658305.60950000025332],[1036124.315700000151992,1658327.554700000211596],[1036140.008899999782443,1658413.767100000753999],[1036201.170300000347197,1658406.074799999594688]]]]}},
{"type":"Feature","properties":{"รหัสกลุ่มคิว":"43/001","รหัสรับเหมา":"738889","ชื่อ-สกุล รับเหมา":"รถตัดโรงงานเบอร์ 13","นักเกษตร":"4301","ศูนย์":"K2-43","โควตา":"743950","ชาวไร่":"นาย เสน่ห์ วงละคร","ประเภทอ้อย":"ตอ1","พื้นที่":10.78,"ตันรวม":97.02,"รหัสแปลง":"320915071555","กลุ่ม":"กลุ่ม_43"},"geometry":{"type":"MultiPolygon","coordinates":[[[[1019658.51659999974072,1649301.3531],[1019772.812,1649282.924499999731779],[1019769.914900000207126,1649275.461799999698997],[1019764.410400000400841,1649222.247999999672174],[1019581.240399999544024,1649263.789599999785423],[1019602.143500000238419,1649411.870799999684095],[1019671.588700000196695,1649395.615399999544024],[1019658.51659999974072,1649301.3531]]]]}},
{"type":"Feature","properties":{"รหัสกลุ่มคิว":"43/001","รหัสรับเหมา":"738889","ชื่อ-สกุล รับเหมา":"รถตัดโรงงานเบอร์ 13","นักเกษตร":"4301","ศูนย์":"K2-43","โควตา":"974417","ชาวไร่":"นาย เทียม ทองดาษ","ประเภทอ้อย":"ตอ1","พื้นที่":18.1,"ตันรวม":162.9,"รหัสแปลง":"321206100002","กลุ่ม":"กลุ่ม_43"},"geometry":{"type":"MultiPolygon","coordinates":[[[[1032092.0115,1656796.69679999910295],[1031998.722400000318885,1656811.991399999707937],[1032002.237700000405312,1656754.929400000721216],[1031972.643299999646842,1656746.350999999791384],[1031974.5921,1656732.79450000077486],[1031955.2434,1656729.743899999186397],[1031951.83600000012666,1656750.698400000110269],[1031948.222699999809265,1656862.120899999514222],[1032056.339999999850988,1656890.306199999526143],[1032137.28139999974519,1656912.7379],[1032134.964599999599159,1656860.113500000908971],[1032157.054999999701977,1656853.759600000455976],[1032175.956500000320375,1656853.255799999460578],[1032223.70990000013262,1656857.835799999535084],[1032235.887299999594688,1656859.046800000593066],[1032246.901399999856949,1656787.767899999395013],[1032089.078599999658763,1656755.3429000005126],[1032092.0115,1656796.69679999910295]]]]}},
{"type":"Feature","properties":{"รหัสกลุ่มคิว":"43/001","รหัสรับเหมา":"738889","ชื่อ-สกุล รับเหมา":"รถตัดโรงงานเบอร์ 13","นักเกษตร":"4301","ศูนย์":"K2-43","โควตา":"701275","ชาวไร่":"นาย วรพัฒน์ นราดุลย์","ประเภทอ้อย":"ปลายฝน","พื้นที่":6.36,"ตันรวม":82.68,"รหัสแปลง":"321505051532","กลุ่ม":"กลุ่ม_43"},"geometry":{"type":"MultiPolygon","coordinates":[[[[1020902.2412,1639960.658800000324845],[1020885.045199999585748,1639962.153000000864267],[1020886.530600000172853,1639986.863600000739098],[1020870.674599999561906,1639992.122300000861287],[1020891.024799999780953,1640215.631699999794364],[1020853.676699999719858,1640221.384600000455976],[1020856.743599999696016,1640244.1151],[1020911.942800000309944,1640246.7675],[1020927.12540000025183,1640245.434599999338388],[1020902.2412,1639960.658800000324845]]]]}},
{"type":"Feature","properties":{"รหัสกลุ่มคิว":"43/001","รหัสรับเหมา":"738889","ชื่อ-สกุล รับเหมา":"รถตัดโรงงานเบอร์ 13","นักเกษตร":"4301","ศูนย์":"K2-43","โควตา":"950038","ชาวไร่":"นาย ธนาวุฒิ ผักไหม","ประเภทอ้อย":"ปลายฝน","พื้นที่":0.98,"ตันรวม":12.74,"รหัสแปลง":"331204111587","กลุ่ม":"กลุ่ม_43"},"geometry":{"type":"MultiPolygon","coordinates":[[[[1034458.7341,1657838.5022],[1034503.535699999891222,1657830.253799999132752],[1034495.54079999960959,1657793.622199999168515],[1034451.125300000421703,1657808.725700000301003],[1034458.7341,1657838.5022]]]]}},
{"type":"Feature","properties":{"รหัสกลุ่มคิว":"43/001","รหัสรับเหมา":"738889","ชื่อ-สกุล รับเหมา":"รถตัดโรงงานเบอร์ 13","นักเกษตร":"4301","ศูนย์":"K2-43","โควตา":"701275","ชาวไร่":"นาย วรพัฒน์ นราดุลย์","ประเภทอ้อย":"ปลายฝน","พื้นที่":5.38,"ตันรวม":69.94,"รหัสแปลง":"321505051541","กลุ่ม":"กลุ่ม_43"},"geometry":{"type":"MultiPolygon","coordinates":[[[[1020902.606599999591708,1639959.2478],[1020924.540300000458956,1640202.0691],[1020982.5345,1640198.120400000363588],[1020983.319299999624491,1640197.830299999564886],[1020940.484299999661744,1640074.070800000801682],[1020931.6097999997437,1639993.274900000542402],[1020928.682400000281632,1639964.081199999898672],[1020929.0696,1639953.692500000819564],[1020929.029199999757111,1639953.049599999561906],[1020902.606599999591708,1639959.2478]]]]}},
{"type":"Feature","properties":{"รหัสกลุ่มคิว":"43/001","รหัสรับเหมา":"738889","ชื่อ-สกุล รับเหมา":"รถตัดโรงงานเบอร์ 13","นักเกษตร":"4301","ศูนย์":"K2-43","โควตา":"974996","ชาวไร่":"นาง นรีนารถ ไชยแสง","ประเภทอ้อย":"ปลายฝน","พื้นที่":3.04,"ตันรวม":39.52,"รหัสแปลง":"321207021670","กลุ่ม":"กลุ่ม_43"},"geometry":{"type":"MultiPolygon","coordinates":[[[[1033628.864299999549985,1663409.510800000280142],[1033670.364199999719858,1663395.6392],[1033728.301099999807775,1663370.664200000464916],[1033720.43709999974817,1663344.39750000089407],[1033669.327600000426173,1663345.655899999663234],[1033659.043200000189245,1663347.090399999171495],[1033648.386800000444055,1663349.071699999272823],[1033636.668399999849498,1663350.289000000804663],[1033611.041000000201166,1663354.154799999669194],[1033628.864299999549985,1663409.510800000280142]]]]}},
{"type":"Feature","properties":{"รหัสกลุ่มคิว":"43/001","รหัสรับเหมา":"738889","ชื่อ-สกุล รับเหมา":"รถตัดโรงงานเบอร์ 13","นักเกษตร":"4301","ศูนย์":"K2-43","โควตา":"743950","ชาวไร่":"นาย เสน่ห์ วงละคร","ประเภทอ้อย":"ปลายฝน","พื้นที่":11.1,"ตันรวม":144.3,"รหัสแปลง":"320915071601","กลุ่ม":"กลุ่ม_43"},"geometry":{"type":"MultiPolygon","coordinates":[[[[1019839.344399999827147,1650669.1118],[1019839.588700000196695,1650668.896199999377131],[1019721.73369999974966,1650710.418099999427795],[1019786.8881,1650850.089600000530481],[1019895.991899999789894,1650786.282800000160933],[1019839.344399999827147,1650669.1118]]]]}},
{"type":"Feature","properties":{"รหัสกลุ่มคิว":"43/001","รหัสรับเหมา":"738889","ชื่อ-สกุล รับเหมา":"รถตัดโรงงานเบอร์ 13","นักเกษตร":"4301","ศูนย์":"K2-43","โควตา":"944412","ชาวไร่":"นาง พินิจ สีหะวงษ์","ประเภทอ้อย":"ตอ2","พื้นที่":4.15,"ตันรวม":33.2,"รหัสแปลง":"320903091518","กลุ่ม":"กลุ่ม_43"},"geometry":{"type":"MultiPolygon","coordinates":[[[[1010638.667399999685585,1647338.736400000751019],[1010519.188900000415742,1647390.024000000208616],[1010522.27379999961704,1647422.645199999213219],[1010539.550099999643862,1647422.457499999552965],[1010555.732699999585748,1647414.477700000628829],[1010571.03969999961555,1647405.369400000199676],[1010577.0137,1647403.64670000039041],[1010604.339499999769032,1647421.615299999713898],[1010615.228199999779463,1647417.222400000318885],[1010637.198099999688566,1647399.377000000327826],[1010652.2604,1647410.240900000557303],[1010657.116100000217557,1647410.344100000336766],[1010654.824400000274181,1647382.734099999070168],[1010638.667399999685585,1647338.736400000751019]]]]}},
{"type":"Feature","properties":{"รหัสกลุ่มคิว":"43/001","รหัสรับเหมา":"738889","ชื่อ-สกุล รับเหมา":"รถตัดโรงงานเบอร์ 13","นักเกษตร":"4301","ศูนย์":"K2-43","โควตา":"944412","ชาวไร่":"นาง พินิจ สีหะวงษ์","ประเภทอ้อย":"ตอ2","พื้นที่":2.92,"ตันรวม":23.36,"รหัสแปลง":"320903091519","กลุ่ม":"กลุ่ม_43"},"geometry":{"type":"MultiPolygon","coordinates":[[[[1010680.5756,1647457.8267],[1010782.881,1647427.261800000444055],[1010761.9934,1647385.753000000491738],[1010668.379099999554455,1647413.728199999779463],[1010680.5756,1647457.8267]]]]}},
{"type":"Feature","properties":{"รหัสกลุ่มคิว":"43/001","รหัสรับเหมา":"738889","ชื่อ-สกุล รับเหมา":"รถตัดโรงงานเบอร์ 13","นักเกษตร":"4301","ศูนย์":"K2-43","โควตา":"974326","ชาวไร่":"นาง พนารัตน์ ศรีเลิศ","ประเภทอ้อย":"ปลายฝน","พื้นที่":10.69,"ตันรวม":138.97,"รหัสแปลง":"330709101720","กลุ่ม":"กลุ่ม_43"},"geometry":{"type":"MultiPolygon","coordinates":[[[[1032925.088899999856949,1657530.535900000482798],[1032918.003999999724329,1657541.664799999445677],[1032916.160400000400841,1657543.659],[1032907.766099999658763,1657597.316500000655651],[1033202.379099999554455,1657576.3268],[1033199.780500000342727,1657523.533800000324845],[1032925.088899999856949,1657530.535900000482798]]]]}},
{"type":"Feature","properties":{"รหัสกลุ่มคิว":"43/001","รหัสรับเหมา":"738889","ชื่อ-สกุล รับเหมา":"รถตัดโรงงานเบอร์ 13","นักเกษตร":"4301","ศูนย์":"K2-43","โควตา":"743950","ชาวไร่":"นาย เสน่ห์ วงละคร","ประเภทอ้อย":"ปลายฝน","พื้นที่":13.32,"ตันรวม":173.16,"รหัสแปลง":"320915071615","กลุ่ม":"กลุ่ม_43"},"geometry":{"type":"MultiPolygon","coordinates":[[[[1018778.654,1649036.002900000661612],[1018780.448800000362098,1649061.091600000858307],[1018780.197599999606609,1649085.19370000064373],[1018763.6875,1649089.268300000578165],[1018764.167299999855459,1649096.158900000154972],[1018784.1338,1649095.821399999782443],[1018787.481300000101328,1649137.321399999782443],[1018892.362599999643862,1649128.171299999579787],[1018894.024600000120699,1649081.525000000372529],[1018893.519999999552965,1649033.228900000452995],[1018868.066100000403821,1648984.482100000604987],[1018845.7165,1648943.495699999853969],[1018831.956399999558926,1648943.632200000807643],[1018808.9523,1648946.191600000485778],[1018765.229899999685585,1648945.704700000584126],[1018767.9869,1648983.116100000217557],[1018733.409300000406802,1648986.795099999755621],[1018741.009399999864399,1649015.312599999830127],[1018773.00040000025183,1649027.006400000303984],[1018778.654,1649036.002900000661612]]]]}},
{"type":"Feature","properties":{"รหัสกลุ่มคิว":"43/001","รหัสรับเหมา":"738889","ชื่อ-สกุล รับเหมา":"รถตัดโรงงานเบอร์ 13","นักเกษตร":"4301","ศูนย์":"K2-43","โควตา":"743950","ชาวไร่":"นาย เสน่ห์ วงละคร","ประเภทอ้อย":"ปลายฝน","พื้นที่":19.34,"ตันรวม":251.42,"รหัสแปลง":"320915091706","กลุ่ม":"กลุ่ม_43"},"geometry":{"type":"MultiPolygon","coordinates":[[[[1020668.601800000295043,1644113.462600000202656],[1020887.8454,1644095.081599999219179],[1020880.598600000143051,1644064.029799999669194],[1020864.417399999685585,1644030.009500000625849],[1020832.16260000038892,1643973.626499999314547],[1020818.331000000238419,1643980.72719999961555],[1020737.3339,1643931.244699999690056],[1020733.600200000219047,1643929.129000000655651],[1020729.6628,1643919.793800000101328],[1020721.059899999760091,1643903.346300000324845],[1020674.544800000265241,1643921.931500000879169],[1020653.324699999764562,1644021.002299999818206],[1020679.579900000244379,1644046.915200000628829],[1020687.5186,1644070.951899999752641],[1020668.601800000295043,1644113.462600000202656]]]]}},
{"type":"Feature","properties":{"รหัสกลุ่มคิว":"43/001","รหัสรับเหมา":"738889","ชื่อ-สกุล รับเหมา":"รถตัดโรงงานเบอร์ 13","นักเกษตร":"4301","ศูนย์":"K2-43","โควตา":"743950","ชาวไร่":"นาย เสน่ห์ วงละคร","ประเภทอ้อย":"ตอ1","พื้นที่":13.4,"ตันรวม":120.6,"รหัสแปลง":"320915071626","กลุ่ม":"กลุ่ม_43"},"geometry":{"type":"MultiPolygon","coordinates":[[[[1018895.6475,1649125.187400000169873],[1018787.652099999599159,1649135.246500000357628],[1018781.901499999687076,1649093.313100000843406],[1018777.764999999664724,1649093.223600000143051],[1018766.9463,1649094.284700000658631],[1018756.2994,1649095.719399999827147],[1018737.3437,1649098.639499999582767],[1018734.2023,1649102.456399999558926],[1018731.960199999623001,1649106.292899999767542],[1018727.596,1649108.418500000610948],[1018763.207600000314415,1649275.499800000339746],[1018882.8004,1649261.6217],[1018895.6475,1649125.187400000169873]]]]}},
{"type":"Feature","properties":{"รหัสกลุ่มคิว":"43/001","รหัสรับเหมา":"738889","ชื่อ-สกุล รับเหมา":"รถตัดโรงงานเบอร์ 13","นักเกษตร":"4301","ศูนย์":"K2-43","โควตา":"701275","ชาวไร่":"นาย วรพัฒน์ นราดุลย์","ประเภทอ้อย":"ปลายฝน","พื้นที่":2.01,"ตันรวม":26.13,"รหัสแปลง":"321505031570","กลุ่ม":"กลุ่ม_43"},"geometry":{"type":"MultiPolygon","coordinates":[[[[1020924.115000000223517,1640202.901900000870228],[1020928.2922,1640246.739],[1021001.792399999685585,1640247.018899999558926],[1021004.564799999818206,1640244.399299999698997],[1020995.769600000232458,1640225.773600000888109],[1020988.348799999803305,1640198.836799999698997],[1020924.115000000223517,1640202.901900000870228]]]]}},
{"type":"Feature","properties":{"รหัสกลุ่มคิว":"43/001","รหัสรับเหมา":"738889","ชื่อ-สกุล รับเหมา":"รถตัดโรงงานเบอร์ 13","นักเกษตร":"4301","ศูนย์":"K2-43","โควตา":"974326","ชาวไร่":"นาง พนารัตน์ ศรีเลิศ","ประเภทอ้อย":"ตอ2","พื้นที่":8.03,"ตันรวม":64.24,"รหัสแปลง":"321206101513","กลุ่ม":"กลุ่ม_43"},"geometry":{"type":"MultiPolygon","coordinates":[[[[1031182.030399999581277,1655038.190700000151992],[1031167.469200000166893,1655029.54079999960959],[1031103.532999999821186,1655016.278300000354648],[1031083.240000000223517,1655022.673499999567866],[1031077.188400000333786,1655011.622400000691414],[1031062.119699999690056,1655009.622300000861287],[1031072.955199999734759,1655072.587799999862909],[1031061.032100000418723,1655082.8695],[1031065.32799999974668,1655131.872099999338388],[1031204.100499999709427,1655115.85080000013113],[1031182.030399999581277,1655038.190700000151992]]]]}},
{"type":"Feature","properties":{"รหัสกลุ่มคิว":"43/001","รหัสรับเหมา":"738889","ชื่อ-สกุล รับเหมา":"รถตัดโรงงานเบอร์ 13","นักเกษตร":"4301","ศูนย์":"K2-43","โควตา":"743950","ชาวไร่":"นาย เสน่ห์ วงละคร","ประเภทอ้อย":"ปลายฝน","พื้นที่":4.83,"ตันรวม":62.79,"รหัสแปลง":"320915071629","กลุ่ม":"กลุ่ม_43"},"geometry":{"type":"MultiPolygon","coordinates":[[[[1019905.971300000324845,1650651.657800000160933],[1019840.046299999579787,1650663.362800000235438],[1019896.113099999725819,1650790.933299999684095],[1019943.8438,1650763.663899999111891],[1019905.971300000324845,1650651.657800000160933]]]]}},
{"type":"Feature","properties":{"รหัสกลุ่มคิว":"43/001","รหัสรับเหมา":"738889","ชื่อ-สกุล รับเหมา":"รถตัดโรงงานเบอร์ 13","นักเกษตร":"4301","ศูนย์":"K2-43","โควตา":"743950","ชาวไร่":"นาย เสน่ห์ วงละคร","ประเภทอ้อย":"ปลายฝน","พื้นที่":7.07,"ตันรวม":91.91,"รหัสแปลง":"320915071631","กลุ่ม":"กลุ่ม_43"},"geometry":{"type":"MultiPolygon","coordinates":[[[[1019663.196600000374019,1649301.269500000402331],[1019673.1392,1649398.793999999761581],[1019603.67,1649416.158800000324845],[1019603.619900000281632,1649460.002299999818206],[1019731.242999999783933,1649440.9375],[1019715.032800000160933,1649292.217599999159575],[1019663.196600000374019,1649301.269500000402331]]]]}},
{"type":"Feature","properties":{"รหัสกลุ่มคิว":"43/001","รหัสรับเหมา":"738889","ชื่อ-สกุล รับเหมา":"รถตัดโรงงานเบอร์ 13","นักเกษตร":"4301","ศูนย์":"K2-43","โควตา":"976399","ชาวไร่":"นาง มะลิ แก้วละมุล","ประเภทอ้อย":"ตอ2","พื้นที่":15.71,"ตันรวม":125.68,"รหัสแปลง":"330702041636","กลุ่ม":"กลุ่ม_43"},"geometry":{"type":"MultiPolygon","coordinates":[[[[1033430.4052,1645482.739800000563264],[1033452.925099999643862,1645474.983899999409914],[1033447.003499999642372,1645450.306099999696016],[1033444.081799999810755,1645450.420099999755621],[1033438.033900000154972,1645387.316600000485778],[1033436.604600000195205,1645251.771999999880791],[1033430.8317,1645058.40430000051856],[1033427.189799999818206,1645014.772700000554323],[1033422.525700000114739,1644967.850099999457598],[1033381.355999999679625,1644969.953600000590086],[1033384.012500000186265,1645059.78969999961555],[1033384.432300000451505,1645116.30350000038743],[1033382.817200000397861,1645171.994000000879169],[1033381.4216,1645266.879300000146031],[1033391.55420000012964,1645460.880999999120831],[1033419.337600000202656,1645453.139599999412894],[1033430.4052,1645482.739800000563264]]]]}},
{"type":"Feature","properties":{"รหัสกลุ่มคิว":"43/001","รหัสรับเหมา":"738889","ชื่อ-สกุล รับเหมา":"รถตัดโรงงานเบอร์ 13","นักเกษตร":"4301","ศูนย์":"K2-43","โควตา":"975345","ชาวไร่":"นาง บุปผา สหุนาลุ","ประเภทอ้อย":"ปลายฝน","พื้นที่":3.43,"ตันรวม":44.59,"รหัสแปลง":"320911011566","กลุ่ม":"กลุ่ม_43"},"geometry":{"type":"MultiPolygon","coordinates":[[[[1024151.6168,1655838.394999999552965],[1024153.571600000374019,1655847.688500000163913],[1024144.041899999603629,1655847.479399999603629],[1024139.394000000320375,1655837.9419],[1024118.057799999602139,1655834.698599999770522],[1024116.261800000444055,1655924.759500000625849],[1024174.0609,1655922.327500000596046],[1024183.467899999581277,1655895.337200000882149],[1024187.364299999549985,1655881.731899999082088],[1024183.545400000177324,1655842.6108],[1024151.6168,1655838.394999999552965]]]]}},
{"type":"Feature","properties":{"รหัสกลุ่มคิว":"43/001","รหัสรับเหมา":"738889","ชื่อ-สกุล รับเหมา":"รถตัดโรงงานเบอร์ 13","นักเกษตร":"4301","ศูนย์":"K2-43","โควตา":"950038","ชาวไร่":"นาย ธนาวุฒิ ผักไหม","ประเภทอ้อย":"ปลายฝน","พื้นที่":1.57,"ตันรวม":20.41,"รหัสแปลง":"331204131586","กลุ่ม":"กลุ่ม_43"},"geometry":{"type":"MultiPolygon","coordinates":[[[[1034507.567900000140071,1657834.970100000500679],[1034536.293800000101328,1657821.550699999555945],[1034522.956600000150502,1657774.43720000050962],[1034441.653800000436604,1657789.824799999594688],[1034447.892799999564886,1657808.468299999833107],[1034491.793700000271201,1657792.243000000715256],[1034507.567900000140071,1657834.970100000500679]]]]}}
]
}
