<?xml version="1.0" encoding="UTF-8"?>
<kml xmlns="http://www.opengis.net/kml/2.2">
<Document>
  <name>กลุ่มคิว 43</name>
  <Style id="plotStyle">
    <LineStyle>
      <color>ff7A6E54</color>
      <width>1.5</width>
    </LineStyle>
    <PolyStyle>
      <color>807A6E54</color>
    </PolyStyle>
  </Style>
  <Folder>
    <name>43_001</name>
    <Placemark>
      <name>320903011501</name>
      <description><![CDATA[<div style='font-family:Tahoma,sans-serif; font-size:13px;'><h3 style='color:#1565C0; margin:4px 0;'>รหัสแปลง: 320903011501</h3><p style='margin:2px 0;'><b>กลุ่มคิว:</b> 43_001</p><table border='1' style='border-collapse:collapse; border-color:#ccc; width:100%;'><tr><td style='padding:3px 6px; font-weight:bold; background-color:#f2f2f2;'>รหัสกลุ่มคิว</td><td style='padding:3px 6px;'>43/001</td></tr><tr><td style='padding:3px 6px; font-weight:bold; background-color:#f2f2f2;'>รหัสรับเหมา</td><td style='padding:3px 6px;'>738889</td></tr><tr><td style='padding:3px 6px; font-weight:bold; background-color:#f2f2f2;'>ชื่อ-สกุล รับเหมา</td><td style='padding:3px 6px;'>รถตัดโรงงานเบอร์ 13</td></tr><tr><td style='padding:3px 6px; font-weight:bold; background-color:#f2f2f2;'>นักเกษตร</td><td style='padding:3px 6px;'>4301</td></tr><tr><td style='padding:3px 6px; font-weight:bold; background-color:#f2f2f2;'>ศูนย์</td><td style='padding:3px 6px;'>K2-43</td></tr><tr><td style='padding:3px 6px; font-weight:bold; background-color:#f2f2f2;'>โควตา</td><td style='padding:3px 6px;'>944412</td></tr><tr><td style='padding:3px 6px; font-weight:bold; background-color:#f2f2f2;'>ชาวไร่</td><td style='padding:3px 6px;'>นาง พินิจ สีหะวงษ์</td></tr><tr><td style='padding:3px 6px; font-weight:bold; background-color:#f2f2f2;'>ประเภทอ้อย</td><td style='padding:3px 6px;'>ตอ1</td></tr><tr><td style='padding:3px 6px; font-weight:bold; background-color:#f2f2f2;'>พื้นที่</td><td style='padding:3px 6px;'>9.35</td></tr><tr><td style='padding:3px 6px; font-weight:bold; background-color:#f2f2f2;'>ตันรวม</td><td style='padding:3px 6px;'>84.15</td></tr><tr><td style='padding:3px 6px; font-weight:bold; background-color:#f2f2f2;'>รหัสแปลง</td><td style='padding:3px 6px;'>320903011501</td></tr><tr><td style='padding:3px 6px; font-weight:bold; background-color:#f2f2f2;'>กลุ่ม</td><td style='padding:3px 6px;'>กลุ่ม_43</td></tr></table></div>]]></description>
      <styleUrl>#plotStyle</styleUrl>
      <MultiGeometry><Polygon><outerBoundaryIs><LinearRing><coordinates>103.7413050,14.8505900,0 103.7405017,14.8509033,0 103.7407233,14.8521183,0 103.7417850,14.8516233,0 103.7417617,14.8515200,0 103.7417100,14.8513700,0 103.7416767,14.8512750,0 103.7416200,14.8511317,0 103.7415900,14.8510600,0 103.7415533,14.8509617,0 103.7415267,14.8508783,0 103.7414217,14.8506900,0 103.7413667,14.8506017,0 103.7413400,14.8505700,0 103.7413050,14.8505900,0</coordinates></LinearRing></outerBoundaryIs></Polygon></MultiGeometry>
    </Placemark>
    <Placemark>
      <name>320903011503</name>
      <description><![CDATA[<div style='font-family:Tahoma,sans-serif; font-size:13px;'><h3 style='color:#1565C0; margin:4px 0;'>รหัสแปลง: 320903011503</h3><p style='margin:2px 0;'><b>กลุ่มคิว:</b> 43_001</p><table border='1' style='border-collapse:collapse; border-color:#ccc; width:100%;'><tr><td style='padding:3px 6px; font-weight:bold; background-color:#f2f2f2;'>รหัสกลุ่มคิว</td><td style='padding:3px 6px;'>43/001</td></tr><tr><td style='padding:3px 6px; font-weight:bold; background-color:#f2f2f2;'>รหัสรับเหมา</td><td style='padding:3px 6px;'>738889</td></tr><tr><td style='padding:3px 6px; font-weight:bold; background-color:#f2f2f2;'>ชื่อ-สกุล รับเหมา</td><td style='padding:3px 6px;'>รถตัดโรงงานเบอร์ 13</td></tr><tr><td style='padding:3px 6px; font-weight:bold; background-color:#f2f2f2;'>นักเกษตร</td><td style='padding:3px 6px;'>4301</td></tr><tr><td style='padding:3px 6px; font-weight:bold; background-color:#f2f2f2;'>ศูนย์</td><td style='padding:3px 6px;'>K2-43</td></tr><tr><td style='padding:3px 6px; font-weight:bold; background-color:#f2f2f2;'>โควตา</td><td style='padding:3px 6px;'>944412</td></tr><tr><td style='padding:3px 6px; font-weight:bold; background-color:#f2f2f2;'>ชาวไร่</td><td style='padding:3px 6px;'>นาง พินิจ สีหะวงษ์</td></tr><tr><td style='padding:3px 6px; font-weight:bold; background-color:#f2f2f2;'>ประเภทอ้อย</td><td style='padding:3px 6px;'>ตอ1</td></tr><tr><td style='padding:3px 6px; font-weight:bold; background-color:#f2f2f2;'>พื้นที่</td><td style='padding:3px 6px;'>11.38</td></tr><tr><td style='padding:3px 6px; font-weight:bold; background-color:#f2f2f2;'>ตันรวม</td><td style='padding:3px 6px;'>102.42</td></tr><tr><td style='padding:3px 6px; font-weight:bold; background-color:#f2f2f2;'>รหัสแปลง</td><td style='padding:3px 6px;'>320903011503</td></tr><tr><td style='padding:3px 6px; font-weight:bold; background-color:#f2f2f2;'>กลุ่ม</td><td style='padding:3px 6px;'>กลุ่ม_43</td></tr></table></div>]]></description>
      <styleUrl>#plotStyle</styleUrl>
      <MultiGeometry><Polygon><outerBoundaryIs><LinearRing><coordinates>103.7429250,14.8520117,0 103.7420450,14.8502617,0 103.7414717,14.8504917,0 103.7415000,14.8505617,0 103.7414283,14.8506133,0 103.7420767,14.8522867,0 103.7429250,14.8520117,0</coordinates></LinearRing></outerBoundaryIs></Polygon></MultiGeometry>
    </Placemark>
    <Placemark>
      <name>320911011521</name>
      <description><![CDATA[<div style='font-family:Tahoma,sans-serif; font-size:13px;'><h3 style='color:#1565C0; margin:4px 0;'>รหัสแปลง: 320911011521</h3><p style='margin:2px 0;'><b>กลุ่มคิว:</b> 43_001</p><table border='1' style='border-collapse:collapse; border-color:#ccc; width:100%;'><tr><td style='padding:3px 6px; font-weight:bold; background-color:#f2f2f2;'>รหัสกลุ่มคิว</td><td style='padding:3px 6px;'>43/001</td></tr><tr><td style='padding:3px 6px; font-weight:bold; background-color:#f2f2f2;'>รหัสรับเหมา</td><td style='padding:3px 6px;'>738889</td></tr><tr><td style='padding:3px 6px; font-weight:bold; background-color:#f2f2f2;'>ชื่อ-สกุล รับเหมา</td><td style='padding:3px 6px;'>รถตัดโรงงานเบอร์ 13</td></tr><tr><td style='padding:3px 6px; font-weight:bold; background-color:#f2f2f2;'>นักเกษตร</td><td style='padding:3px 6px;'>4301</td></tr><tr><td style='padding:3px 6px; font-weight:bold; background-color:#f2f2f2;'>ศูนย์</td><td style='padding:3px 6px;'>K2-43</td></tr><tr><td style='padding:3px 6px; font-weight:bold; background-color:#f2f2f2;'>โควตา</td><td style='padding:3px 6px;'>975345</td></tr><tr><td style='padding:3px 6px; font-weight:bold; background-color:#f2f2f2;'>ชาวไร่</td><td style='padding:3px 6px;'>นาง บุปผา สหุนาลุ</td></tr><tr><td style='padding:3px 6px; font-weight:bold; background-color:#f2f2f2;'>ประเภทอ้อย</td><td style='padding:3px 6px;'>ปลายฝน</td></tr><tr><td style='padding:3px 6px; font-weight:bold; background-color:#f2f2f2;'>พื้นที่</td><td style='padding:3px 6px;'>5.07</td></tr><tr><td style='padding:3px 6px; font-weight:bold; background-color:#f2f2f2;'>ตันรวม</td><td style='padding:3px 6px;'>65.91</td></tr><tr><td style='padding:3px 6px; font-weight:bold; background-color:#f2f2f2;'>รหัสแปลง</td><td style='padding:3px 6px;'>320911011521</td></tr><tr><td style='padding:3px 6px; font-weight:bold; background-color:#f2f2f2;'>กลุ่ม</td><td style='padding:3px 6px;'>กลุ่ม_43</td></tr></table></div>]]></description>
      <styleUrl>#plotStyle</styleUrl>
      <MultiGeometry><Polygon><outerBoundaryIs><LinearRing><coordinates>103.8707117,14.9206828,0 103.8699586,14.9208523,0 103.8698087,14.9211705,0 103.8695667,14.9214100,0 103.8699617,14.9215838,0 103.8708962,14.9212023,0 103.8707117,14.9206828,0</coordinates></LinearRing></outerBoundaryIs></Polygon></MultiGeometry>
    </Placemark>
    <Placemark>
      <name>320915070006</name>
      <description><![CDATA[<div style='font-family:Tahoma,sans-serif; font-size:13px;'><h3 style='color:#1565C0; margin:4px 0;'>รหัสแปลง: 320915070006</h3><p style='margin:2px 0;'><b>กลุ่มคิว:</b> 43_001</p><table border='1' style='border-collapse:collapse; border-color:#ccc; width:100%;'><tr><td style='padding:3px 6px; font-weight:bold; background-color:#f2f2f2;'>รหัสกลุ่มคิว</td><td style='padding:3px 6px;'>43/001</td></tr><tr><td style='padding:3px 6px; font-weight:bold; background-color:#f2f2f2;'>รหัสรับเหมา</td><td style='padding:3px 6px;'>738889</td></tr><tr><td style='padding:3px 6px; font-weight:bold; background-color:#f2f2f2;'>ชื่อ-สกุล รับเหมา</td><td style='padding:3px 6px;'>รถตัดโรงงานเบอร์ 13</td></tr><tr><td style='padding:3px 6px; font-weight:bold; background-color:#f2f2f2;'>นักเกษตร</td><td style='padding:3px 6px;'>4301</td></tr><tr><td style='padding:3px 6px; font-weight:bold; background-color:#f2f2f2;'>ศูนย์</td><td style='padding:3px 6px;'>K2-43</td></tr><tr><td style='padding:3px 6px; font-weight:bold; background-color:#f2f2f2;'>โควตา</td><td style='padding:3px 6px;'>743950</td></tr><tr><td style='padding:3px 6px; font-weight:bold; background-color:#f2f2f2;'>ชาวไร่</td><td style='padding:3px 6px;'>นาย เสน่ห์ วงละคร</td></tr><tr><td style='padding:3px 6px; font-weight:bold; background-color:#f2f2f2;'>ประเภทอ้อย</td><td style='padding:3px 6px;'>ปลายฝน</td></tr><tr><td style='padding:3px 6px; font-weight:bold; background-color:#f2f2f2;'>พื้นที่</td><td style='padding:3px 6px;'>10.65</td></tr><tr><td style='padding:3px 6px; font-weight:bold; background-color:#f2f2f2;'>ตันรวม</td><td style='padding:3px 6px;'>138.45</td></tr><tr><td style='padding:3px 6px; font-weight:bold; background-color:#f2f2f2;'>รหัสแปลง</td><td style='padding:3px 6px;'>320915070006</td></tr><tr><td style='padding:3px 6px; font-weight:bold; background-color:#f2f2f2;'>กลุ่ม</td><td style='padding:3px 6px;'>กลุ่ม_43</td></tr></table></div>]]></description>
      <styleUrl>#plotStyle</styleUrl>
      <MultiGeometry><Polygon><outerBoundaryIs><LinearRing><coordinates>103.8190588,14.8700369,0 103.8190268,14.8695329,0 103.8189977,14.8693284,0 103.8189166,14.8690363,0 103.8186616,14.8682336,0 103.8178984,14.8683909,0 103.8180624,14.8690383,0 103.8180987,14.8692204,0 103.8183380,14.8698233,0 103.8185137,14.8701652,0 103.8190588,14.8700369,0</coordinates></LinearRing></outerBoundaryIs></Polygon></MultiGeometry>
    </Placemark>
    <Placemark>
      <name>321206031546</name>
      <description><![CDATA[<div style='font-family:Tahoma,sans-serif; font-size:13px;'><h3 style='color:#1565C0; margin:4px 0;'>รหัสแปลง: 321206031546</h3><p style='margin:2px 0;'><b>กลุ่มคิว:</b> 43_001</p><table border='1' style='border-collapse:collapse; border-color:#ccc; width:100%;'><tr><td style='padding:3px 6px; font-weight:bold; background-color:#f2f2f2;'>รหัสกลุ่มคิว</td><td style='padding:3px 6px;'>43/001</td></tr><tr><td style='padding:3px 6px; font-weight:bold; background-color:#f2f2f2;'>รหัสรับเหมา</td><td style='padding:3px 6px;'>738889</td></tr><tr><td style='padding:3px 6px; font-weight:bold; background-color:#f2f2f2;'>ชื่อ-สกุล รับเหมา</td><td style='padding:3px 6px;'>รถตัดโรงงานเบอร์ 13</td></tr><tr><td style='padding:3px 6px; font-weight:bold; background-color:#f2f2f2;'>นักเกษตร</td><td style='padding:3px 6px;'>4301</td></tr><tr><td style='padding:3px 6px; font-weight:bold; background-color:#f2f2f2;'>ศูนย์</td><td style='padding:3px 6px;'>K2-43</td></tr><tr><td style='padding:3px 6px; font-weight:bold; background-color:#f2f2f2;'>โควตา</td><td style='padding:3px 6px;'>743183</td></tr><tr><td style='padding:3px 6px; font-weight:bold; background-color:#f2f2f2;'>ชาวไร่</td><td style='padding:3px 6px;'>นาย สุทร กรวยทอง</td></tr><tr><td style='padding:3px 6px; font-weight:bold; background-color:#f2f2f2;'>ประเภทอ้อย</td><td style='padding:3px 6px;'>ปลายฝน</td></tr><tr><td style='padding:3px 6px; font-weight:bold; background-color:#f2f2f2;'>พื้นที่</td><td style='padding:3px 6px;'>2.97</td></tr><tr><td style='padding:3px 6px; font-weight:bold; background-color:#f2f2f2;'>ตันรวม</td><td style='padding:3px 6px;'>38.61</td></tr><tr><td style='padding:3px 6px; font-weight:bold; background-color:#f2f2f2;'>รหัสแปลง</td><td style='padding:3px 6px;'>321206031546</td></tr><tr><td style='padding:3px 6px; font-weight:bold; background-color:#f2f2f2;'>กลุ่ม</td><td style='padding:3px 6px;'>กลุ่ม_43</td></tr></table></div>]]></description>
      <styleUrl>#plotStyle</styleUrl>
      <MultiGeometry><Polygon><outerBoundaryIs><LinearRing><coordinates>103.9033983,14.9478850,0 103.9036583,14.9478950,0 103.9036667,14.9473850,0 103.9037183,14.9470867,0 103.9037533,14.9467450,0 103.9037517,14.9467300,0 103.9037667,14.9466817,0 103.9037667,14.9466667,0 103.9037850,14.9466000,0 103.9038083,14.9465483,0 103.9038133,14.9465367,0 103.9038233,14.9464683,0 103.9035533,14.9464050,0 103.9034683,14.9468117,0 103.9034217,14.9470317,0 103.9033983,14.9478850,0</coordinates></LinearRing></outerBoundaryIs></Polygon></MultiGeometry>
    </Placemark>
    <Placemark>
      <name>321207011514</name>
      <description><![CDATA[<div style='font-family:Tahoma,sans-serif; font-size:13px;'><h3 style='color:#1565C0; margin:4px 0;'>รหัสแปลง: 321207011514</h3><p style='margin:2px 0;'><b>กลุ่มคิว:</b> 43_001</p><table border='1' style='border-collapse:collapse; border-color:#ccc; width:100%;'><tr><td style='padding:3px 6px; font-weight:bold; background-color:#f2f2f2;'>รหัสกลุ่มคิว</td><td style='padding:3px 6px;'>43/001</td></tr><tr><td style='padding:3px 6px; font-weight:bold; background-color:#f2f2f2;'>รหัสรับเหมา</td><td style='padding:3px 6px;'>738889</td></tr><tr><td style='padding:3px 6px; font-weight:bold; background-color:#f2f2f2;'>ชื่อ-สกุล รับเหมา</td><td style='padding:3px 6px;'>รถตัดโรงงานเบอร์ 13</td></tr><tr><td style='padding:3px 6px; font-weight:bold; background-color:#f2f2f2;'>นักเกษตร</td><td style='padding:3px 6px;'>4301</td></tr><tr><td style='padding:3px 6px; font-weight:bold; background-color:#f2f2f2;'>ศูนย์</td><td style='padding:3px 6px;'>K2-43</td></tr><tr><td style='padding:3px 6px; font-weight:bold; background-color:#f2f2f2;'>โควตา</td><td style='padding:3px 6px;'>974257</td></tr><tr><td style='padding:3px 6px; font-weight:bold; background-color:#f2f2f2;'>ชาวไร่</td><td style='padding:3px 6px;'>นาย จรูญ สามยอด</td></tr><tr><td style='padding:3px 6px; font-weight:bold; background-color:#f2f2f2;'>ประเภทอ้อย</td><td style='padding:3px 6px;'>ปลายฝน</td></tr><tr><td style='padding:3px 6px; font-weight:bold; background-color:#f2f2f2;'>พื้นที่</td><td style='padding:3px 6px;'>10.88</td></tr><tr><td style='padding:3px 6px; font-weight:bold; background-color:#f2f2f2;'>ตันรวม</td><td style='padding:3px 6px;'>141.44</td></tr><tr><td style='padding:3px 6px; font-weight:bold; background-color:#f2f2f2;'>รหัสแปลง</td><td style='padding:3px 6px;'>321207011514</td></tr><tr><td style='padding:3px 6px; font-weight:bold; background-color:#f2f2f2;'>กลุ่ม</td><td style='padding:3px 6px;'>กลุ่ม_43</td></tr></table></div>]]></description>
      <styleUrl>#plotStyle</styleUrl>
      <MultiGeometry><Polygon><outerBoundaryIs><LinearRing><coordinates>103.9764283,15.0141950,0 103.9768550,15.0141917,0 103.9771650,15.0142083,0 103.9776917,15.0141383,0 103.9776083,15.0139850,0 103.9775433,15.0137617,0 103.9775283,15.0136783,0 103.9774900,15.0135033,0 103.9774500,15.0132500,0 103.9773467,15.0127917,0 103.9764100,15.0129100,0 103.9764283,15.0141950,0</coordinates></LinearRing></outerBoundaryIs></Polygon></MultiGeometry>
    </Placemark>
    <Placemark>
      <name>321207021544</name>
      <description><![CDATA[<div style='font-family:Tahoma,sans-serif; font-size:13px;'><h3 style='color:#1565C0; margin:4px 0;'>รหัสแปลง: 321207021544</h3><p style='margin:2px 0;'><b>กลุ่มคิว:</b> 43_001</p><table border='1' style='border-collapse:collapse; border-color:#ccc; width:100%;'><tr><td style='padding:3px 6px; font-weight:bold; background-color:#f2f2f2;'>รหัสกลุ่มคิว</td><td style='padding:3px 6px;'>43/001</td></tr><tr><td style='padding:3px 6px; font-weight:bold; background-color:#f2f2f2;'>รหัสรับเหมา</td><td style='padding:3px 6px;'>738889</td></tr><tr><td style='padding:3px 6px; font-weight:bold; background-color:#f2f2f2;'>ชื่อ-สกุล รับเหมา</td><td style='padding:3px 6px;'>รถตัดโรงงานเบอร์ 13</td></tr><tr><td style='padding:3px 6px; font-weight:bold; background-color:#f2f2f2;'>นักเกษตร</td><td style='padding:3px 6px;'>4301</td></tr><tr><td style='padding:3px 6px; font-weight:bold; background-color:#f2f2f2;'>ศูนย์</td><td style='padding:3px 6px;'>K2-43</td></tr><tr><td style='padding:3px 6px; font-weight:bold; background-color:#f2f2f2;'>โควตา</td><td style='padding:3px 6px;'>974996</td></tr><tr><td style='padding:3px 6px; font-weight:bold; background-color:#f2f2f2;'>ชาวไร่</td><td style='padding:3px 6px;'>นาง นรีนารถ ไชยแสง</td></tr><tr><td style='padding:3px 6px; font-weight:bold; background-color:#f2f2f2;'>ประเภทอ้อย</td><td style='padding:3px 6px;'>ตอ1</td></tr><tr><td style='padding:3px 6px; font-weight:bold; background-color:#f2f2f2;'>พื้นที่</td><td style='padding:3px 6px;'>4.79</td></tr><tr><td style='padding:3px 6px; font-weight:bold; background-color:#f2f2f2;'>ตันรวม</td><td style='padding:3px 6px;'>43.11</td></tr><tr><td style='padding:3px 6px; font-weight:bold; background-color:#f2f2f2;'>รหัสแปลง</td><td style='padding:3px 6px;'>321207021544</td></tr><tr><td style='padding:3px 6px; font-weight:bold; background-color:#f2f2f2;'>กลุ่ม</td><td style='padding:3px 6px;'>กลุ่ม_43</td></tr></table></div>]]></description>
      <styleUrl>#plotStyle</styleUrl>
      <MultiGeometry><Polygon><outerBoundaryIs><LinearRing><coordinates>103.9588455,14.9908774,0 103.9588508,14.9905979,0 103.9582833,14.9906538,0 103.9579340,14.9907315,0 103.9579845,14.9913448,0 103.9583699,14.9912832,0 103.9583462,14.9911283,0 103.9584230,14.9911080,0 103.9584609,14.9912736,0 103.9589232,14.9912397,0 103.9588455,14.9908774,0</coordinates></LinearRing></outerBoundaryIs></Polygon></MultiGeometry>
    </Placemark>
    <Placemark>
      <name>321504011501</name>
      <description><![CDATA[<div style='font-family:Tahoma,sans-serif; font-size:13px;'><h3 style='color:#1565C0; margin:4px 0;'>รหัสแปลง: 321504011501</h3><p style='margin:2px 0;'><b>กลุ่มคิว:</b> 43_001</p><table border='1' style='border-collapse:collapse; border-color:#ccc; width:100%;'><tr><td style='padding:3px 6px; font-weight:bold; background-color:#f2f2f2;'>รหัสกลุ่มคิว</td><td style='padding:3px 6px;'>43/001</td></tr><tr><td style='padding:3px 6px; font-weight:bold; background-color:#f2f2f2;'>รหัสรับเหมา</td><td style='padding:3px 6px;'>738889</td></tr><tr><td style='padding:3px 6px; font-weight:bold; background-color:#f2f2f2;'>ชื่อ-สกุล รับเหมา</td><td style='padding:3px 6px;'>รถตัดโรงงานเบอร์ 13</td></tr><tr><td style='padding:3px 6px; font-weight:bold; background-color:#f2f2f2;'>นักเกษตร</td><td style='padding:3px 6px;'>4301</td></tr><tr><td style='padding:3px 6px; font-weight:bold; background-color:#f2f2f2;'>ศูนย์</td><td style='padding:3px 6px;'>K2-43</td></tr><tr><td style='padding:3px 6px; font-weight:bold; background-color:#f2f2f2;'>โควตา</td><td style='padding:3px 6px;'>950038</td></tr><tr><td style='padding:3px 6px; font-weight:bold; background-color:#f2f2f2;'>ชาวไร่</td><td style='padding:3px 6px;'>นาย ธนาวุฒิ ผักไหม</td></tr><tr><td style='padding:3px 6px; font-weight:bold; background-color:#f2f2f2;'>ประเภทอ้อย</td><td style='padding:3px 6px;'>ปลายฝน</td></tr><tr><td style='padding:3px 6px; font-weight:bold; background-color:#f2f2f2;'>พื้นที่</td><td style='padding:3px 6px;'>3.2</td></tr><tr><td style='padding:3px 6px; font-weight:bold; background-color:#f2f2f2;'>ตันรวม</td><td style='padding:3px 6px;'>41.6</td></tr><tr><td style='padding:3px 6px; font-weight:bold; background-color:#f2f2f2;'>รหัสแปลง</td><td style='padding:3px 6px;'>321504011501</td></tr><tr><td style='padding:3px 6px; font-weight:bold; background-color:#f2f2f2;'>กลุ่ม</td><td style='padding:3px 6px;'>กลุ่ม_43</td></tr></table></div>]]></description>
      <styleUrl>#plotStyle</styleUrl>
      <MultiGeometry><Polygon><outerBoundaryIs><LinearRing><coordinates>103.9645167,14.9415767,0 103.9646917,14.9421033,0 103.9654717,14.9418317,0 103.9653200,14.9413750,0 103.9645167,14.9415767,0</coordinates></LinearRing></outerBoundaryIs></Polygon></MultiGeometry>
    </Placemark>
    <Placemark>
      <name>330709021513</name>
      <description><![CDATA[<div style='font-family:Tahoma,sans-serif; font-size:13px;'><h3 style='color:#1565C0; margin:4px 0;'>รหัสแปลง: 330709021513</h3><p style='margin:2px 0;'><b>กลุ่มคิว:</b> 43_001</p><table border='1' style='border-collapse:collapse; border-color:#ccc; width:100%;'><tr><td style='padding:3px 6px; font-weight:bold; background-color:#f2f2f2;'>รหัสกลุ่มคิว</td><td style='padding:3px 6px;'>43/001</td></tr><tr><td style='padding:3px 6px; font-weight:bold; background-color:#f2f2f2;'>รหัสรับเหมา</td><td style='padding:3px 6px;'>738889</td></tr><tr><td style='padding:3px 6px; font-weight:bold; background-color:#f2f2f2;'>ชื่อ-สกุล รับเหมา</td><td style='padding:3px 6px;'>รถตัดโรงงานเบอร์ 13</td></tr><tr><td style='padding:3px 6px; font-weight:bold; background-color:#f2f2f2;'>นักเกษตร</td><td style='padding:3px 6px;'>4301</td></tr><tr><td style='padding:3px 6px; font-weight:bold; background-color:#f2f2f2;'>ศูนย์</td><td style='padding:3px 6px;'>K2-43</td></tr><tr><td style='padding:3px 6px; font-weight:bold; background-color:#f2f2f2;'>โควตา</td><td style='padding:3px 6px;'>974326</td></tr><tr><td style='padding:3px 6px; font-weight:bold; background-color:#f2f2f2;'>ชาวไร่</td><td style='padding:3px 6px;'>นาง พนารัตน์ ศรีเลิศ</td></tr><tr><td style='padding:3px 6px; font-weight:bold; background-color:#f2f2f2;'>ประเภทอ้อย</td><td style='padding:3px 6px;'>ตอ1</td></tr><tr><td style='padding:3px 6px; font-weight:bold; background-color:#f2f2f2;'>พื้นที่</td><td style='padding:3px 6px;'>3.96</td></tr><tr><td style='padding:3px 6px; font-weight:bold; background-color:#f2f2f2;'>ตันรวม</td><td style='padding:3px 6px;'>35.64</td></tr><tr><td style='padding:3px 6px; font-weight:bold; background-color:#f2f2f2;'>รหัสแปลง</td><td style='padding:3px 6px;'>330709021513</td></tr><tr><td style='padding:3px 6px; font-weight:bold; background-color:#f2f2f2;'>กลุ่ม</td><td style='padding:3px 6px;'>กลุ่ม_43</td></tr></table></div>]]></description>
      <styleUrl>#plotStyle</styleUrl>
      <MultiGeometry><Polygon><outerBoundaryIs><LinearRing><coordinates>103.9691964,14.9281517,0 103.9689929,14.9271491,0 103.9684984,14.9272929,0 103.9686425,14.9282344,0 103.9691964,14.9281517,0</coordinates></LinearRing></outerBoundaryIs></Polygon></MultiGeometry>
    </Placemark>
    <Placemark>
      <name>331204131533</name>
      <description><![CDATA[<div style='font-family:Tahoma,sans-serif; font-size:13px;'><h3 style='color:#1565C0; margin:4px 0;'>รหัสแปลง: 331204131533</h3><p style='margin:2px 0;'><b>กลุ่มคิว:</b> 43_001</p><table border='1' style='border-collapse:collapse; border-color:#ccc; width:100%;'><tr><td style='padding:3px 6px; font-weight:bold; background-color:#f2f2f2;'>รหัสกลุ่มคิว</td><td style='padding:3px 6px;'>43/001</td></tr><tr><td style='padding:3px 6px; font-weight:bold; background-color:#f2f2f2;'>รหัสรับเหมา</td><td style='padding:3px 6px;'>738889</td></tr><tr><td style='padding:3px 6px; font-weight:bold; background-color:#f2f2f2;'>ชื่อ-สกุล รับเหมา</td><td style='padding:3px 6px;'>รถตัดโรงงานเบอร์ 13</td></tr><tr><td style='padding:3px 6px; font-weight:bold; background-color:#f2f2f2;'>นักเกษตร</td><td style='padding:3px 6px;'>4301</td></tr><tr><td style='padding:3px 6px; font-weight:bold; background-color:#f2f2f2;'>ศูนย์</td><td style='padding:3px 6px;'>K2-43</td></tr><tr><td style='padding:3px 6px; font-weight:bold; background-color:#f2f2f2;'>โควตา</td><td style='padding:3px 6px;'>974326</td></tr><tr><td style='padding:3px 6px; font-weight:bold; background-color:#f2f2f2;'>ชาวไร่</td><td style='padding:3px 6px;'>นาง พนารัตน์ ศรีเลิศ</td></tr><tr><td style='padding:3px 6px; font-weight:bold; background-color:#f2f2f2;'>ประเภทอ้อย</td><td style='padding:3px 6px;'>ตอ1</td></tr><tr><td style='padding:3px 6px; font-weight:bold; background-color:#f2f2f2;'>พื้นที่</td><td style='padding:3px 6px;'>2.43</td></tr><tr><td style='padding:3px 6px; font-weight:bold; background-color:#f2f2f2;'>ตันรวม</td><td style='padding:3px 6px;'>21.87</td></tr><tr><td style='padding:3px 6px; font-weight:bold; background-color:#f2f2f2;'>รหัสแปลง</td><td style='padding:3px 6px;'>331204131533</td></tr><tr><td style='padding:3px 6px; font-weight:bold; background-color:#f2f2f2;'>กลุ่ม</td><td style='padding:3px 6px;'>กลุ่ม_43</td></tr></table></div>]]></description>
      <styleUrl>#plotStyle</styleUrl>
      <MultiGeometry><Polygon><outerBoundaryIs><LinearRing><coordinates>103.9764904,14.9391568,0 103.9774949,14.9391451,0 103.9775030,14.9388214,0 103.9765027,14.9388321,0 103.9764904,14.9391568,0</coordinates></LinearRing></outerBoundaryIs></Polygon></MultiGeometry>
    </Placemark>
    <Placemark>
      <name>331204141566</name>
      <description><![CDATA[<div style='font-family:Tahoma,sans-serif; font-size:13px;'><h3 style='color:#1565C0; margin:4px 0;'>รหัสแปลง: 331204141566</h3><p style='margin:2px 0;'><b>กลุ่มคิว:</b> 43_001</p><table border='1' style='border-collapse:collapse; border-color:#ccc; width:100%;'><tr><td style='padding:3px 6px; font-weight:bold; background-color:#f2f2f2;'>รหัสกลุ่มคิว</td><td style='padding:3px 6px;'>43/001</td></tr><tr><td style='padding:3px 6px; font-weight:bold; background-color:#f2f2f2;'>รหัสรับเหมา</td><td style='padding:3px 6px;'>738889</td></tr><tr><td style='padding:3px 6px; font-weight:bold; background-color:#f2f2f2;'>ชื่อ-สกุล รับเหมา</td><td style='padding:3px 6px;'>รถตัดโรงงานเบอร์ 13</td></tr><tr><td style='padding:3px 6px; font-weight:bold; background-color:#f2f2f2;'>นักเกษตร</td><td style='padding:3px 6px;'>4301</td></tr><tr><td style='padding:3px 6px; font-weight:bold; background-color:#f2f2f2;'>ศูนย์</td><td style='padding:3px 6px;'>K2-43</td></tr><tr><td style='padding:3px 6px; font-weight:bold; background-color:#f2f2f2;'>โควตา</td><td style='padding:3px 6px;'>950122</td></tr><tr><td style='padding:3px 6px; font-weight:bold; background-color:#f2f2f2;'>ชาวไร่</td><td style='padding:3px 6px;'>นาย บุญนา วงษ์ละคร</td></tr><tr><td style='padding:3px 6px; font-weight:bold; background-color:#f2f2f2;'>ประเภทอ้อย</td><td style='padding:3px 6px;'>ปลายฝน</td></tr><tr><td style='padding:3px 6px; font-weight:bold; background-color:#f2f2f2;'>พื้นที่</td><td style='padding:3px 6px;'>7.91</td></tr><tr><td style='padding:3px 6px; font-weight:bold; background-color:#f2f2f2;'>ตันรวม</td><td style='padding:3px 6px;'>102.83</td></tr><tr><td style='padding:3px 6px; font-weight:bold; background-color:#f2f2f2;'>รหัสแปลง</td><td style='padding:3px 6px;'>331204141566</td></tr><tr><td style='padding:3px 6px; font-weight:bold; background-color:#f2f2f2;'>กลุ่ม</td><td style='padding:3px 6px;'>กลุ่ม_43</td></tr></table></div>]]></description>
      <styleUrl>#plotStyle</styleUrl>
      <MultiGeometry><Polygon><outerBoundaryIs><LinearRing><coordinates>103.9808450,14.9462767,0 103.9808083,14.9461533,0 103.9807733,14.9460417,0 103.9807033,14.9458167,0 103.9805233,14.9446017,0 103.9803215,14.9446396,0 103.9805476,14.9463035,0 103.9805103,14.9463137,0 103.9802933,14.9446450,0 103.9802500,14.9441300,0 103.9799400,14.9441250,0 103.9799483,14.9444150,0 103.9800283,14.9451667,0 103.9800667,14.9453883,0 103.9801167,14.9455850,0 103.9802800,14.9463583,0 103.9808450,14.9462767,0</coordinates></LinearRing></outerBoundaryIs></Polygon></MultiGeometry>
    </Placemark>
    <Placemark>
      <name>320915071555</name>
      <description><![CDATA[<div style='font-family:Tahoma,sans-serif; font-size:13px;'><h3 style='color:#1565C0; margin:4px 0;'>รหัสแปลง: 320915071555</h3><p style='margin:2px 0;'><b>กลุ่มคิว:</b> 43_001</p><table border='1' style='border-collapse:collapse; border-color:#ccc; width:100%;'><tr><td style='padding:3px 6px; font-weight:bold; background-color:#f2f2f2;'>รหัสกลุ่มคิว</td><td style='padding:3px 6px;'>43/001</td></tr><tr><td style='padding:3px 6px; font-weight:bold; background-color:#f2f2f2;'>รหัสรับเหมา</td><td style='padding:3px 6px;'>738889</td></tr><tr><td style='padding:3px 6px; font-weight:bold; background-color:#f2f2f2;'>ชื่อ-สกุล รับเหมา</td><td style='padding:3px 6px;'>รถตัดโรงงานเบอร์ 13</td></tr><tr><td style='padding:3px 6px; font-weight:bold; background-color:#f2f2f2;'>นักเกษตร</td><td style='padding:3px 6px;'>4301</td></tr><tr><td style='padding:3px 6px; font-weight:bold; background-color:#f2f2f2;'>ศูนย์</td><td style='padding:3px 6px;'>K2-43</td></tr><tr><td style='padding:3px 6px; font-weight:bold; background-color:#f2f2f2;'>โควตา</td><td style='padding:3px 6px;'>743950</td></tr><tr><td style='padding:3px 6px; font-weight:bold; background-color:#f2f2f2;'>ชาวไร่</td><td style='padding:3px 6px;'>นาย เสน่ห์ วงละคร</td></tr><tr><td style='padding:3px 6px; font-weight:bold; background-color:#f2f2f2;'>ประเภทอ้อย</td><td style='padding:3px 6px;'>ตอ1</td></tr><tr><td style='padding:3px 6px; font-weight:bold; background-color:#f2f2f2;'>พื้นที่</td><td style='padding:3px 6px;'>10.78</td></tr><tr><td style='padding:3px 6px; font-weight:bold; background-color:#f2f2f2;'>ตันรวม</td><td style='padding:3px 6px;'>97.02</td></tr><tr><td style='padding:3px 6px; font-weight:bold; background-color:#f2f2f2;'>รหัสแปลง</td><td style='padding:3px 6px;'>320915071555</td></tr><tr><td style='padding:3px 6px; font-weight:bold; background-color:#f2f2f2;'>กลุ่ม</td><td style='padding:3px 6px;'>กลุ่ม_43</td></tr></table></div>]]></description>
      <styleUrl>#plotStyle</styleUrl>
      <MultiGeometry><Polygon><outerBoundaryIs><LinearRing><coordinates>103.8257417,14.8675500,0 103.8267967,14.8673617,0 103.8267683,14.8672950,0 103.8267067,14.8668167,0 103.8250183,14.8672267,0 103.8252417,14.8685567,0 103.8258817,14.8683967,0 103.8257417,14.8675500,0</coordinates></LinearRing></outerBoundaryIs></Polygon></MultiGeometry>
    </Placemark>
    <Placemark>
      <name>321206100002</name>
      <description><![CDATA[<div style='font-family:Tahoma,sans-serif; font-size:13px;'><h3 style='color:#1565C0; margin:4px 0;'>รหัสแปลง: 321206100002</h3><p style='margin:2px 0;'><b>กลุ่มคิว:</b> 43_001</p><table border='1' style='border-collapse:collapse; border-color:#ccc; width:100%;'><tr><td style='padding:3px 6px; font-weight:bold; background-color:#f2f2f2;'>รหัสกลุ่มคิว</td><td style='padding:3px 6px;'>43/001</td></tr><tr><td style='padding:3px 6px; font-weight:bold; background-color:#f2f2f2;'>รหัสรับเหมา</td><td style='padding:3px 6px;'>738889</td></tr><tr><td style='padding:3px 6px; font-weight:bold; background-color:#f2f2f2;'>ชื่อ-สกุล รับเหมา</td><td style='padding:3px 6px;'>รถตัดโรงงานเบอร์ 13</td></tr><tr><td style='padding:3px 6px; font-weight:bold; background-color:#f2f2f2;'>นักเกษตร</td><td style='padding:3px 6px;'>4301</td></tr><tr><td style='padding:3px 6px; font-weight:bold; background-color:#f2f2f2;'>ศูนย์</td><td style='padding:3px 6px;'>K2-43</td></tr><tr><td style='padding:3px 6px; font-weight:bold; background-color:#f2f2f2;'>โควตา</td><td style='padding:3px 6px;'>974417</td></tr><tr><td style='padding:3px 6px; font-weight:bold; background-color:#f2f2f2;'>ชาวไร่</td><td style='padding:3px 6px;'>นาย เทียม ทองดาษ</td></tr><tr><td style='padding:3px 6px; font-weight:bold; background-color:#f2f2f2;'>ประเภทอ้อย</td><td style='padding:3px 6px;'>ตอ1</td></tr><tr><td style='padding:3px 6px; font-weight:bold; background-color:#f2f2f2;'>พื้นที่</td><td style='padding:3px 6px;'>18.1</td></tr><tr><td style='padding:3px 6px; font-weight:bold; background-color:#f2f2f2;'>ตันรวม</td><td style='padding:3px 6px;'>162.9</td></tr><tr><td style='padding:3px 6px; font-weight:bold; background-color:#f2f2f2;'>รหัสแปลง</td><td style='padding:3px 6px;'>321206100002</td></tr><tr><td style='padding:3px 6px; font-weight:bold; background-color:#f2f2f2;'>กลุ่ม</td><td style='padding:3px 6px;'>กลุ่ม_43</td></tr></table></div>]]></description>
      <styleUrl>#plotStyle</styleUrl>
      <MultiGeometry><Polygon><outerBoundaryIs><LinearRing><coordinates>103.9424440,14.9326091,0 103.9415829,14.9327656,0 103.9416037,14.9322509,0 103.9413278,14.9321795,0 103.9413430,14.9320570,0 103.9411632,14.9320334,0 103.9411359,14.9322229,0 103.9411254,14.9332272,0 103.9421329,14.9334594,0 103.9428873,14.9336452,0 103.9428550,14.9331717,0 103.9430583,14.9331100,0 103.9432333,14.9331017,0 103.9436767,14.9331333,0 103.9437897,14.9331418,0 103.9438770,14.9324975,0 103.9424083,14.9322372,0 103.9424440,14.9326091,0</coordinates></LinearRing></outerBoundaryIs></Polygon></MultiGeometry>
    </Placemark>
    <Placemark>
      <name>321505051532</name>
      <description><![CDATA[<div style='font-family:Tahoma,sans-serif; font-size:13px;'><h3 style='color:#1565C0; margin:4px 0;'>รหัสแปลง: 321505051532</h3><p style='margin:2px 0;'><b>กลุ่มคิว:</b> 43_001</p><table border='1' style='border-collapse:collapse; border-color:#ccc; width:100%;'><tr><td style='padding:3px 6px; font-weight:bold; background-color:#f2f2f2;'>รหัสกลุ่มคิว</td><td style='padding:3px 6px;'>43/001</td></tr><tr><td style='padding:3px 6px; font-weight:bold; background-color:#f2f2f2;'>รหัสรับเหมา</td><td style='padding:3px 6px;'>738889</td></tr><tr><td style='padding:3px 6px; font-weight:bold; background-color:#f2f2f2;'>ชื่อ-สกุล รับเหมา</td><td style='padding:3px 6px;'>รถตัดโรงงานเบอร์ 13</td></tr><tr><td style='padding:3px 6px; font-weight:bold; background-color:#f2f2f2;'>นักเกษตร</td><td style='padding:3px 6px;'>4301</td></tr><tr><td style='padding:3px 6px; font-weight:bold; background-color:#f2f2f2;'>ศูนย์</td><td style='padding:3px 6px;'>K2-43</td></tr><tr><td style='padding:3px 6px; font-weight:bold; background-color:#f2f2f2;'>โควตา</td><td style='padding:3px 6px;'>701275</td></tr><tr><td style='padding:3px 6px; font-weight:bold; background-color:#f2f2f2;'>ชาวไร่</td><td style='padding:3px 6px;'>นาย วรพัฒน์ นราดุลย์</td></tr><tr><td style='padding:3px 6px; font-weight:bold; background-color:#f2f2f2;'>ประเภทอ้อย</td><td style='padding:3px 6px;'>ปลายฝน</td></tr><tr><td style='padding:3px 6px; font-weight:bold; background-color:#f2f2f2;'>พื้นที่</td><td style='padding:3px 6px;'>6.36</td></tr><tr><td style='padding:3px 6px; font-weight:bold; background-color:#f2f2f2;'>ตันรวม</td><td style='padding:3px 6px;'>82.68</td></tr><tr><td style='padding:3px 6px; font-weight:bold; background-color:#f2f2f2;'>รหัสแปลง</td><td style='padding:3px 6px;'>321505051532</td></tr><tr><td style='padding:3px 6px; font-weight:bold; background-color:#f2f2f2;'>กลุ่ม</td><td style='padding:3px 6px;'>กลุ่ม_43</td></tr></table></div>]]></description>
      <styleUrl>#plotStyle</styleUrl>
      <MultiGeometry><Polygon><outerBoundaryIs><LinearRing><coordinates>103.8353891,14.7831568,0 103.8352302,14.7831736,0 103.8352489,14.7833959,0 103.8351032,14.7834464,0 103.8353363,14.7854560,0 103.8349916,14.7855151,0 103.8350245,14.7857193,0 103.8355362,14.7857325,0 103.8356765,14.7857175,0 103.8353891,14.7831568,0</coordinates></LinearRing></outerBoundaryIs></Polygon></MultiGeometry>
    </Placemark>
    <Placemark>
      <name>331204111587</name>
      <description><![CDATA[<div style='font-family:Tahoma,sans-serif; font-size:13px;'><h3 style='color:#1565C0; margin:4px 0;'>รหัสแปลง: 331204111587</h3><p style='margin:2px 0;'><b>กลุ่มคิว:</b> 43_001</p><table border='1' style='border-collapse:collapse; border-color:#ccc; width:100%;'><tr><td style='padding:3px 6px; font-weight:bold; background-color:#f2f2f2;'>รหัสกลุ่มคิว</td><td style='padding:3px 6px;'>43/001</td></tr><tr><td style='padding:3px 6px; font-weight:bold; background-color:#f2f2f2;'>รหัสรับเหมา</td><td style='padding:3px 6px;'>738889</td></tr><tr><td style='padding:3px 6px; font-weight:bold; background-color:#f2f2f2;'>ชื่อ-สกุล รับเหมา</td><td style='padding:3px 6px;'>รถตัดโรงงานเบอร์ 13</td></tr><tr><td style='padding:3px 6px; font-weight:bold; background-color:#f2f2f2;'>นักเกษตร</td><td style='padding:3px 6px;'>4301</td></tr><tr><td style='padding:3px 6px; font-weight:bold; background-color:#f2f2f2;'>ศูนย์</td><td style='padding:3px 6px;'>K2-43</td></tr><tr><td style='padding:3px 6px; font-weight:bold; background-color:#f2f2f2;'>โควตา</td><td style='padding:3px 6px;'>950038</td></tr><tr><td style='padding:3px 6px; font-weight:bold; background-color:#f2f2f2;'>ชาวไร่</td><td style='padding:3px 6px;'>นาย ธนาวุฒิ ผักไหม</td></tr><tr><td style='padding:3px 6px; font-weight:bold; background-color:#f2f2f2;'>ประเภทอ้อย</td><td style='padding:3px 6px;'>ปลายฝน</td></tr><tr><td style='padding:3px 6px; font-weight:bold; background-color:#f2f2f2;'>พื้นที่</td><td style='padding:3px 6px;'>0.98</td></tr><tr><td style='padding:3px 6px; font-weight:bold; background-color:#f2f2f2;'>ตันรวม</td><td style='padding:3px 6px;'>12.74</td></tr><tr><td style='padding:3px 6px; font-weight:bold; background-color:#f2f2f2;'>รหัสแปลง</td><td style='padding:3px 6px;'>331204111587</td></tr><tr><td style='padding:3px 6px; font-weight:bold; background-color:#f2f2f2;'>กลุ่ม</td><td style='padding:3px 6px;'>กลุ่ม_43</td></tr></table></div>]]></description>
      <styleUrl>#plotStyle</styleUrl>
      <MultiGeometry><Polygon><outerBoundaryIs><LinearRing><coordinates>103.9645850,14.9415167,0 103.9649983,14.9414333,0 103.9649167,14.9411050,0 103.9645083,14.9412500,0 103.9645850,14.9415167,0</coordinates></LinearRing></outerBoundaryIs></Polygon></MultiGeometry>
    </Placemark>
    <Placemark>
      <name>321505051541</name>
      <description><![CDATA[<div style='font-family:Tahoma,sans-serif; font-size:13px;'><h3 style='color:#1565C0; margin:4px 0;'>รหัสแปลง: 321505051541</h3><p style='margin:2px 0;'><b>กลุ่มคิว:</b> 43_001</p><table border='1' style='border-collapse:collapse; border-color:#ccc; width:100%;'><tr><td style='padding:3px 6px; font-weight:bold; background-color:#f2f2f2;'>รหัสกลุ่มคิว</td><td style='padding:3px 6px;'>43/001</td></tr><tr><td style='padding:3px 6px; font-weight:bold; background-color:#f2f2f2;'>รหัสรับเหมา</td><td style='padding:3px 6px;'>738889</td></tr><tr><td style='padding:3px 6px; font-weight:bold; background-color:#f2f2f2;'>ชื่อ-สกุล รับเหมา</td><td style='padding:3px 6px;'>รถตัดโรงงานเบอร์ 13</td></tr><tr><td style='padding:3px 6px; font-weight:bold; background-color:#f2f2f2;'>นักเกษตร</td><td style='padding:3px 6px;'>4301</td></tr><tr><td style='padding:3px 6px; font-weight:bold; background-color:#f2f2f2;'>ศูนย์</td><td style='padding:3px 6px;'>K2-43</td></tr><tr><td style='padding:3px 6px; font-weight:bold; background-color:#f2f2f2;'>โควตา</td><td style='padding:3px 6px;'>701275</td></tr><tr><td style='padding:3px 6px; font-weight:bold; background-color:#f2f2f2;'>ชาวไร่</td><td style='padding:3px 6px;'>นาย วรพัฒน์ นราดุลย์</td></tr><tr><td style='padding:3px 6px; font-weight:bold; background-color:#f2f2f2;'>ประเภทอ้อย</td><td style='padding:3px 6px;'>ปลายฝน</td></tr><tr><td style='padding:3px 6px; font-weight:bold; background-color:#f2f2f2;'>พื้นที่</td><td style='padding:3px 6px;'>5.38</td></tr><tr><td style='padding:3px 6px; font-weight:bold; background-color:#f2f2f2;'>ตันรวม</td><td style='padding:3px 6px;'>69.94</td></tr><tr><td style='padding:3px 6px; font-weight:bold; background-color:#f2f2f2;'>รหัสแปลง</td><td style='padding:3px 6px;'>321505051541</td></tr><tr><td style='padding:3px 6px; font-weight:bold; background-color:#f2f2f2;'>กลุ่ม</td><td style='padding:3px 6px;'>กลุ่ม_43</td></tr></table></div>]]></description>
      <styleUrl>#plotStyle</styleUrl>
      <MultiGeometry><Polygon><outerBoundaryIs><LinearRing><coordinates>103.8353922,14.7831440,0 103.8356439,14.7853273,0 103.8361801,14.7852805,0 103.8361873,14.7852777,0 103.8357659,14.7841711,0 103.8356676,14.7834449,0 103.8356347,14.7831825,0 103.8356362,14.7830888,0 103.8356357,14.7830830,0 103.8353922,14.7831440,0</coordinates></LinearRing></outerBoundaryIs></Polygon></MultiGeometry>
    </Placemark>
    <Placemark>
      <name>321207021670</name>
      <description><![CDATA[<div style='font-family:Tahoma,sans-serif; font-size:13px;'><h3 style='color:#1565C0; margin:4px 0;'>รหัสแปลง: 321207021670</h3><p style='margin:2px 0;'><b>กลุ่มคิว:</b> 43_001</p><table border='1' style='border-collapse:collapse; border-color:#ccc; width:100%;'><tr><td style='padding:3px 6px; font-weight:bold; background-color:#f2f2f2;'>รหัสกลุ่มคิว</td><td style='padding:3px 6px;'>43/001</td></tr><tr><td style='padding:3px 6px; font-weight:bold; background-color:#f2f2f2;'>รหัสรับเหมา</td><td style='padding:3px 6px;'>738889</td></tr><tr><td style='padding:3px 6px; font-weight:bold; background-color:#f2f2f2;'>ชื่อ-สกุล รับเหมา</td><td style='padding:3px 6px;'>รถตัดโรงงานเบอร์ 13</td></tr><tr><td style='padding:3px 6px; font-weight:bold; background-color:#f2f2f2;'>นักเกษตร</td><td style='padding:3px 6px;'>4301</td></tr><tr><td style='padding:3px 6px; font-weight:bold; background-color:#f2f2f2;'>ศูนย์</td><td style='padding:3px 6px;'>K2-43</td></tr><tr><td style='padding:3px 6px; font-weight:bold; background-color:#f2f2f2;'>โควตา</td><td style='padding:3px 6px;'>974996</td></tr><tr><td style='padding:3px 6px; font-weight:bold; background-color:#f2f2f2;'>ชาวไร่</td><td style='padding:3px 6px;'>นาง นรีนารถ ไชยแสง</td></tr><tr><td style='padding:3px 6px; font-weight:bold; background-color:#f2f2f2;'>ประเภทอ้อย</td><td style='padding:3px 6px;'>ปลายฝน</td></tr><tr><td style='padding:3px 6px; font-weight:bold; background-color:#f2f2f2;'>พื้นที่</td><td style='padding:3px 6px;'>3.04</td></tr><tr><td style='padding:3px 6px; font-weight:bold; background-color:#f2f2f2;'>ตันรวม</td><td style='padding:3px 6px;'>39.52</td></tr><tr><td style='padding:3px 6px; font-weight:bold; background-color:#f2f2f2;'>รหัสแปลง</td><td style='padding:3px 6px;'>321207021670</td></tr><tr><td style='padding:3px 6px; font-weight:bold; background-color:#f2f2f2;'>กลุ่ม</td><td style='padding:3px 6px;'>กลุ่ม_43</td></tr></table></div>]]></description>
      <styleUrl>#plotStyle</styleUrl>
      <MultiGeometry><Polygon><outerBoundaryIs><LinearRing><coordinates>103.9580533,14.9918633,0 103.9584350,14.9917300,0 103.9589667,14.9914933,0 103.9588883,14.9912583,0 103.9584150,14.9912800,0 103.9583200,14.9912950,0 103.9582217,14.9913150,0 103.9581133,14.9913283,0 103.9578767,14.9913683,0 103.9580533,14.9918633,0</coordinates></LinearRing></outerBoundaryIs></Polygon></MultiGeometry>
    </Placemark>
    <Placemark>
      <name>320915071601</name>
      <description><![CDATA[<div style='font-family:Tahoma,sans-serif; font-size:13px;'><h3 style='color:#1565C0; margin:4px 0;'>รหัสแปลง: 320915071601</h3><p style='margin:2px 0;'><b>กลุ่มคิว:</b> 43_001</p><table border='1' style='border-collapse:collapse; border-color:#ccc; width:100%;'><tr><td style='padding:3px 6px; font-weight:bold; background-color:#f2f2f2;'>รหัสกลุ่มคิว</td><td style='padding:3px 6px;'>43/001</td></tr><tr><td style='padding:3px 6px; font-weight:bold; background-color:#f2f2f2;'>รหัสรับเหมา</td><td style='padding:3px 6px;'>738889</td></tr><tr><td style='padding:3px 6px; font-weight:bold; background-color:#f2f2f2;'>ชื่อ-สกุล รับเหมา</td><td style='padding:3px 6px;'>รถตัดโรงงานเบอร์ 13</td></tr><tr><td style='padding:3px 6px; font-weight:bold; background-color:#f2f2f2;'>นักเกษตร</td><td style='padding:3px 6px;'>4301</td></tr><tr><td style='padding:3px 6px; font-weight:bold; background-color:#f2f2f2;'>ศูนย์</td><td style='padding:3px 6px;'>K2-43</td></tr><tr><td style='padding:3px 6px; font-weight:bold; background-color:#f2f2f2;'>โควตา</td><td style='padding:3px 6px;'>743950</td></tr><tr><td style='padding:3px 6px; font-weight:bold; background-color:#f2f2f2;'>ชาวไร่</td><td style='padding:3px 6px;'>นาย เสน่ห์ วงละคร</td></tr><tr><td style='padding:3px 6px; font-weight:bold; background-color:#f2f2f2;'>ประเภทอ้อย</td><td style='padding:3px 6px;'>ปลายฝน</td></tr><tr><td style='padding:3px 6px; font-weight:bold; background-color:#f2f2f2;'>พื้นที่</td><td style='padding:3px 6px;'>11.1</td></tr><tr><td style='padding:3px 6px; font-weight:bold; background-color:#f2f2f2;'>ตันรวม</td><td style='padding:3px 6px;'>144.3</td></tr><tr><td style='padding:3px 6px; font-weight:bold; background-color:#f2f2f2;'>รหัสแปลง</td><td style='padding:3px 6px;'>320915071601</td></tr><tr><td style='padding:3px 6px; font-weight:bold; background-color:#f2f2f2;'>กลุ่ม</td><td style='padding:3px 6px;'>กลุ่ม_43</td></tr></table></div>]]></description>
      <styleUrl>#plotStyle</styleUrl>
      <MultiGeometry><Polygon><outerBoundaryIs><LinearRing><coordinates>103.8276913,14.8798369,0 103.8276935,14.8798349,0 103.8266101,14.8802320,0 103.8272418,14.8814776,0 103.8282396,14.8808815,0 103.8276913,14.8798369,0</coordinates></LinearRing></outerBoundaryIs></Polygon></MultiGeometry>
    </Placemark>
    <Placemark>
      <name>320903091518</name>
      <description><![CDATA[<div style='font-family:Tahoma,sans-serif; font-size:13px;'><h3 style='color:#1565C0; margin:4px 0;'>รหัสแปลง: 320903091518</h3><p style='margin:2px 0;'><b>กลุ่มคิว:</b> 43_001</p><table border='1' style='border-collapse:collapse; border-color:#ccc; width:100%;'><tr><td style='padding:3px 6px; font-weight:bold; background-color:#f2f2f2;'>รหัสกลุ่มคิว</td><td style='padding:3px 6px;'>43/001</td></tr><tr><td style='padding:3px 6px; font-weight:bold; background-color:#f2f2f2;'>รหัสรับเหมา</td><td style='padding:3px 6px;'>738889</td></tr><tr><td style='padding:3px 6px; font-weight:bold; background-color:#f2f2f2;'>ชื่อ-สกุล รับเหมา</td><td style='padding:3px 6px;'>รถตัดโรงงานเบอร์ 13</td></tr><tr><td style='padding:3px 6px; font-weight:bold; background-color:#f2f2f2;'>นักเกษตร</td><td style='padding:3px 6px;'>4301</td></tr><tr><td style='padding:3px 6px; font-weight:bold; background-color:#f2f2f2;'>ศูนย์</td><td style='padding:3px 6px;'>K2-43</td></tr><tr><td style='padding:3px 6px; font-weight:bold; background-color:#f2f2f2;'>โควตา</td><td style='padding:3px 6px;'>944412</td></tr><tr><td style='padding:3px 6px; font-weight:bold; background-color:#f2f2f2;'>ชาวไร่</td><td style='padding:3px 6px;'>นาง พินิจ สีหะวงษ์</td></tr><tr><td style='padding:3px 6px; font-weight:bold; background-color:#f2f2f2;'>ประเภทอ้อย</td><td style='padding:3px 6px;'>ตอ2</td></tr><tr><td style='padding:3px 6px; font-weight:bold; background-color:#f2f2f2;'>พื้นที่</td><td style='padding:3px 6px;'>4.15</td></tr><tr><td style='padding:3px 6px; font-weight:bold; background-color:#f2f2f2;'>ตันรวม</td><td style='padding:3px 6px;'>33.2</td></tr><tr><td style='padding:3px 6px; font-weight:bold; background-color:#f2f2f2;'>รหัสแปลง</td><td style='padding:3px 6px;'>320903091518</td></tr><tr><td style='padding:3px 6px; font-weight:bold; background-color:#f2f2f2;'>กลุ่ม</td><td style='padding:3px 6px;'>กลุ่ม_43</td></tr></table></div>]]></description>
      <styleUrl>#plotStyle</styleUrl>
      <MultiGeometry><Polygon><outerBoundaryIs><LinearRing><coordinates>103.7418000,14.8516117,0 103.7407033,14.8520967,0 103.7407383,14.8523900,0 103.7408983,14.8523850,0 103.7410467,14.8523100,0 103.7411867,14.8522250,0 103.7412417,14.8522083,0 103.7414983,14.8523650,0 103.7415983,14.8523233,0 103.7417983,14.8521583,0 103.7419400,14.8522533,0 103.7419850,14.8522533,0 103.7419583,14.8520050,0 103.7418000,14.8516117,0</coordinates></LinearRing></outerBoundaryIs></Polygon></MultiGeometry>
    </Placemark>
    <Placemark>
      <name>320903091519</name>
      <description><![CDATA[<div style='font-family:Tahoma,sans-serif; font-size:13px;'><h3 style='color:#1565C0; margin:4px 0;'>รหัสแปลง: 320903091519</h3><p style='margin:2px 0;'><b>กลุ่มคิว:</b> 43_001</p><table border='1' style='border-collapse:collapse; border-color:#ccc; width:100%;'><tr><td style='padding:3px 6px; font-weight:bold; background-color:#f2f2f2;'>รหัสกลุ่มคิว</td><td style='padding:3px 6px;'>43/001</td></tr><tr><td style='padding:3px 6px; font-weight:bold; background-color:#f2f2f2;'>รหัสรับเหมา</td><td style='padding:3px 6px;'>738889</td></tr><tr><td style='padding:3px 6px; font-weight:bold; background-color:#f2f2f2;'>ชื่อ-สกุล รับเหมา</td><td style='padding:3px 6px;'>รถตัดโรงงานเบอร์ 13</td></tr><tr><td style='padding:3px 6px; font-weight:bold; background-color:#f2f2f2;'>นักเกษตร</td><td style='padding:3px 6px;'>4301</td></tr><tr><td style='padding:3px 6px; font-weight:bold; background-color:#f2f2f2;'>ศูนย์</td><td style='padding:3px 6px;'>K2-43</td></tr><tr><td style='padding:3px 6px; font-weight:bold; background-color:#f2f2f2;'>โควตา</td><td style='padding:3px 6px;'>944412</td></tr><tr><td style='padding:3px 6px; font-weight:bold; background-color:#f2f2f2;'>ชาวไร่</td><td style='padding:3px 6px;'>นาง พินิจ สีหะวงษ์</td></tr><tr><td style='padding:3px 6px; font-weight:bold; background-color:#f2f2f2;'>ประเภทอ้อย</td><td style='padding:3px 6px;'>ตอ2</td></tr><tr><td style='padding:3px 6px; font-weight:bold; background-color:#f2f2f2;'>พื้นที่</td><td style='padding:3px 6px;'>2.92</td></tr><tr><td style='padding:3px 6px; font-weight:bold; background-color:#f2f2f2;'>ตันรวม</td><td style='padding:3px 6px;'>23.36</td></tr><tr><td style='padding:3px 6px; font-weight:bold; background-color:#f2f2f2;'>รหัสแปลง</td><td style='padding:3px 6px;'>320903091519</td></tr><tr><td style='padding:3px 6px; font-weight:bold; background-color:#f2f2f2;'>กลุ่ม</td><td style='padding:3px 6px;'>กลุ่ม_43</td></tr></table></div>]]></description>
      <styleUrl>#plotStyle</styleUrl>
      <MultiGeometry><Polygon><outerBoundaryIs><LinearRing><coordinates>103.7422117,14.8526767,0 103.7431533,14.8523817,0 103.7429517,14.8520117,0 103.7420900,14.8522817,0 103.7422117,14.8526767,0</coordinates></LinearRing></outerBoundaryIs></Polygon></MultiGeometry>
    </Placemark>
    <Placemark>
      <name>330709101720</name>
      <description><![CDATA[<div style='font-family:Tahoma,sans-serif; font-size:13px;'><h3 style='color:#1565C0; margin:4px 0;'>รหัสแปลง: 330709101720</h3><p style='margin:2px 0;'><b>กลุ่มคิว:</b> 43_001</p><table border='1' style='border-collapse:collapse; border-color:#ccc; width:100%;'><tr><td style='padding:3px 6px; font-weight:bold; background-color:#f2f2f2;'>รหัสกลุ่มคิว</td><td style='padding:3px 6px;'>43/001</td></tr><tr><td style='padding:3px 6px; font-weight:bold; background-color:#f2f2f2;'>รหัสรับเหมา</td><td style='padding:3px 6px;'>738889</td></tr><tr><td style='padding:3px 6px; font-weight:bold; background-color:#f2f2f2;'>ชื่อ-สกุล รับเหมา</td><td style='padding:3px 6px;'>รถตัดโรงงานเบอร์ 13</td></tr><tr><td style='padding:3px 6px; font-weight:bold; background-color:#f2f2f2;'>นักเกษตร</td><td style='padding:3px 6px;'>4301</td></tr><tr><td style='padding:3px 6px; font-weight:bold; background-color:#f2f2f2;'>ศูนย์</td><td style='padding:3px 6px;'>K2-43</td></tr><tr><td style='padding:3px 6px; font-weight:bold; background-color:#f2f2f2;'>โควตา</td><td style='padding:3px 6px;'>974326</td></tr><tr><td style='padding:3px 6px; font-weight:bold; background-color:#f2f2f2;'>ชาวไร่</td><td style='padding:3px 6px;'>นาง พนารัตน์ ศรีเลิศ</td></tr><tr><td style='padding:3px 6px; font-weight:bold; background-color:#f2f2f2;'>ประเภทอ้อย</td><td style='padding:3px 6px;'>ปลายฝน</td></tr><tr><td style='padding:3px 6px; font-weight:bold; background-color:#f2f2f2;'>พื้นที่</td><td style='padding:3px 6px;'>10.69</td></tr><tr><td style='padding:3px 6px; font-weight:bold; background-color:#f2f2f2;'>ตันรวม</td><td style='padding:3px 6px;'>138.97</td></tr><tr><td style='padding:3px 6px; font-weight:bold; background-color:#f2f2f2;'>รหัสแปลง</td><td style='padding:3px 6px;'>330709101720</td></tr><tr><td style='padding:3px 6px; font-weight:bold; background-color:#f2f2f2;'>กลุ่ม</td><td style='padding:3px 6px;'>กลุ่ม_43</td></tr></table></div>]]></description>
      <styleUrl>#plotStyle</styleUrl>
      <MultiGeometry><Polygon><outerBoundaryIs><LinearRing><coordinates>103.9503133,14.9390517,0 103.9502500,14.9391533,0 103.9502333,14.9391717,0 103.9501667,14.9396567,0 103.9528917,14.9394083,0 103.9528567,14.9389333,0 103.9503133,14.9390517,0</coordinates></LinearRing></outerBoundaryIs></Polygon></MultiGeometry>
    </Placemark>
    <Placemark>
      <name>320915071615</name>
      <description><![CDATA[<div style='font-family:Tahoma,sans-serif; font-size:13px;'><h3 style='color:#1565C0; margin:4px 0;'>รหัสแปลง: 320915071615</h3><p style='margin:2px 0;'><b>กลุ่มคิว:</b> 43_001</p><table border='1' style='border-collapse:collapse; border-color:#ccc; width:100%;'><tr><td style='padding:3px 6px; font-weight:bold; background-color:#f2f2f2;'>รหัสกลุ่มคิว</td><td style='padding:3px 6px;'>43/001</td></tr><tr><td style='padding:3px 6px; font-weight:bold; background-color:#f2f2f2;'>รหัสรับเหมา</td><td style='padding:3px 6px;'>738889</td></tr><tr><td style='padding:3px 6px; font-weight:bold; background-color:#f2f2f2;'>ชื่อ-สกุล รับเหมา</td><td style='padding:3px 6px;'>รถตัดโรงงานเบอร์ 13</td></tr><tr><td style='padding:3px 6px; font-weight:bold; background-color:#f2f2f2;'>นักเกษตร</td><td style='padding:3px 6px;'>4301</td></tr><tr><td style='padding:3px 6px; font-weight:bold; background-color:#f2f2f2;'>ศูนย์</td><td style='padding:3px 6px;'>K2-43</td></tr><tr><td style='padding:3px 6px; font-weight:bold; background-color:#f2f2f2;'>โควตา</td><td style='padding:3px 6px;'>743950</td></tr><tr><td style='padding:3px 6px; font-weight:bold; background-color:#f2f2f2;'>ชาวไร่</td><td style='padding:3px 6px;'>นาย เสน่ห์ วงละคร</td></tr><tr><td style='padding:3px 6px; font-weight:bold; background-color:#f2f2f2;'>ประเภทอ้อย</td><td style='padding:3px 6px;'>ปลายฝน</td></tr><tr><td style='padding:3px 6px; font-weight:bold; background-color:#f2f2f2;'>พื้นที่</td><td style='padding:3px 6px;'>13.32</td></tr><tr><td style='padding:3px 6px; font-weight:bold; background-color:#f2f2f2;'>ตันรวม</td><td style='padding:3px 6px;'>173.16</td></tr><tr><td style='padding:3px 6px; font-weight:bold; background-color:#f2f2f2;'>รหัสแปลง</td><td style='padding:3px 6px;'>320915071615</td></tr><tr><td style='padding:3px 6px; font-weight:bold; background-color:#f2f2f2;'>กลุ่ม</td><td style='padding:3px 6px;'>กลุ่ม_43</td></tr></table></div>]]></description>
      <styleUrl>#plotStyle</styleUrl>
      <MultiGeometry><Polygon><outerBoundaryIs><LinearRing><coordinates>103.8175384,14.8653310,0 103.8175601,14.8655567,0 103.8175626,14.8657738,0 103.8174105,14.8658138,0 103.8174163,14.8658758,0 103.8176012,14.8658688,0 103.8176405,14.8662421,0 103.8186102,14.8661392,0 103.8186162,14.8657186,0 103.8186019,14.8652836,0 103.8183563,14.8648494,0 103.8181411,14.8644845,0 103.8180137,14.8644884,0 103.8178011,14.8645159,0 103.8173960,14.8645201,0 103.8174290,14.8648566,0 103.8171095,14.8648965,0 103.8171856,14.8651519,0 103.8174843,14.8652510,0 103.8175384,14.8653310,0</coordinates></LinearRing></outerBoundaryIs></Polygon></MultiGeometry>
    </Placemark>
    <Placemark>
      <name>320915091706</name>
      <description><![CDATA[<div style='font-family:Tahoma,sans-serif; font-size:13px;'><h3 style='color:#1565C0; margin:4px 0;'>รหัสแปลง: 320915091706</h3><p style='margin:2px 0;'><b>กลุ่มคิว:</b> 43_001</p><table border='1' style='border-collapse:collapse; border-color:#ccc; width:100%;'><tr><td style='padding:3px 6px; font-weight:bold; background-color:#f2f2f2;'>รหัสกลุ่มคิว</td><td style='padding:3px 6px;'>43/001</td></tr><tr><td style='padding:3px 6px; font-weight:bold; background-color:#f2f2f2;'>รหัสรับเหมา</td><td style='padding:3px 6px;'>738889</td></tr><tr><td style='padding:3px 6px; font-weight:bold; background-color:#f2f2f2;'>ชื่อ-สกุล รับเหมา</td><td style='padding:3px 6px;'>รถตัดโรงงานเบอร์ 13</td></tr><tr><td style='padding:3px 6px; font-weight:bold; background-color:#f2f2f2;'>นักเกษตร</td><td style='padding:3px 6px;'>4301</td></tr><tr><td style='padding:3px 6px; font-weight:bold; background-color:#f2f2f2;'>ศูนย์</td><td style='padding:3px 6px;'>K2-43</td></tr><tr><td style='padding:3px 6px; font-weight:bold; background-color:#f2f2f2;'>โควตา</td><td style='padding:3px 6px;'>743950</td></tr><tr><td style='padding:3px 6px; font-weight:bold; background-color:#f2f2f2;'>ชาวไร่</td><td style='padding:3px 6px;'>นาย เสน่ห์ วงละคร</td></tr><tr><td style='padding:3px 6px; font-weight:bold; background-color:#f2f2f2;'>ประเภทอ้อย</td><td style='padding:3px 6px;'>ปลายฝน</td></tr><tr><td style='padding:3px 6px; font-weight:bold; background-color:#f2f2f2;'>พื้นที่</td><td style='padding:3px 6px;'>19.34</td></tr><tr><td style='padding:3px 6px; font-weight:bold; background-color:#f2f2f2;'>ตันรวม</td><td style='padding:3px 6px;'>251.42</td></tr><tr><td style='padding:3px 6px; font-weight:bold; background-color:#f2f2f2;'>รหัสแปลง</td><td style='padding:3px 6px;'>320915091706</td></tr><tr><td style='padding:3px 6px; font-weight:bold; background-color:#f2f2f2;'>กลุ่ม</td><td style='padding:3px 6px;'>กลุ่ม_43</td></tr></table></div>]]></description>
      <styleUrl>#plotStyle</styleUrl>
      <MultiGeometry><Polygon><outerBoundaryIs><LinearRing><coordinates>103.8340567,14.8206150,0 103.8360833,14.8204067,0 103.8360100,14.8201283,0 103.8358533,14.8198250,0 103.8355433,14.8193233,0 103.8354167,14.8193900,0 103.8346567,14.8189600,0 103.8346217,14.8189417,0 103.8345833,14.8188583,0 103.8345004,14.8187118,0 103.8340733,14.8188883,0 103.8338967,14.8197850,0 103.8341450,14.8200133,0 103.8342233,14.8202283,0 103.8340567,14.8206150,0</coordinates></LinearRing></outerBoundaryIs></Polygon></MultiGeometry>
    </Placemark>
    <Placemark>
      <name>320915071626</name>
      <description><![CDATA[<div style='font-family:Tahoma,sans-serif; font-size:13px;'><h3 style='color:#1565C0; margin:4px 0;'>รหัสแปลง: 320915071626</h3><p style='margin:2px 0;'><b>กลุ่มคิว:</b> 43_001</p><table border='1' style='border-collapse:collapse; border-color:#ccc; width:100%;'><tr><td style='padding:3px 6px; font-weight:bold; background-color:#f2f2f2;'>รหัสกลุ่มคิว</td><td style='padding:3px 6px;'>43/001</td></tr><tr><td style='padding:3px 6px; font-weight:bold; background-color:#f2f2f2;'>รหัสรับเหมา</td><td style='padding:3px 6px;'>738889</td></tr><tr><td style='padding:3px 6px; font-weight:bold; background-color:#f2f2f2;'>ชื่อ-สกุล รับเหมา</td><td style='padding:3px 6px;'>รถตัดโรงงานเบอร์ 13</td></tr><tr><td style='padding:3px 6px; font-weight:bold; background-color:#f2f2f2;'>นักเกษตร</td><td style='padding:3px 6px;'>4301</td></tr><tr><td style='padding:3px 6px; font-weight:bold; background-color:#f2f2f2;'>ศูนย์</td><td style='padding:3px 6px;'>K2-43</td></tr><tr><td style='padding:3px 6px; font-weight:bold; background-color:#f2f2f2;'>โควตา</td><td style='padding:3px 6px;'>743950</td></tr><tr><td style='padding:3px 6px; font-weight:bold; background-color:#f2f2f2;'>ชาวไร่</td><td style='padding:3px 6px;'>นาย เสน่ห์ วงละคร</td></tr><tr><td style='padding:3px 6px; font-weight:bold; background-color:#f2f2f2;'>ประเภทอ้อย</td><td style='padding:3px 6px;'>ตอ1</td></tr><tr><td style='padding:3px 6px; font-weight:bold; background-color:#f2f2f2;'>พื้นที่</td><td style='padding:3px 6px;'>13.4</td></tr><tr><td style='padding:3px 6px; font-weight:bold; background-color:#f2f2f2;'>ตันรวม</td><td style='padding:3px 6px;'>120.6</td></tr><tr><td style='padding:3px 6px; font-weight:bold; background-color:#f2f2f2;'>รหัสแปลง</td><td style='padding:3px 6px;'>320915071626</td></tr><tr><td style='padding:3px 6px; font-weight:bold; background-color:#f2f2f2;'>กลุ่ม</td><td style='padding:3px 6px;'>กลุ่ม_43</td></tr></table></div>]]></description>
      <styleUrl>#plotStyle</styleUrl>
      <MultiGeometry><Polygon><outerBoundaryIs><LinearRing><coordinates>103.8186400,14.8661117,0 103.8176417,14.8662233,0 103.8175800,14.8658467,0 103.8175417,14.8658467,0 103.8174417,14.8658583,0 103.8173433,14.8658733,0 103.8171683,14.8659033,0 103.8171400,14.8659383,0 103.8171200,14.8659733,0 103.8170800,14.8659933,0 103.8174433,14.8674917,0 103.8185483,14.8673433,0 103.8186400,14.8661117,0</coordinates></LinearRing></outerBoundaryIs></Polygon></MultiGeometry>
    </Placemark>
    <Placemark>
      <name>321505031570</name>
      <description><![CDATA[<div style='font-family:Tahoma,sans-serif; font-size:13px;'><h3 style='color:#1565C0; margin:4px 0;'>รหัสแปลง: 321505031570</h3><p style='margin:2px 0;'><b>กลุ่มคิว:</b> 43_001</p><table border='1' style='border-collapse:collapse; border-color:#ccc; width:100%;'><tr><td style='padding:3px 6px; font-weight:bold; background-color:#f2f2f2;'>รหัสกลุ่มคิว</td><td style='padding:3px 6px;'>43/001</td></tr><tr><td style='padding:3px 6px; font-weight:bold; background-color:#f2f2f2;'>รหัสรับเหมา</td><td style='padding:3px 6px;'>738889</td></tr><tr><td style='padding:3px 6px; font-weight:bold; background-color:#f2f2f2;'>ชื่อ-สกุล รับเหมา</td><td style='padding:3px 6px;'>รถตัดโรงงานเบอร์ 13</td></tr><tr><td style='padding:3px 6px; font-weight:bold; background-color:#f2f2f2;'>นักเกษตร</td><td style='padding:3px 6px;'>4301</td></tr><tr><td style='padding:3px 6px; font-weight:bold; background-color:#f2f2f2;'>ศูนย์</td><td style='padding:3px 6px;'>K2-43</td></tr><tr><td style='padding:3px 6px; font-weight:bold; background-color:#f2f2f2;'>โควตา</td><td style='padding:3px 6px;'>701275</td></tr><tr><td style='padding:3px 6px; font-weight:bold; background-color:#f2f2f2;'>ชาวไร่</td><td style='padding:3px 6px;'>นาย วรพัฒน์ นราดุลย์</td></tr><tr><td style='padding:3px 6px; font-weight:bold; background-color:#f2f2f2;'>ประเภทอ้อย</td><td style='padding:3px 6px;'>ปลายฝน</td></tr><tr><td style='padding:3px 6px; font-weight:bold; background-color:#f2f2f2;'>พื้นที่</td><td style='padding:3px 6px;'>2.01</td></tr><tr><td style='padding:3px 6px; font-weight:bold; background-color:#f2f2f2;'>ตันรวม</td><td style='padding:3px 6px;'>26.13</td></tr><tr><td style='padding:3px 6px; font-weight:bold; background-color:#f2f2f2;'>รหัสแปลง</td><td style='padding:3px 6px;'>321505031570</td></tr><tr><td style='padding:3px 6px; font-weight:bold; background-color:#f2f2f2;'>กลุ่ม</td><td style='padding:3px 6px;'>กลุ่ม_43</td></tr></table></div>]]></description>
      <styleUrl>#plotStyle</styleUrl>
      <MultiGeometry><Polygon><outerBoundaryIs><LinearRing><coordinates>103.8356401,14.7853349,0 103.8356875,14.7857290,0 103.8363682,14.7857173,0 103.8363933,14.7856931,0 103.8363081,14.7855270,0 103.8362340,14.7852858,0 103.8356401,14.7853349,0</coordinates></LinearRing></outerBoundaryIs></Polygon></MultiGeometry>
    </Placemark>
    <Placemark>
      <name>321206101513</name>
      <description><![CDATA[<div style='font-family:Tahoma,sans-serif; font-size:13px;'><h3 style='color:#1565C0; margin:4px 0;'>รหัสแปลง: 321206101513</h3><p style='margin:2px 0;'><b>กลุ่มคิว:</b> 43_001</p><table border='1' style='border-collapse:collapse; border-color:#ccc; width:100%;'><tr><td style='padding:3px 6px; font-weight:bold; background-color:#f2f2f2;'>รหัสกลุ่มคิว</td><td style='padding:3px 6px;'>43/001</td></tr><tr><td style='padding:3px 6px; font-weight:bold; background-color:#f2f2f2;'>รหัสรับเหมา</td><td style='padding:3px 6px;'>738889</td></tr><tr><td style='padding:3px 6px; font-weight:bold; background-color:#f2f2f2;'>ชื่อ-สกุล รับเหมา</td><td style='padding:3px 6px;'>รถตัดโรงงานเบอร์ 13</td></tr><tr><td style='padding:3px 6px; font-weight:bold; background-color:#f2f2f2;'>นักเกษตร</td><td style='padding:3px 6px;'>4301</td></tr><tr><td style='padding:3px 6px; font-weight:bold; background-color:#f2f2f2;'>ศูนย์</td><td style='padding:3px 6px;'>K2-43</td></tr><tr><td style='padding:3px 6px; font-weight:bold; background-color:#f2f2f2;'>โควตา</td><td style='padding:3px 6px;'>974326</td></tr><tr><td style='padding:3px 6px; font-weight:bold; background-color:#f2f2f2;'>ชาวไร่</td><td style='padding:3px 6px;'>นาง พนารัตน์ ศรีเลิศ</td></tr><tr><td style='padding:3px 6px; font-weight:bold; background-color:#f2f2f2;'>ประเภทอ้อย</td><td style='padding:3px 6px;'>ตอ2</td></tr><tr><td style='padding:3px 6px; font-weight:bold; background-color:#f2f2f2;'>พื้นที่</td><td style='padding:3px 6px;'>8.03</td></tr><tr><td style='padding:3px 6px; font-weight:bold; background-color:#f2f2f2;'>ตันรวม</td><td style='padding:3px 6px;'>64.24</td></tr><tr><td style='padding:3px 6px; font-weight:bold; background-color:#f2f2f2;'>รหัสแปลง</td><td style='padding:3px 6px;'>321206101513</td></tr><tr><td style='padding:3px 6px; font-weight:bold; background-color:#f2f2f2;'>กลุ่ม</td><td style='padding:3px 6px;'>กลุ่ม_43</td></tr></table></div>]]></description>
      <styleUrl>#plotStyle</styleUrl>
      <MultiGeometry><Polygon><outerBoundaryIs><LinearRing><coordinates>103.9336517,14.9169517,0 103.9335150,14.9168767,0 103.9329200,14.9167700,0 103.9327333,14.9168317,0 103.9326750,14.9167333,0 103.9325350,14.9167183,0 103.9326483,14.9172833,0 103.9325400,14.9173783,0 103.9325899,14.9178189,0 103.9338721,14.9176468,0 103.9336517,14.9169517,0</coordinates></LinearRing></outerBoundaryIs></Polygon></MultiGeometry>
    </Placemark>
    <Placemark>
      <name>320915071629</name>
      <description><![CDATA[<div style='font-family:Tahoma,sans-serif; font-size:13px;'><h3 style='color:#1565C0; margin:4px 0;'>รหัสแปลง: 320915071629</h3><p style='margin:2px 0;'><b>กลุ่มคิว:</b> 43_001</p><table border='1' style='border-collapse:collapse; border-color:#ccc; width:100%;'><tr><td style='padding:3px 6px; font-weight:bold; background-color:#f2f2f2;'>รหัสกลุ่มคิว</td><td style='padding:3px 6px;'>43/001</td></tr><tr><td style='padding:3px 6px; font-weight:bold; background-color:#f2f2f2;'>รหัสรับเหมา</td><td style='padding:3px 6px;'>738889</td></tr><tr><td style='padding:3px 6px; font-weight:bold; background-color:#f2f2f2;'>ชื่อ-สกุล รับเหมา</td><td style='padding:3px 6px;'>รถตัดโรงงานเบอร์ 13</td></tr><tr><td style='padding:3px 6px; font-weight:bold; background-color:#f2f2f2;'>นักเกษตร</td><td style='padding:3px 6px;'>4301</td></tr><tr><td style='padding:3px 6px; font-weight:bold; background-color:#f2f2f2;'>ศูนย์</td><td style='padding:3px 6px;'>K2-43</td></tr><tr><td style='padding:3px 6px; font-weight:bold; background-color:#f2f2f2;'>โควตา</td><td style='padding:3px 6px;'>743950</td></tr><tr><td style='padding:3px 6px; font-weight:bold; background-color:#f2f2f2;'>ชาวไร่</td><td style='padding:3px 6px;'>นาย เสน่ห์ วงละคร</td></tr><tr><td style='padding:3px 6px; font-weight:bold; background-color:#f2f2f2;'>ประเภทอ้อย</td><td style='padding:3px 6px;'>ปลายฝน</td></tr><tr><td style='padding:3px 6px; font-weight:bold; background-color:#f2f2f2;'>พื้นที่</td><td style='padding:3px 6px;'>4.83</td></tr><tr><td style='padding:3px 6px; font-weight:bold; background-color:#f2f2f2;'>ตันรวม</td><td style='padding:3px 6px;'>62.79</td></tr><tr><td style='padding:3px 6px; font-weight:bold; background-color:#f2f2f2;'>รหัสแปลง</td><td style='padding:3px 6px;'>320915071629</td></tr><tr><td style='padding:3px 6px; font-weight:bold; background-color:#f2f2f2;'>กลุ่ม</td><td style='padding:3px 6px;'>กลุ่ม_43</td></tr></table></div>]]></description>
      <styleUrl>#plotStyle</styleUrl>
      <MultiGeometry><Polygon><outerBoundaryIs><LinearRing><coordinates>103.8283050,14.8796667,0 103.8276967,14.8797850,0 103.8282417,14.8809233,0 103.8286783,14.8806683,0 103.8283050,14.8796667,0</coordinates></LinearRing></outerBoundaryIs></Polygon></MultiGeometry>
    </Placemark>
    <Placemark>
      <name>320915071631</name>
      <description><![CDATA[<div style='font-family:Tahoma,sans-serif; font-size:13px;'><h3 style='color:#1565C0; margin:4px 0;'>รหัสแปลง: 320915071631</h3><p style='margin:2px 0;'><b>กลุ่มคิว:</b> 43_001</p><table border='1' style='border-collapse:collapse; border-color:#ccc; width:100%;'><tr><td style='padding:3px 6px; font-weight:bold; background-color:#f2f2f2;'>รหัสกลุ่มคิว</td><td style='padding:3px 6px;'>43/001</td></tr><tr><td style='padding:3px 6px; font-weight:bold; background-color:#f2f2f2;'>รหัสรับเหมา</td><td style='padding:3px 6px;'>738889</td></tr><tr><td style='padding:3px 6px; font-weight:bold; background-color:#f2f2f2;'>ชื่อ-สกุล รับเหมา</td><td style='padding:3px 6px;'>รถตัดโรงงานเบอร์ 13</td></tr><tr><td style='padding:3px 6px; font-weight:bold; background-color:#f2f2f2;'>นักเกษตร</td><td style='padding:3px 6px;'>4301</td></tr><tr><td style='padding:3px 6px; font-weight:bold; background-color:#f2f2f2;'>ศูนย์</td><td style='padding:3px 6px;'>K2-43</td></tr><tr><td style='padding:3px 6px; font-weight:bold; background-color:#f2f2f2;'>โควตา</td><td style='padding:3px 6px;'>743950</td></tr><tr><td style='padding:3px 6px; font-weight:bold; background-color:#f2f2f2;'>ชาวไร่</td><td style='padding:3px 6px;'>นาย เสน่ห์ วงละคร</td></tr><tr><td style='padding:3px 6px; font-weight:bold; background-color:#f2f2f2;'>ประเภทอ้อย</td><td style='padding:3px 6px;'>ปลายฝน</td></tr><tr><td style='padding:3px 6px; font-weight:bold; background-color:#f2f2f2;'>พื้นที่</td><td style='padding:3px 6px;'>7.07</td></tr><tr><td style='padding:3px 6px; font-weight:bold; background-color:#f2f2f2;'>ตันรวม</td><td style='padding:3px 6px;'>91.91</td></tr><tr><td style='padding:3px 6px; font-weight:bold; background-color:#f2f2f2;'>รหัสแปลง</td><td style='padding:3px 6px;'>320915071631</td></tr><tr><td style='padding:3px 6px; font-weight:bold; background-color:#f2f2f2;'>กลุ่ม</td><td style='padding:3px 6px;'>กลุ่ม_43</td></tr></table></div>]]></description>
      <styleUrl>#plotStyle</styleUrl>
      <MultiGeometry><Polygon><outerBoundaryIs><LinearRing><coordinates>103.8257850,14.8675483,0 103.8258967,14.8684250,0 103.8252567,14.8685950,0 103.8252650,14.8689900,0 103.8264433,14.8687933,0 103.8262633,14.8674567,0 103.8257850,14.8675483,0</coordinates></LinearRing></outerBoundaryIs></Polygon></MultiGeometry>
    </Placemark>
    <Placemark>
      <name>330702041636</name>
      <description><![CDATA[<div style='font-family:Tahoma,sans-serif; font-size:13px;'><h3 style='color:#1565C0; margin:4px 0;'>รหัสแปลง: 330702041636</h3><p style='margin:2px 0;'><b>กลุ่มคิว:</b> 43_001</p><table border='1' style='border-collapse:collapse; border-color:#ccc; width:100%;'><tr><td style='padding:3px 6px; font-weight:bold; background-color:#f2f2f2;'>รหัสกลุ่มคิว</td><td style='padding:3px 6px;'>43/001</td></tr><tr><td style='padding:3px 6px; font-weight:bold; background-color:#f2f2f2;'>รหัสรับเหมา</td><td style='padding:3px 6px;'>738889</td></tr><tr><td style='padding:3px 6px; font-weight:bold; background-color:#f2f2f2;'>ชื่อ-สกุล รับเหมา</td><td style='padding:3px 6px;'>รถตัดโรงงานเบอร์ 13</td></tr><tr><td style='padding:3px 6px; font-weight:bold; background-color:#f2f2f2;'>นักเกษตร</td><td style='padding:3px 6px;'>4301</td></tr><tr><td style='padding:3px 6px; font-weight:bold; background-color:#f2f2f2;'>ศูนย์</td><td style='padding:3px 6px;'>K2-43</td></tr><tr><td style='padding:3px 6px; font-weight:bold; background-color:#f2f2f2;'>โควตา</td><td style='padding:3px 6px;'>976399</td></tr><tr><td style='padding:3px 6px; font-weight:bold; background-color:#f2f2f2;'>ชาวไร่</td><td style='padding:3px 6px;'>นาง มะลิ แก้วละมุล</td></tr><tr><td style='padding:3px 6px; font-weight:bold; background-color:#f2f2f2;'>ประเภทอ้อย</td><td style='padding:3px 6px;'>ตอ2</td></tr><tr><td style='padding:3px 6px; font-weight:bold; background-color:#f2f2f2;'>พื้นที่</td><td style='padding:3px 6px;'>15.71</td></tr><tr><td style='padding:3px 6px; font-weight:bold; background-color:#f2f2f2;'>ตันรวม</td><td style='padding:3px 6px;'>125.68</td></tr><tr><td style='padding:3px 6px; font-weight:bold; background-color:#f2f2f2;'>รหัสแปลง</td><td style='padding:3px 6px;'>330702041636</td></tr><tr><td style='padding:3px 6px; font-weight:bold; background-color:#f2f2f2;'>กลุ่ม</td><td style='padding:3px 6px;'>กลุ่ม_43</td></tr></table></div>]]></description>
      <styleUrl>#plotStyle</styleUrl>
      <MultiGeometry><Polygon><outerBoundaryIs><LinearRing><coordinates>103.9525101,14.8304313,0 103.9527171,14.8303569,0 103.9526572,14.8301358,0 103.9526301,14.8301374,0 103.9525612,14.8295702,0 103.9525201,14.8283496,0 103.9524270,14.8266090,0 103.9523843,14.8262167,0 103.9523315,14.8257950,0 103.9519507,14.8258222,0 103.9519937,14.8266309,0 103.9520092,14.8271398,0 103.9520057,14.8276418,0 103.9520123,14.8284967,0 103.9521459,14.8302422,0 103.9524016,14.8301669,0 103.9525101,14.8304313,0</coordinates></LinearRing></outerBoundaryIs></Polygon></MultiGeometry>
    </Placemark>
    <Placemark>
      <name>320911011566</name>
      <description><![CDATA[<div style='font-family:Tahoma,sans-serif; font-size:13px;'><h3 style='color:#1565C0; margin:4px 0;'>รหัสแปลง: 320911011566</h3><p style='margin:2px 0;'><b>กลุ่มคิว:</b> 43_001</p><table border='1' style='border-collapse:collapse; border-color:#ccc; width:100%;'><tr><td style='padding:3px 6px; font-weight:bold; background-color:#f2f2f2;'>รหัสกลุ่มคิว</td><td style='padding:3px 6px;'>43/001</td></tr><tr><td style='padding:3px 6px; font-weight:bold; background-color:#f2f2f2;'>รหัสรับเหมา</td><td style='padding:3px 6px;'>738889</td></tr><tr><td style='padding:3px 6px; font-weight:bold; background-color:#f2f2f2;'>ชื่อ-สกุล รับเหมา</td><td style='padding:3px 6px;'>รถตัดโรงงานเบอร์ 13</td></tr><tr><td style='padding:3px 6px; font-weight:bold; background-color:#f2f2f2;'>นักเกษตร</td><td style='padding:3px 6px;'>4301</td></tr><tr><td style='padding:3px 6px; font-weight:bold; background-color:#f2f2f2;'>ศูนย์</td><td style='padding:3px 6px;'>K2-43</td></tr><tr><td style='padding:3px 6px; font-weight:bold; background-color:#f2f2f2;'>โควตา</td><td style='padding:3px 6px;'>975345</td></tr><tr><td style='padding:3px 6px; font-weight:bold; background-color:#f2f2f2;'>ชาวไร่</td><td style='padding:3px 6px;'>นาง บุปผา สหุนาลุ</td></tr><tr><td style='padding:3px 6px; font-weight:bold; background-color:#f2f2f2;'>ประเภทอ้อย</td><td style='padding:3px 6px;'>ปลายฝน</td></tr><tr><td style='padding:3px 6px; font-weight:bold; background-color:#f2f2f2;'>พื้นที่</td><td style='padding:3px 6px;'>3.43</td></tr><tr><td style='padding:3px 6px; font-weight:bold; background-color:#f2f2f2;'>ตันรวม</td><td style='padding:3px 6px;'>44.59</td></tr><tr><td style='padding:3px 6px; font-weight:bold; background-color:#f2f2f2;'>รหัสแปลง</td><td style='padding:3px 6px;'>320911011566</td></tr><tr><td style='padding:3px 6px; font-weight:bold; background-color:#f2f2f2;'>กลุ่ม</td><td style='padding:3px 6px;'>กลุ่ม_43</td></tr></table></div>]]></description>
      <styleUrl>#plotStyle</styleUrl>
      <MultiGeometry><Polygon><outerBoundaryIs><LinearRing><coordinates>103.8686850,14.9255583,0 103.8687050,14.9256417,0 103.8686167,14.9256417,0 103.8685717,14.9255567,0 103.8683733,14.9255317,0 103.8683750,14.9263433,0 103.8689100,14.9263100,0 103.8689917,14.9260650,0 103.8690250,14.9259417,0 103.8689817,14.9255900,0 103.8686850,14.9255583,0</coordinates></LinearRing></outerBoundaryIs></Polygon></MultiGeometry>
    </Placemark>
    <Placemark>
      <name>331204131586</name>
      <description><![CDATA[<div style='font-family:Tahoma,sans-serif; font-size:13px;'><h3 style='color:#1565C0; margin:4px 0;'>รหัสแปลง: 331204131586</h3><p style='margin:2px 0;'><b>กลุ่มคิว:</b> 43_001</p><table border='1' style='border-collapse:collapse; border-color:#ccc; width:100%;'><tr><td style='padding:3px 6px; font-weight:bold; background-color:#f2f2f2;'>รหัสกลุ่มคิว</td><td style='padding:3px 6px;'>43/001</td></tr><tr><td style='padding:3px 6px; font-weight:bold; background-color:#f2f2f2;'>รหัสรับเหมา</td><td style='padding:3px 6px;'>738889</td></tr><tr><td style='padding:3px 6px; font-weight:bold; background-color:#f2f2f2;'>ชื่อ-สกุล รับเหมา</td><td style='padding:3px 6px;'>รถตัดโรงงานเบอร์ 13</td></tr><tr><td style='padding:3px 6px; font-weight:bold; background-color:#f2f2f2;'>นักเกษตร</td><td style='padding:3px 6px;'>4301</td></tr><tr><td style='padding:3px 6px; font-weight:bold; background-color:#f2f2f2;'>ศูนย์</td><td style='padding:3px 6px;'>K2-43</td></tr><tr><td style='padding:3px 6px; font-weight:bold; background-color:#f2f2f2;'>โควตา</td><td style='padding:3px 6px;'>950038</td></tr><tr><td style='padding:3px 6px; font-weight:bold; background-color:#f2f2f2;'>ชาวไร่</td><td style='padding:3px 6px;'>นาย ธนาวุฒิ ผักไหม</td></tr><tr><td style='padding:3px 6px; font-weight:bold; background-color:#f2f2f2;'>ประเภทอ้อย</td><td style='padding:3px 6px;'>ปลายฝน</td></tr><tr><td style='padding:3px 6px; font-weight:bold; background-color:#f2f2f2;'>พื้นที่</td><td style='padding:3px 6px;'>1.57</td></tr><tr><td style='padding:3px 6px; font-weight:bold; background-color:#f2f2f2;'>ตันรวม</td><td style='padding:3px 6px;'>20.41</td></tr><tr><td style='padding:3px 6px; font-weight:bold; background-color:#f2f2f2;'>รหัสแปลง</td><td style='padding:3px 6px;'>331204131586</td></tr><tr><td style='padding:3px 6px; font-weight:bold; background-color:#f2f2f2;'>กลุ่ม</td><td style='padding:3px 6px;'>กลุ่ม_43</td></tr></table></div>]]></description>
      <styleUrl>#plotStyle</styleUrl>
      <MultiGeometry><Polygon><outerBoundaryIs><LinearRing><coordinates>103.9650367,14.9414750,0 103.9653000,14.9413483,0 103.9651667,14.9409267,0 103.9644167,14.9410817,0 103.9644783,14.9412483,0 103.9648817,14.9410933,0 103.9650367,14.9414750,0</coordinates></LinearRing></outerBoundaryIs></Polygon></MultiGeometry>
    </Placemark>
  </Folder>
</Document>
</kml>